iderp;nom;activite;adresse;lat;lon;type;categorie
;MA MAISON BRETEUIL;Maison de Retraite;;48.8488535;2.3113499;J;
;EHPAD KORIAN BRUNE;Maison de Retraite;;48.8253965;2.316703;J;
;RSIDENCE SANT JULIE SIEGFRIED;Maison de Retraite;;48.8313772;2.3175678;J;
;RESIDENCE SANTE FURTADO-HEINE;Maison de Retraite;;48.8294369;2.3186184;J;
;MAISON DE RETRAITE NOTRE DAME BS;Maison de Retraite;;48.8264869;2.3198741;J;
;CONGREGATION DES PERES LAZARISTES;Maison de Retraite;;48.8475664;2.3227388;J;
;ACPPA PEAN;Maison de Retraite;;48.8374668;2.3420684;J;
;RESIDENCE APPARTEMENT SIMONE WEIL;Etablissement d'Accueil Temporaire pour Personnes Agées;;48.8239007;2.3638307;J;
;LA MAISON DES PARENTS;Maison de Retraite;;48.8260531;2.3691509;J;
;OEUVRE DE SAINT CASIMIR;Maison de Retraite;;48.8315313;2.3732502;J;
;EHPAD RESIDENCE LES MUSICIENS;Maison de Retraite;;48.8890502;2.3871293;J;
;SOEURS DU TRES SAINT SAUVEUR;Maison de Retraite;;48.868107;2.3952938;J;
;EHPAD RESIDENCE LES AMBASSADEURS;Maison de Retraite;;48.8511384;2.3970359;J;
;RESIDENCE SANTE BELLEVILLE;Maison de Retraite;;48.8744558;2.3980185;J;
;LA NOUVELLE MAISON ISATIS;Maison de Retraite;;48.8431059;2.2834938;J;
;AMITIE ET PARTAGE;Maison de Retraite;;48.8490125;2.3241112;J;
;MEDOTELS;Maison de Retraite;;48.8305629;2.3259647;J;
;RESIDENCE TIERS TEMPS PARIS;Maison de Retraite;;48.8297243;2.3317885;J;
;MAISON RETRAITE IMMACULEE CONCEPTION;Maison de Retraite;;48.8567051;2.3019295;J;
;RESIDENCE GOBELINS;Maison de Retraite;;48.8385056;2.3114777;J;
;JEANNE D'ARC;Maison de Retraite;;48.8471437;2.3136769;J;
;MAISON RETRAITE NOTRE DAME BON SECOURS;Maison de Retraite;;48.8264593;2.3197357;J;
;VILLA SAINT ROMAIN;Maison de Retraite;;48.8472615;2.3210034;J;
;PUV LES PETITS FRÒRES DES PAUVRES;Maison de Retraite;;48.8936059;2.3247941;J;
;CONGRGATION NOTRE-DAME;Maison de Retraite;;48.8525397;2.3270252;J;
;EHPAD GRENELLE;Maison de Retraite;;48.8458048;2.292151;J;
;EHPAD VILLA JULES JANIN;Maison de Retraite;;48.859984;2.2755423;J;
;EHPAD KORIAN CHAMP DE MARS;Maison de Retraite;;48.8533235;2.2958032;J;
;MAISON DE RETRAITE LA DSIRADE;Maison de Retraite;;48.8952535;2.3225742;J;
;RESIDENCE NOTRE DAME DES CHAMPS;Maison de Retraite;;48.844389;2.3299947;J;
;MAPI AMANDIERS;Maison de Retraite;;48.8654714;2.3863462;J;
;EHPAD ROTHSCHILD;Maison de Retraite;;48.8416288;2.3982974;J;
;MA MAISON PICPUS;Maison de Retraite;;48.8415708;2.3986199;J;
;RESIDENCE AMARAGGI;Maison de Retraite;;48.8794253;2.3999277;J;
;EHPAD REPOTEL GAMBETTA;Maison de Retraite;;48.8705406;2.4033594;J;
;RESIDENCE SANTE ALQUIER DEBROUSSE;Maison de Retraite;;48.8612295;2.4066438;J;
;"EHPAD ""ANNIE GIRARDOT""";Maison de Retraite;;48.8322222;2.3555556;J;
;RESIDENCE SANTE LE JARDIN DES PLANTES;Maison de Retraite;;48.8404363;2.3597818;J;
;APPARTEMENT RELAIS TEMPORAIRE;Etablissement d'Accueil Temporaire pour Personnes Agées;;48.8901853;2.3871397;J;
;RSIDENCE CATHERINE LABOURE;Maison de Retraite;;48.8450533;2.3895609;J;
;EHPAD RESIDENCE HEROLD;Maison de Retraite;;48.8830464;2.394579;J;
;LES PARENTELES;Maison de Retraite;;48.8629926;2.403381;J;
;LE TREFLE BLEU CARDINET;Maison de Retraite;;48.8888884;2.3159506;J;
;RESIDENCE CLUB LE MONTSOURIS;Maison de Retraite;;48.8280109;2.3318721;J;
;RESIDENCE LES ISSAMBRES;Maison de Retraite;;48.8976054;2.3355208;J;
;LA MAISON DU PARC;Maison de Retraite;;48.8229661;2.341676;J;
;MAISON DE RETRAITE SOEURS AUGUSTINES;Maison de Retraite;;48.8361089;2.3419029;J;
;RESIDENCE ORPEA SAINT JACQUES;Maison de Retraite;;48.8287779;2.3424178;J;
;RESIDENCE SANTE OASIS;Maison de Retraite;;48.8879084;2.3552397;J;
;EHPAD RESIDENCE DU MARAIS;Maison de Retraite;;48.8588924;2.3603904;J;
;EHPAD CANAL DES MARAICHERS;Maison de Retraite;;48.8988667;2.379272;J;
;UNA PARIS 12;Etablissement d'Accueil Temporaire pour Personnes Agées;;48.8474001;2.3802674;J;
;EHPAD KORIAN LES ARCARDES;Maison de Retraite;;48.8425485;2.3851214;J;
;LES SYMPHONIES;Etablissement d'Accueil Temporaire pour Personnes Agées;;48.8977357;2.336669;J;
;RESIDENCE LA PIRANDELLE;Maison de Retraite;;48.8369556;2.357001;J;
;EHPAD KORIAN MAGENTA;Maison de Retraite;;48.873266;2.3589732;J;
;MAISON DE RETRAITE BASTILLE;Maison de Retraite;;48.8570725;2.368975;J;
;LES JARDINS D'IROISE;Maison de Retraite;;48.8300287;2.3724348;J;
;RESIDENCE LES AIRELLES;Maison de Retraite;;48.8663595;2.3857638;J;
;RESIDENCE GAUTIER WENDELEN;Etablissement d'Accueil Temporaire pour Personnes Agées;;48.8750373;2.3858136;J;
;MAISON DE RETRAITE SALESIENNES;Maison de Retraite;;48.8544705;2.4031185;J;
;EPHAD LA SOURCE D'AUTEUIL;Maison de Retraite;;48.8511147;2.2679567;J;
;EHPAD KORIAN MONCEAU;Maison de Retraite;;48.8810498;2.3042422;J;
;MAISON DE RETRAITE MARIE-THERESE;Maison de Retraite;;48.8364332;2.331685;J;
;MAISON DE RETRAITE DE LA PROVIDENCE;Maison de Retraite;;48.8827292;2.3395825;J;
;LES JARDINS DE MONTMARTRE;Maison de Retraite;;48.8847998;2.3451638;J;
;RESIDENCE LES CANTATES;Etablissement d'Accueil Temporaire pour Personnes Agées;;48.8301359;2.3643891;J;
;RSIDENCE MAPI SAINT SIMON;Maison de Retraite;;48.8532436;2.4085173;J;
;FOYER DES ISRAELITES REFUGIES;Maison de Retraite;;48.8406707;2.257854;J;
;VILLA JEAN DOMINIQUE;Maison de Retraite;;48.8828987;2.2877621;J;
;VILLA LECOURBE;Maison de Retraite;;48.8382441;2.2880142;J;
;RESIDENCE AURELIE JOUSSET;Etablissement d'Accueil Temporaire pour Personnes Agées;;48.8466654;2.2900777;J;
;RESIDENCE CHAILLOT;Maison de Retraite;;48.8656835;2.2921775;J;
;MR PROTESTANTE DE LA MUETTE;Maison de Retraite;;48.8459516;2.3936828;J;
;APPT D'HEBERGEMENT TEMPORAIRE RIBIERE;Etablissement d'Accueil Temporaire pour Personnes Agées;;48.8769889;2.395478;J;
;RESIDENCE ORPEA EDITH PIAF;Maison de Retraite;;48.8785715;2.4012029;J;
;RESIDENCE OCEANE;Maison de Retraite;;48.8796521;2.4084102;J;
;CENTRE SAINT JEAN DE DIEU;Etablissement pour Déficient Moteur;;48.8396494;2.2933381;J;
;IME COGNACQ JAY;Institut Médico-Educatif (I.M.E.);;48.8371266;2.2933529;J;
;L' EVEIL;Institut Thérapeutique ducatif et Pédagogique (I.T.E.P.);;48.844275;2.2935559;J;
;IME NOTRE ECOLE;Institut Médico-Educatif (I.M.E.);;48.8421868;2.3155408;J;
;MAIA;Etablissement Expérimental pour Enfance Handicapée;;48.8867399;2.3527503;J;
;IME COUR DE VENISE;Institut Médico-Educatif (I.M.E.);;48.857872;2.3666365;J;
;COURS HERVE;Institut Médico-Educatif (I.M.E.);;48.8892651;2.3679732;J;
;LEOPOLD BELLAN;Institut pour Déficients Auditifs;;48.8636641;2.375636;J;
;AGIR ET VAINCRE L'AUTISME;Etablissement Expérimental pour Enfance Handicapée;;48.882955;2.3884929;J;
;"IME ""UN PAS VERS LA VIE-CAP AUTISME""";Etablissement Expérimental pour Enfance Handicapée;;48.8355215;2.2781798;J;
;IMPRO CARDINET;Institut Médico-Educatif (I.M.E.);;48.8863096;2.3124236;J;
;IME NOLLET;Institut Médico-Educatif (I.M.E.);;48.8877417;2.3200239;J;
;CENTRE AUGUSTIN GROSSELIN;Institut pour Déficients Auditifs;;48.83097;2.321998;J;
;SEES DU CELEM;Institut pour Déficients Auditifs;;48.8788357;2.3298113;J;
;LES AMIS DE LAURENCE;Etablissement pour Enfants ou Adolescents Polyhandicapés;;48.8367594;2.3349932;J;
;INSTITUT NATIONAL DES JEUNES SOURDS;Institut pour Déficients Auditifs;;48.8430391;2.3413408;J;
;CENTRE POUR ENFANTS PLURI-HANDICAPES;Institut pour Déficients Auditifs;;48.827885;2.3455565;J;
;CAFS JENNY AUBRY;Centre d'Accueil Familial Spécialisé;;48.8744397;2.3478516;J;
;LES CASCADES;Etablissement pour Enfants ou Adolescents Polyhandicapés;;48.8231865;2.3479487;J;
;IMPPEC;Institut Thérapeutique ducatif et Pédagogique (I.T.E.P.);;48.8339908;2.3682473;J;
;USEP LES JARDINS DE L'ALHAMBRA;Etablissement pour Enfants ou Adolescents Polyhandicapés;;48.8396494;2.2933381;J;
;ECOLE DE CHAILLOT;Institut Médico-Educatif (I.M.E.);;48.8681434;2.3013746;J;
;INSTITUT NATIONAL DES JEUNES AVEUGLES;Institut pour Déficients Visuels;;48.8474658;2.3161022;J;
;IME DU LUXEMBOURG;Institut Médico-Educatif (I.M.E.);;48.850671;2.3317081;J;
;INSTITUT D'EDUCATION SENSORIELLE;Institut pour Déficients Visuels;;48.8364312;2.3341414;J;
;"SACS ""PAS A PAS""";Etablissement Expérimental pour Enfance Handicapée;;48.8447842;2.3506583;J;
;ARERAM;Institut Médico-Educatif (I.M.E.);;48.8709548;2.3693462;J;
;CENTRE LA CROIX FAUBIN;Etablissement pour Déficient Moteur;;48.8573736;2.3862264;J;
;"IMPRO APAJH ""FAITES DES COULEURS""";Institut Médico-Educatif (I.M.E.);;48.8777863;2.3933937;J;
;STRUCTURE EXPERIMENTALE AUTREPAR;Etablissement Expérimental pour Enfance Handicapée;;48.8700161;2.3995533;J;
;CENTRE FRANCHEMONT;Institut Médico-Educatif (I.M.E.);;48.8533755;2.3833576;J;
;FUTUROSCHOLL 75;Etablissement Expérimental pour Enfance Handicapée;;48.8558474;2.3862085;J;
;IME SITE BOUCICAUT;Institut Médico-Educatif (I.M.E.);;48.8430926;2.2835152;J;
;CEOP;Institut pour Déficients Auditifs;;48.8377106;2.3045815;J;
;EMP CARDINET;Institut Médico-Educatif (I.M.E.);;48.8870043;2.3103816;J;
;CENTRE HOFFER;Institut Médico-Educatif (I.M.E.);;48.8940655;2.3121151;J;
;DYSPHASIA;Institut Médico-Educatif (I.M.E.);;48.8714719;2.3568949;J;
;BINET SIMON;Institut Médico-Educatif (I.M.E.);;48.8578541;2.358694;J;
;CENTRE RAPHAÓL;Etablissement pour Enfants ou Adolescents Polyhandicapés;;48.8679698;2.3770423;J;
;CENTRE LA CROIX FAUBIN;Etablissement pour Enfants ou Adolescents Polyhandicapés;;48.8573736;2.3862264;J;
;IME CEREP;Institut Médico-Educatif (I.M.E.);;48.8887357;2.3887101;J;
;LA COLLINE;Etablissement pour Enfants ou Adolescents Polyhandicapés;;48.8744793;2.395809;J;
;RELAIS FAMILIAL ALESIA;Centre d'Accueil Familial Spécialisé;;48.8383279;2.405183;J;
;IME ALTERNANCE;Institut Médico-Educatif (I.M.E.);;48.8883078;2.3813591;J;
;IME DE BELLEVILLE;Institut Médico-Educatif (I.M.E.);;48.8754459;2.3916166;J;
;IME NORBERT DANA;Institut Médico-Educatif (I.M.E.);;48.8750572;2.3693879;J;
;LES PETITES VICTOIRES;Institut Médico-Educatif (I.M.E.);;48.8527371;2.3712764;J;
