nom;activite;adresse;lat;lon;type;categorie
UGC CINE CITE BERCY 10;;2 COUR SAINT-EMILION;48.833007; 2.38666;L;1
GRAND REX;;1 A 5 BOULEVARD POISSONNIERE;48.870623; 2.347254;L;1
UGC CINE CITE LES HALLES 1;;FORUM DES HALLES;48.859784; 2.346717;L;1
MK2 BIBLIOTHEQUE A;;128 A 162 AVENUE DE FRANCE;48.833739; 2.373946;L;1
GAUMONT PARNASSE 1;;3 RUE D'ODESSA;48.843074; 2.324424;L;1
UGC CINE CITE PARIS 19 (1);;166 BOULEVARD MACDONALD;48.898991; 2.376757;L;1
GAUMONT AQUABOULEVARD 1;;8/16 RUE DU COLONEL PIERRE AVIA;48.830425; 2.276308;L;1
GAUMONT OPERA CAPUCINES 2;;2/4 BOULEVARD DES CAPUCINES;48.871044; 2.33361;L;1
PATHE WEPLER 8;;132 -140 BOULEVARD DE CLICHY;48.883938; 2.328034;L;1
GAUMONT CHAMPS ELYSEES MARIGNAN 3;;27/33 AVENUE DES CHAMPS ELYSEES;48.869654; 2.306873;L;1
GEORGE V 4;;146 AVENUE DES CHAMPS ELYSEES;48.873073; 2.298394;L;1
UGC NORMANDIE 2;;116 AVENUE DES CHAMPS ELYSEES;48.872265; 2.300938;L;1
UGC MONTPARNASSE 1;;83 BOULEVARDD DU MONTPARNASSE;48.84351; 2.325646;L;1
GAUMONT CHAMPS ELYSEES AMBASSADE 7;;50 AVENUE DES CHAMPS ELYSEES;48.870374; 2.306888;L;1
ETOILE LILAS 1;;PLACE DU MAQUIS DU VERCORS;48.877997; 2.409436;L;2
GAUMONT ALESIA 1;;73 AVENUE DU GENERAL LECLERC;48.828166; 2.327463;L;2
UGC LYON BASTILLE 3;;12 RUE DE LYON;48.847502; 2.371855;L;2
MK2 GAMBETTA 1;;6 RUE BELGRAND;48.864763; 2.399555;L;2
GAUMONT GOBELINS 1;;58 AVENUE DES GOBELINS;48.833574; 2.353775;L;2
UGC GOBELINS 3;;66 BIS AVENUE DES GOBELINS;48.832888; 2.354241;L;2
GAUMONT OPERA PREMIER 1;;32 RUE LOUIS LEGRAND;48.870632; 2.334338;L;2
MK2 QUAI DE LOIRE 1;;5/19 QUAI DE LA LOIRE;48.885067; 2.374123;L;2
GAUMONT CONVENTION 2;;27 A 31 RUE ALAIN CHARTIER;48.838038; 2.295831;L;2
BRETAGNE 1;;73 BOULEVARD DU MONTPARNASSE;48.843752; 2.324925;L;2
GAUMONT OPERA FRANCAIS 8;;38 BOULEVARD DES ITALIENS;48.871048; 2.334386;L;2
MK2 QUAI DE SEINE 1;;14 QUAI DE LA SEINE;48.885073; 2.371493;L;2
MK2 NATION 1;;133 BOULEVARD DIDEROT;48.848213; 2.39311;L;2
MISTRAL 2;;70 AVENUE DU GENERAL LECLERC;48.829473; 2.328009;L;2
PARNASSIEN 1;;98 BOULEVARD DU MONTPARNASSE;48.842443; 2.327625;L;2
UGC ODEON 2;;124 BOULEVARD ST GERMAIN;48.852353; 2.339834;L;2
MK2 ODEON 2;;113 BOULEVARD ST GERMAIN;48.852437; 2.338266;L;2
UGC MAILLOT 3;;PALAIS CONGRES PLACE PORTE MAILLOT;48.879964; 2.283381;L;2
UGC OPERA 1;;32 BOULEVARDD DES ITALIENS;48.871332; 2.335302;L;2
FORUM ORIENT EXPRESS 1;;1 RUE DE L'ORIENT-EXPRESS;48.861661; 2.347857;L;3
MK2 HAUTEFEUILLE 1;;7 RUE HAUTEFEUILLE;48.852188; 2.342788;L;3
UGC DANTON 1;;99 BOULEVARD ST GERMAIN;48.852138; 2.338995;L;3
MAJESTIC PASSY 1;;18 - 20 RUE DE PASSY;48.858204; 2.282104;L;3
PUBLICIS CINEMA 2;;133 AVENUE DES CHAMPS ELYSEES;48.872794; 2.296984;L;3
L'ARLEQUIN PANORAMA;;76 RUE DE RENNES;48.851278; 2.330648;L;3
MAX LINDER;;24 BOULEVARD POISSONNIERE;48.871363; 2.344886;L;3
BALZAC 1;;1 RUE BALZAC;48.872431; 2.299525;L;3
MK2 BEAUBOURG 1;;50 RUE RAMBUTEAU;48.861557; 2.352209;L;3
LE LOUXOR SALLE 1 YOUSSEF CHAHINE;;170 BOULEVARD DE MAGENTA;48.883487; 2.349853;L;3
SAINT ANDRE DES ARTS 1;;3O RUE ST ANDRE DES ARTS;48.853442; 2.34051;L;3
CAUMARTIN 4 (EX CINEVOG 4 );;101 RUE ST LAZARE;48.87561; 2.32791;L;3
LA BASTILLE 1;;5 RUE DU FAUBOURG ST ANTOINE;48.853157; 2.370719;L;3
LE CINEMA DES CINEASTES 1;;7 AVENUE DE CLICHY;48.884303; 2.326888;L;3
MK2 BASTILLE 1;;3 BOULEVARD RICHARD LENOIR 4/6 BOULEVARD BEAUMARCHAIS;48.854674; 2.369381;L;3
UGC ROTONDE 1;;103 BOULEVARD DU MONTPARNASSE;48.842318; 2.328975;L;3
ELYSEES LINCOLN 1;;14 RUE LINCOLN;48.870512; 2.303157;L;3
LA GEODE;;26 AVENUE CORENTIN CARIOU;48.896314; 2.384409;L;3
LA PAGODE 1;;57 BIS RUE DE BABYLONE;48.851726; 2.316361;L;3
REFLET MEDICIS 1;;7 RUE CHAMPOLLION;48.849591; 2.342836;L;3
CHAPLIN SAINT LAMBERT 1;;6 RUE PECLET;48.843204; 2.298558;L;3
MAJESTIC BASTILLE 1;;4 BOULEVARD RICHARD LENOIR;48.85399; 2.369949;L;3
MONTPARNOS 1;;18 RUE D'ODESSA;48.841875; 2.324607;L;3
LE GRAND ACTION 1;;5 RUE DES ECOLES;48.847537; 2.352122;L;3
LUXEMBOURG 1;;67 69 RUE MONSIEUR LE PRINCE;48.84824; 2.340797;L;3
SAINT LAZARE PASQUIER 1;;44 RUE PASQUIER;48.874832; 2.323941;L;3
ESCURIAL 1;;11 BOULEVARD PORT ROYAL;48.836817; 2.349632;L;3
BORIS VIAN;;211 AVENUE JEAN JAURES;48.888947; 2.392436;L;4
MK2 PARNASSE 1;;11 RUE JULES CHAPLAIN;48.842813; 2.330525;L;4
ST GERMAIN DES PRES;;22 RUE GUILLAUME APOLLINAIRE;48.85467; 2.333052;L;4
ENTREPOT 1;;7 ET 9 RUE FRANCIS DE PRESSENSE;48.83393; 2.31652;L;4
STUDIO CHRISTINE 1;;4 RUE CHRISTINE;48.854455; 2.340132;L;4
LATINA 1;;20 RUE DU TEMPLE;48.858689; 2.353591;L;4
LE CHAMPO SALLE 1;;51 RUE DES ECOLES;48.849983; 2.343211;L;4
ESPACE SAINT MICHEL 1;;7 PLACE ST MICHEL;48.853093; 2.344228;L;4
L'ARCHIPEL 1;;17 BOULEVARD DE STRASBOURG;48.870455; 2.35466;L;4
LE DESPERADO 1;;23 RUE DES ECOLES;48.848384; 2.348973;L;4
LE CINEMA DU PANTHEON;;13 RUE VICTOR COUSIN;48.847502; 2.342301;L;4
LA CLEF 1;;21 RUE CLEF 34 RUE DAUBENTON;48.841154; 2.353269;L;4
STUDIO 28;;10 RUE THOLOZE;48.886142; 2.335342;L;4
LUCERNAIRE FORUM GRANDE SAL;;53 RUE NOTRE DAME DES CHAMPS;48.844244; 2.330407;L;4
QUARTIER LATIN 1;;9 RUE CHAMPOLLION;48.849505; 2.342788;L;4
CLUB DE L ETOILE;;14 RUE TROYON;48.876113; 2.295345;L;4
EPEE DE BOIS 1;;100 RUE MOUFFETARD;48.841532; 2.34958;L;4
LE BRADY 1;;39 BOULEVARD DE STRASBOURG;48.871771; 2.355398;L;4
MAC MAHON;;5/7 AV MAC MAHON;48.875539; 2.294478;L;4
CHAPLIN DENFERT;;24 PLACE DENFERT ROCHEREAU;48.833879; 2.330976;L;4
STUDIO DES URSULINES;;10 RUE DES URSULINES;48.842733; 2.342044;L;4
NOUVEL ODEON;;6 RUE DE L ECOLE DE MEDECINE;48.850764; 2.341747;L;4
BEVERLEY;;14 RUE VILLE NEUVE 31 BOULEVARD BONNE NLL;48.8701164; 2.3486831;L;4
STUDIO GALANDE;;42 RUE GALANDE;48.851619; 2.347076;L;4
MK2 GRAND PALAIS;;GRAND PALAIS CHAMPS ELYSEES;48.870842; 2.304311;L;4
ACCATONE;;20 RUE CUJAS;48.84815; 2.341975;L;4
Centre d'animation Les Halles Marais;Diffusion spectacles vivants;6-8 place Carrée;48.862424; 2.345859;L;
Centre India;Diffusion spectacles vivantsL;a route des Indes;48.8646375; 2.3338723;L;
Comédie Fran‡aise / Salle Richelieu;Diffusion spectacles vivants;Place Colette;48.8631944; 2.3358333;L;
Espace Saint-Honoré;Diffusion spectacles vivants;62 rue Saint-Honoré;48.8612738; 2.3436605;L;
Théâtre du Palais Royal;Diffusion spectacles vivants;38 rue Montpensier;48.8661017; 2.3374868;L;
Les Vo–tes Saint-Honoré;Diffusion spectacles vivants;99 rue Saint Honoré;48.8613909; 2.3429797;L;
Café théâtre Oscar;Diffusion spectacles vivants;155 rue Montmartre;48.870695; 2.3425543;L;
Centre Jean Dame;Diffusion spectacles vivants;17 rue Léopold Bellan;48.8665516; 2.345287;L;
Salle Jean Dame A Paris;Diffusion spectacles vivants;17 rue Léopold Bellan;48.8665516; 2.345287;L;
Théâtre Daunou;Diffusion spectacles vivants;7 rue Daunou;48.8693358; 2.3320464;L;
Centre culturel suédois;Diffusion spectacles vivants;H“tel de Marle;48.8581638; 2.362247;L;
La Comédie République;Diffusion spectacles vivants;1 boulevard Saint-Martin;48.868201; 2.362143;L;
La gaïté lyrique;Diffusion spectacles vivants;3 bis rue Papin;48.866836; 2.353579;L;
Théâtre du marais;Diffusion spectacles vivants;37 rue Volta;48.8663791; 2.3577818;L;
Bibliothèque Historique de la Ville de Paris;Diffusion spectacles vivants;24 rue Pavée;48.8571187; 2.3617496;L;
Centre Wallonie-Bruxelles;Diffusion spectacles vivants;46 rue de Quincampoix;48.861161; 2.35051;L;
L'Essa‹on;Diffusion spectacles vivants;6 rue Pierre-au-Lard;48.8596354; 2.35322;L;
Théâtre des Blancs-Manteaux;Diffusion spectacles vivants;15 rue des Blancs-Manteaux;48.8587514; 2.357437;L;
Théâtre Espace Marais;Diffusion spectacles vivants;22 rue Beautreillis;48.8534791; 2.364257;L;
Bibliothèque de l'heure Joyeuse … Paris;Diffusion spectacles vivants;12 Rue des Prˆtres Saint-Séverin;48.8517824; 2.3449178;L;
Maison des Cultures du Monde;Diffusion spectacles vivants;101 boulevard Raspail;48.8462774; 2.3285394;L;
Poche Montparnasse;Diffusion spectacles vivants;75 boulevard du Montparnasse;48.8436849; 2.3251231;L;
Centre Culturel de Taipei … Paris;Diffusion spectacles vivants;78 rue de l'université;48.8591873; 2.3247598;L;
Institut Néérlandais;Diffusion spectacles vivants;Centre culturel des Pays-Bas;48.8614014; 2.3198785;L;
Théâtre de la Madeleine;Diffusion spectacles vivants;19 rue de Surène;48.8709956; 2.3205643;L;
L'Antre Magique;Diffusion spectacles vivants;50 rue Saint-Georges;48.8773785; 2.3373861;L;
Le Casino de Paris;Diffusion spectacles vivants;16 rue de Clichy;48.878331; 2.33005;L;
Centre audiovisuel Simone de Beauvoir;Diffusion spectacles vivants;28 place Saint-Georges;48.8786538; 2.3378778;L;
Théâtre Grévin;Diffusion spectacles vivants;10 boulevard Montmartre;48.8718236; 2.3421599;L;
Théâtre Saint-Georges;Diffusion spectacles vivants;51 rue Saint-Georges;48.8782332; 2.3373477;L;
Centre d'animation de la Grange-aux-Belles;Diffusion spectacles vivants;55 rue de la Granges-aux-Belles;48.876923; 2.368999;L;
Espace Chƒteau-Landon théâtre;Diffusion spectacles vivants;31 rue de Chƒteau-Landon;48.883307; 2.363922;L;
New Morning;Diffusion spectacles vivants;7 & 9 Rue des Petites Ecuries;48.8734054; 2.352719;L;
Aktéon Théâtre;Diffusion spectacles vivants;11 rue du Général-Blaise;48.8617875; 2.3781617;L;
L'Alimentation Générale;Diffusion spectacles vivants;64 rue Jean-Pierre Timbaud;48.8675438; 2.3751443;L;
Bibliothèque Faidherbe … Paris;Diffusion spectacles vivants;18 rue Faidherbe;48.851579; 2.3840575;L;
Café de la Danse;Diffusion spectacles vivants;5 passage Louis-Philippe;48.854099; 2.372899;L;
Espace Christian Dente;Diffusion spectacles vivants;ACP la Manufacture Chanson;48.8629922; 2.3858033;L;
La Maison des métallos;Diffusion spectacles vivants;94 rue Jean-Pierre Timbaud;48.8677178; 2.377904;L;
Théâtre Artistic-Athévains;Diffusion spectacles vivants;45 bis rue Richard Lenoir;48.856582; 2.380991;L;
Le Zèbre;Diffusion spectacles vivants;61-63 boulevard de Belleville;48.8701947; 2.3787852;L;
Le China;Diffusion spectacles vivants;50 rue de Charenton;48.8499321; 2.3738641;L;
Théâtre Astral;Diffusion spectacles vivants;Parc Floral de Paris;48.83834; 2.44645;L;
Théâtre de l'Opprimé;Diffusion spectacles vivants;78-80 rue du Charolais;48.8431495; 2.3829504;L;
Batofar;Diffusion spectacles vivants;Face au 11 Quai Fran‡ois Mauriac;48.8356845; 2.3753957;L;
Bétonsalon - Centre d'art et de recherche;Diffusion spectacles vivants;9 esplanade Pierre Vidal-Naquet;48.829261; 2.381731;L;
Centre Mandapa;Diffusion spectacles vivants;6 rue Wurtz;48.8276012; 2.345287;L;
Péniche El Alamein;Diffusion spectacles vivants;Quai Fran‡ois Mauriac;48.8348235; 2.3771864;L;
Théâtre du Lierre;Diffusion spectacles vivants;22 rue de Chevaleret;48.826401; 2.378167;L;
Théâtre Dunois;Diffusion spectacles vivants;7 rue Louise Weiss;48.8331304; 2.370547;L;
Bibliothèque Musset … Paris;Diffusion spectacles vivants;20 rue de Musset;48.8420491; 2.2632927;L;
Théâtre le Ranelagh;Diffusion spectacles vivants;5 rue des Vignes;48.854566; 2.277611;L;
L'Européen;Diffusion spectacles vivants;5 rue Biot;48.8839467; 2.326466;L;
Théâtre Hébertot;Diffusion spectacles vivants;78 bis boulevard des Batignolles;48.882011; 2.319026;L;
Bibliothèque Clignancourt … Paris;Diffusion spectacles vivants;29 rue Hermel;48.8916173; 2.3444353;L;
Centre culturel Fleury Goutte d'Or - Barbara;Diffusion spectacles vivants;1 rue Fleury;48.8841878; 2.3541225;L;
Les Déchargeurs;Diffusion spectacles vivants;3 rue des Déchargeurs;48.8596937; 2.3459332;L;
Le duc des Lombards;Diffusion spectacles vivants;42 rue des Lombards;48.8597213; 2.348596;L;
Le Sunset;Diffusion spectacles vivants;60 rue des Lombards;48.8597984; 2.3477737;L;
Sentier des Halles;Diffusion spectacles vivants;50 rue d'Aboukir;48.867394; 2.3455999;L;
Théâtre de la Michodière;Diffusion spectacles vivants;4 bis rue de la Michodière;48.869415; 2.334484;L;
Centre culturel suisse;Diffusion spectacles vivants;32-38 rue des Francs-Bourgeois;48.858274; 2.359646;L;
Galerie numeriscausa;Diffusion spectacles vivants;53 bd Beaumarchais;48.8572088; 2.3681049;L;
Théâtre de la Ville;Diffusion spectacles vivants;2 place du Chƒtelet;48.857529; 2.347702;L;
Bibliothèque Buffon … Paris;Diffusion spectacles vivants;15 Bis rue Buffon;48.8425588; 2.3619168;L;
Centre culturel irlandais;Diffusion spectacles vivants;5 rue des Irlandais;48.8441893; 2.3460214;L;
Espace Quartier Latin;Diffusion spectacles vivants;37 rue Tournefort;48.842449; 2.348238;L;
Théâtre Mouffetard;Diffusion spectacles vivants;73 rue Mouffetard;48.842305; 2.349845;L;
Comédie fran‡aise / Théâtre du Vieux Colombier;Diffusion spectacles vivants;21 rue du Vieux-Colombier;48.8517349; 2.3303968;L;
Théâtre du Lucernaire;Diffusion spectacles vivants;53 rue Notre-Dame-des-Champs;48.8442572; 2.3303711;L;
Centre Culturel Canadien;Diffusion spectacles vivants;5 rue de Constantine;48.8605297; 2.3150056;L;
Institut culturel bulgare;Diffusion spectacles vivants;28 rue de la Boétie;48.873967; 2.315583;L;
Jeu de Paume;Diffusion spectacles vivants;1 place de la Concorde;48.8657992; 2.3240664;L;
Salle Gaveau;Diffusion spectacles vivants;45 rue de la Boétie;48.873519; 2.314247;L;
Salle Pleyel;Diffusion spectacles vivants;252 rue du Faubourg Saint-Honoré;48.87698; 2.300895;L;
Studio SFR;Diffusion spectacles vivants;9 rue Tronchet;48.8729387; 2.3268127;L;
Théâtre Tristan Bernard;Diffusion spectacles vivants;64 rue du Rocher;48.8787674; 2.3192052;L;
La Grande Comédie;Diffusion spectacles vivants;42 rue de Clichy;48.8794876; 2.3292929;L;
International Visual Théâtre / IVT;Diffusion spectacles vivants;7 cité Chaptal;48.8813252; 2.3329418;L;
Théâtre de Paris;Diffusion spectacles vivants;15 rue Blanche;48.8786247; 2.33155;L;
Théâtre du Nord-Ouest;Diffusion spectacles vivants;13 rue du Faubourg-Montmartre;48.8723219; 2.3431114;L;
Théâtre Edouard VII;Diffusion spectacles vivants;10 place douard VII;48.87137; 2.329058;L;
Théâtre Fontaine;Diffusion spectacles vivants;10 rue Fontaine;48.880957; 2.3347282;L;
Le Brady Cinéma & Théâtre;Diffusion spectacles vivants;39 boulevard de Strasbourg;48.8716629; 2.355382;L;
Institut kurde de Paris;Diffusion spectacles vivants;106 rue Lafayette;48.8776574; 2.3510591;L;
La Java;Diffusion spectacles vivants;105 rue du Faubourg-du-Temple;48.870925; 2.373905;L;
La Scène du Canal / Espace Jemmapes;Diffusion spectacles vivants;116 quai de Jemmapes;48.8748413; 2.3637445;L;
L'Atelier de La Bonne Graine;Diffusion spectacles vivants;16 passage de la Bonne Graine;48.8524309; 2.3766395;L;
Comédie des 3 Bornes;Diffusion spectacles vivants;32 rue des Trois-Bornes;48.8675132; 2.3754918;L;
La Générale Nord-Est;Diffusion spectacles vivants;14 avenue Parmentier;48.8595247; 2.3794159;L;
Kiron Espace;Diffusion spectacles vivants;10 rue La Vacquerie;48.8579917; 2.3852271;L;
Le lieu du collectif 21.29.7;Diffusion spectacles vivants;37 rue des 3 bornes;48.867353; 2.374653;L;
Le Passage vers les étoiles;Diffusion spectacles vivants;17 cité Joly;48.8627422; 2.3826582;L;
Théâtre André Bourvil;Diffusion spectacles vivants;13 rue des Boulets;48.8500288; 2.3908636;L;
Théâtre C“té cour;Diffusion spectacles vivants;12 rue Edouard Lockroy;48.86585; 2.3745249;L;
La Maison d'Europe et d'Orient;Diffusion spectacles vivants;3 passage Hennel;48.8450493; 2.3799851;L;
OPA;Diffusion spectacles vivants;9 rue Biscornet;48.850331; 2.369691;L;
Théâtre du Soleil;Diffusion spectacles vivantsL;a Cartoucherie;48.83501; 2.449296;L;
Théâtre Traversière;Diffusion spectacles vivants;15 rue Traversière;48.8460581; 2.3711086;L;
Café Fou;Diffusion spectacles vivants;Quai Fran‡ois Mauriac;48.8341379; 2.377319;L;
Médiathèque Jean-Pierre Melville … Paris;Diffusion spectacles vivants;79 rue Nationale;48.8266697; 2.3665276;L;
Théâtre 13;Diffusion spectacles vivants;103 A boulevard Auguste Blanqui;48.8303701; 2.3456968;L;
Bibliothèque Aimé Césaire … Paris;Diffusion spectacles vivants;5 rue de Ridder;48.8311684; 2.3116801;L;
Théâtre de la Cité internationale;Diffusion spectacles vivants;17 boulevard Jourdan;48.8200169; 2.3386933;L;
Espace Paris Plaine;Diffusion spectacles vivants;13 rue du Général Guillaumat;48.8279165; 2.2929615;L;
Maison de la culture du Japon de Paris;Diffusion spectacles vivants;101 bis quai Branly;48.8547877; 2.2895207;L;
Le Prologue;Diffusion spectacles vivants;18 rue des Quatre Frères Peignot;48.84608; 2.282694;L;
Théâtre Silvia Monfort … Paris;Diffusion spectacles vivants;Parc Georges Brassens;48.8307974; 2.3001766;L;
Bibliothèque Germaine Tillion … Paris;Diffusion spectacles vivants;6 rue du Commandant Schloesing;48.861891; 2.2846598;L;
Centre d'animation La Jonquière;Diffusion spectacles vivants;88 rue de la Jonquière;48.8947405; 2.3191423;L;
Alambic comédie;Diffusion spectacles vivants;12 rue Neuve de la Chardonnière;48.895254; 2.3482324;L;
Atelier René Loyon;Diffusion spectacles vivants;11 rue Saint-Luc;48.8863035; 2.3541481;L;
Le Grand Parquet;Diffusion spectacles vivants;20 bis rue du Département;48.8860664; 2.3637543;L;
Le Set de la Butte;Diffusion spectacles vivants;7 rue Pierre Picard;48.8846636; 2.3463095;L;
Théâtre Michel Galabru;Diffusion spectacles vivants;4 rue de l'Armée d'Orient;48.8872758; 2.3344816;L;
Tremplin Théâtre;Diffusion spectacles vivants;39 rue des Trois-Frères;48.88509; 2.339747;L;
Bibliothèque Hergé … Paris;Diffusion spectacles vivants;2 rue du Département;48.8850939; 2.3669807;L;
Bouffon Théâtre;Diffusion spectacles vivants;26 rue de Meaux;48.879845; 2.3723014;L;
Centre d'animation Curial;Diffusion spectacles vivants;90 rue Curial;48.8909462; 2.3719184;L;
Le Trabendo;Diffusion spectacles vivants;Parc de la Villette;48.886706; 2.384424;L;
Le Zénith de Paris;Diffusion spectacles vivants;Parc de la Villette;48.894264; 2.393149;L;
Bibliothèque Sorbier … Paris;Diffusion spectacles vivants;17 rue Sorbier;48.865991; 2.3927994;L;
L'Ogresse Théâtre de marionnettes;Diffusion spectacles vivants;4 rue des Prairies;48.8612287; 2.4047988;L;
Le Tarmac (scène internationale francophone);Diffusion spectacles vivants;159 avenue Gambetta;48.8703681; 2.4031773;L;
Théâtre de Ménilmontant;Diffusion spectacles vivants;15 rue du Retrait;48.8682481; 2.3949021;L;
Théâtre national de la Colline;Diffusion spectacles vivants;15 rue Malte Brun;48.8646159; 2.3975585;L;
Centre culturel héllenique;Diffusion spectacles vivants;23 rue de Galilée;48.868907; 2.294173;L;
Le Baiser salé;Diffusion spectacles vivants;58 rue des Lombards;48.8597733; 2.3479173;L;
Forum des images;Diffusion spectacles vivants;2 rue du Cinéma;48.863642; 2.345617;L;
Le Scop'Club;Diffusion spectacles vivants;5 avenue de l'Opéra;48.864531; 2.334892;L;
Théâtre du Chƒtelet;Diffusion spectacles vivants;Place du Chƒtelet;48.8574799; 2.347244;L;
Galerie Emmanuel Perrotin;Diffusion spectacles vivants;76 rue de Turenne;48.8605304; 2.3646096;L;
Centre Georges Pompidou;Diffusion spectacles vivants;Place Georges Pompidou;48.860646; 2.352237;L;
Ircam;Diffusion spectacles vivants;1 place Igor-Stravinsky;48.8594444; 2.3513889;L;
Le Point Virgule;Diffusion spectacles vivants;7 rue Sainte-Croix de la Bretonnerie;48.8577984; 2.356857;L;
Bibliothèque Mouffetard … Paris;Diffusion spectacles vivants;74 rue Mouffetard;48.8425926; 2.3497862;L;
La Sorbonne;Diffusion spectacles vivants;17 rue de la Sorbonne;48.8488341; 2.3430945;L;
Centre culturel tchèque;Diffusion spectacles vivants;18 rue Bonaparte;48.8561337; 2.3342597;L;
Odéon - Théâtre de l'Europe;Diffusion spectacles vivants;2 rue Corneille;48.849561; 2.338714;L;
Centre culturel roumain;Diffusion spectacles vivants;1 rue de l'Exposition;48.8581214; 2.3027688;L;
Comédie et Studio des Champs lysées;Diffusion spectacles vivants;15 avenue Montaigne;48.8656057; 2.303239;L;
Elysées Biarritz;Diffusion spectacles vivants;22-24 rue Quentin Bauchart;48.8713811; 2.3025375;L;
Institut polonais;Diffusion spectacles vivants;31 rue Jean Goujon;48.865405; 2.304835;L;
Institut Ramon Lull  langues et cultures catalanes;Diffusion spectacles vivants;3 rue de la Boétie;48.8725864; 2.3100791;L;
Maison du Danemark;Diffusion spectacles vivants;142 avenue des Champs-lysées;48.8729541; 2.2987248;L;
Théâtre des Mathurins;Diffusion spectacles vivants;36 rue des Mathurins;48.873263; 2.325684;L;
Théâtre du Rond-Point;Diffusion spectacles vivants;2 bis avenue Franklin Roosevelt;48.867725; 2.310878;L;
Théâtre Michel;Diffusion spectacles vivants;38 rue des Mathurins;48.8732879; 2.3254675;L;
Bibliothèque Chaptal … Paris;Diffusion spectacles vivants;26 rue Chaptal;48.8811255; 2.3323381;L;
Le Bistrot blanc;Diffusion spectacles vivants;52 rue Blanche;48.8802222; 2.3315307;L;
Comédie de Paris;Diffusion spectacles vivants;42 rue Pierre Fontaine;48.8830076; 2.3332043;L;
Max Linder Panorama;Diffusion spectacles vivants;24 Boulevard Poissonnière;48.8713917; 2.3448744;L;
Le Palace;Diffusion spectacles vivants;8 rue du faubourg Montmartre;48.872114; 2.343271;L;
Théâtre de l'oeuvre;Diffusion spectacles vivants;55 rue de Clichy;48.8803626; 2.3290195;L;
Théâtre des Nouveautés;Diffusion spectacles vivants;24 boulevard Poissonnière;48.871425; 2.344873;L;
Théâtre Le Bout;Diffusion spectacles vivants;6 rue Frochot;48.8813437; 2.3375871;L;
Alhambra;Diffusion spectacles vivants;21 rue Yves-Toudic;48.8706729; 2.3630652;L;
L'Archipel;Diffusion spectacles vivants;17 boulevard de Strasbourg;48.8704463; 2.3546794;L;
l'ARTiC;Diffusion spectacles vivants;40 rue de Paradis;48.8754651; 2.3506162;L;
Point éphémère;Diffusion spectacles vivants;200 quai de Valmy;48.881187; 2.368235;L;
Théâtre Antoine Simone Berriau;Diffusion spectacles vivants;14 boulevard de Strasbourg;48.870587; 2.355182;L;
Théâtre de la Porte Saint-Martin;Diffusion spectacles vivants;18 boulevard Saint-Martin;48.8688996; 2.3569994;L;
Théâtre des Bouffes du Nord;Diffusion spectacles vivants;37 bis boulevard de la Chapelle;48.884201; 2.358914;L;
Théâtre du Petit Saint Martin;Diffusion spectacles vivants;17 rue René Boulanger;48.8692484; 2.356806;L;
Théâtre du Splendid;Diffusion spectacles vivants;48 rue du Faubourg Saint-Martin;48.8707275; 2.356709;L;
Comédie Bastille;Diffusion spectacles vivants;5 rue Nicolas Appert;48.85883; 2.370123;L;
Conteners;Diffusion spectacles vivants;30-32 rue de Lappe;48.8530359; 2.3740213;L;
Les Disquaires;Diffusion spectacles vivants;6 rue des Taillandiers;48.8538795; 2.3755058;L;
l'International;Diffusion spectacles vivants;5-7 rue Moret;48.8667795; 2.3799041;L;
Nouveau Casino;Diffusion spectacles vivants;109 rue Oberkampf;48.865863; 2.377842;L;
Satellit Café;Diffusion spectacles vivants;44 rue de la Folie-Méricourt;48.8636131; 2.3723665;L;
Théâtre de BelleVille;Diffusion spectacles vivants;94 rue du Faubourg-du-Temple;48.87089; 2.374345;L;
Théâtre de la danse;Diffusion spectacles vivants;77 rue de Charonne;48.8538774; 2.3815069;L;
Théâtre de l'pée de Bois;Diffusion spectacles vivantsL;a Cartoucherie;48.836581; 2.449467;L;
Bateau El Alamein;Diffusion spectacles vivants;Quai Fran‡ois Mauriac;48.8341379; 2.377319;L;
Centre culturel du Vietnam;Diffusion spectacles vivants;19-19 bis rue Albert;48.824578; 2.372767;L;
Théâtre 13 / Seine;Diffusion spectacles vivants;30 rue du Chevaleret;48.8276798; 2.3771732;L;
Le Guichet Montparnasse;Diffusion spectacles vivants;15 rue du Maine;48.8405727; 2.3223782;L;
Théâtre Rive Gauche;Diffusion spectacles vivants;6 rue de la Gaïté;48.8407799; 2.3244134;L;
Foranim;Diffusion spectacles vivants;48 rue Bargue;48.8377741; 2.3090004;L;
Médiathèque Marguerite Yourcenar … Paris;Diffusion spectacles vivants;41 rue d'Alleray;48.8368784; 2.3036346;L;
Théo-Théâtre;Diffusion spectacles vivants;20 rue Théodore-Deck;48.8371751; 2.2888634;L;
Le Théâtre du Jardin;Diffusion spectacles vivants;Jardin d'Acclimatation;48.877671; 2.269717;L;
Théâtre national de Chaillot;Diffusion spectacles vivants;1 place du Trocadéro;48.8629064; 2.2882512;L;
Palais des Congrès;Diffusion spectacles vivants;2 place de la Porte Maillot;48.878988; 2.2820839;L;
Le Petit Hébertot;Diffusion spectacles vivants;78 bis boulevard des Batignolles;48.882011; 2.319026;L;
L'Atelier théâtre de Montmartre;Diffusion spectacles vivants;7 rue Coustou;48.8839996; 2.33399;L;
Auditorium du Louvre;Diffusion spectacles vivants;Musée du Louvre;48.86101; 2.3358804;L;
Comédie Fran‡aise / Studio-Théâtre;Diffusion spectacles vivants;Carrousel du Louvre;48.859993; 2.343687;L;
Bouffes Parisiens;Diffusion spectacles vivants;4 rue Monsigny;48.8683903; 2.3354035;L;
Le Mélo d'Amélie;Diffusion spectacles vivants;4 rue Marie-Stuart;48.865007; 2.3484285;L;
La Pépinière Opéra;Diffusion spectacles vivants;7 rue Louis-le-Grand;48.8686693; 2.3324107;L;
Bibliothèque Forney … Paris;Diffusion spectacles vivants;1 rue du Figuier;48.8534584; 2.3590394;L;
Centre culturel de Serbie;Diffusion spectacles vivants;123 rue Saint-Martin;48.8608109; 2.3512384;L;
Centre culturel d'Egypte … Paris;Diffusion spectacles vivants;111 bd Saint-Michel;48.8434867; 2.3389465;L;
Théâtre de la Vieille Grille;Diffusion spectacles vivants;1 rue du Puits de l'Ermite (entrée public);48.8421677; 2.3535101;L;
Centre culturel iranien;Diffusion spectacles vivants;6 rue Jean Bart;48.8477845; 2.3309318;L;
Institut Hongrois;Diffusion spectacles vivants;92 rue Bonaparte;48.8491787; 2.3326096;L;
Maison des Pratiques Artistiques Amateurs;Diffusion spectacles vivants;Auditorium Saint-Germain;48.8519141; 2.3367057;L;
British Council France;Diffusion spectacles vivants;9 rue de Constantine;48.8601846; 2.3149982;L;
Centre culturel arabe syrien;Diffusion spectacles vivants;12 avenue de Tourville;48.8542435; 2.3080558;L;
Institut Culturel Italien de Paris;Diffusion spectacles vivants;73 rue de Grenelle;48.8553397; 2.3239852;L;
Espace Beaujon;Diffusion spectacles vivants;208 rue du faubourg Saint-Honoré;48.8752702; 2.3047383;L;
Le Grand Palais;Diffusion spectacles vivants;Avenue Winston-Churchill (entrée du public);48.8661793; 2.313089;L;
Instituto Cervantes … Paris;Diffusion spectacles vivants;7 rue Quentin Bauchart;48.8692014; 2.2997077;L;
Théâtre des Champs lysées;Diffusion spectacles vivants;15 avenue Montaigne;48.865678; 2.303228;L;
Théâtre Marigny-Robert Hossein;Diffusion spectacles vivants;Carré Marigny;48.8692292; 2.3137183;L;
Bibliothèque Valeyre … Paris;Diffusion spectacles vivants;24 rue de Rochechouart;48.8781077; 2.3449333;L;
Centre culturel anatolie;Diffusion spectacles vivants;77 rue Lafayette;48.876389; 2.345514;L;
Comédie Caumartin;Diffusion spectacles vivants;25 rue Caumartin;48.8716377; 2.3281659;L;
Les Folies Bergère;Diffusion spectacles vivants;32 rue Richer;48.874094; 2.344856;L;
Le Limonaire;Diffusion spectacles vivants;18 cité Bergère;48.8723681; 2.3449676;L;
Opéra National de Paris - Palais Garnier;Diffusion spectacles vivants;8 rue Scribe;48.8719343; 2.3317666;L;
Théâtre La Bruyère;Diffusion spectacles vivants;5 rue La Bruyère;48.8789505; 2.3363533;L;
Centre d'animation Jean Verdier;Diffusion spectacles vivants;11 rue de Lancry;48.869387; 2.360108;L;
Centre international d'accueil et d'échange des Résidences;Diffusion spectacles vivants;150-154 rue du Faubourg Saint-Martin;48.8757442; 2.360315;L;
Laurette Théâtre;Diffusion spectacles vivants;36 rue Bichat;48.8715661; 2.3681149;L;
Le Local;Diffusion spectacles vivants;18 rue de l'Orillon;48.8700943; 2.3759687;L;
Le Palais des Glaces;Diffusion spectacles vivants;37 rue du Faubourg-du-Temple;48.8691104; 2.3683897;L;
Théâtre du Gymnase - Marie Bell;Diffusion spectacles vivants;38 boulevard Bonne-Nouvelle;48.870841; 2.347769;L;
Ars Longa;Diffusion spectacles vivants;67 avenue Parmentier;48.8639625; 2.375494;L;
Au Chat noir;Diffusion spectacles vivants;76 rue Jean-Pierre Timbaud;48.8673668; 2.3760961;L;
L'Auguste Théâtre (ex Espace La Comedia);Diffusion spectacles vivants;6 impasse Lamier;48.8582517; 2.3887446;L;
Espace?Turquetil Centre Culturel Franco-Japonais;Diffusion spectacles vivants;8-10 passage Turquetil;48.8514222; 2.3928219;L;
La Ménagerie de Verre;Diffusion spectacles vivants;12-14 rue Léchevin;48.863316; 2.37671;L;
Le Réservoir;Diffusion spectacles vivants;16 rue de la Forge Royale;48.8514624; 2.3806522;L;
Théâtre de la Bastille;Diffusion spectacles vivants;76 rue de la Roquette;48.855821; 2.375481;L;
Théâtre de la Marionnette … Paris;Diffusion spectacles vivants;38 rue Basfroi;48.8556609; 2.3788964;L;
Théâtre du Temps;Diffusion spectacles vivants;9 rue du Morvan;48.8601054; 2.3817499;L;
Centre Ressources Théâtre et Handicap;Diffusion spectacles vivants;école différente de théâtre O Clair de la lune;48.8446053; 2.3840184;L;
Médiathèque Hélène Berr … Paris;Diffusion spectacles vivants;70 rue de Picpus;48.8425712; 2.3974443;L;
Palais Omnisport de Paris Bercy;Diffusion spectacles vivants;8 boulevard de Bercy;48.8401275; 2.3804432;L;
Parc Floral de Paris;Diffusion spectacles vivants;Bois de Vincennes;48.8325756; 2.4183258;L;
Théâtre de La Tempˆte;Diffusion spectacles vivantsL;a Cartoucherie;48.836193; 2.448705;L;
Théâtre Douze Maurice Ravel;Diffusion spectacles vivants;6 avenue Maurice-Ravel;48.8415527; 2.4115664;L;
Centre d'animation Daviel;Diffusion spectacles vivants;24 rue Daviel;48.8281802; 2.3447099;L;
Théâtre des Cinq Diamants;Diffusion spectacles vivants;10 rue des Cinq Diamants;48.8298193; 2.3520009;L;
Au Magique;Diffusion spectacles vivants;42 rue de Gergovie;48.8331668; 2.3158605;L;
La Comédie italienne;Diffusion spectacles vivants;17/19 rue de la Gaïté;48.840043; 2.3239639;L;
L'Entrep“t;Diffusion spectacles vivants;7/9 rue Francis de Pressensé;48.8338664; 2.3165939;L;
Théâtre de la Gaïté Montparnasse;Diffusion spectacles vivants;26 rue de la Gaïté;48.8393115; 2.3232089;L;
Utopia;Diffusion spectacles vivants;79 rue de l'Ouest;48.8353772; 2.3180495;L;
Agitakt;Diffusion spectacles vivants;21 avenue du Maine;48.8435327; 2.3203248;L;
Centre culturel du Yemen;Diffusion spectacles vivants;25 rue Georges Bizet;48.867693; 2.296555;L;
L'Atalante;Diffusion spectacles vivants;10 place Charles Dullin;48.8833326; 2.3427713;L;
La Boule Noire;Diffusion spectacles vivants;120 boulevard de Rochechouart;48.882283; 2.3401548;L;
La Cigale;Diffusion spectacles vivants;120 boulevard de Rochechouart;48.882291; 2.340157;L;
Ciné 13 Théâtre;Diffusion spectacles vivants;1 avenue Junot;48.8875635; 2.3372608;L;
L'toile du Nord;Diffusion spectacles vivants;16 rue Georgette Agutte;48.8954707; 2.3329044;L;
La Manufacture des Abbesses;Diffusion spectacles vivants;7 rue Véron;48.884434; 2.33667;L;
Théâtre de l'Atelier;Diffusion spectacles vivants;1 place Charles-Dullin;48.8833559; 2.3427614;L;
Le Trianon;Diffusion spectacles vivants;80 boulevard Rochechouart;48.882877; 2.34311;L;
les trois baudets;Diffusion spectacles vivants;64 boulevard de clichy;48.8834498; 2.3344631;L;
Art Studio Théâtre;Diffusion spectacles vivants;299 rue de Belleville;48.8762965; 2.4026227;L;
Le 104;Diffusion spectacles vivants;104 rue d'Aubervilliers;48.890499; 2.3684991;L;
Cité des Sciences et de l'Industrie;Diffusion spectacles vivants;30 avenue Corentin Cariou;48.8955948; 2.3878996;L;
La Géode;Diffusion spectacles vivants;26 av Corentin Cariou;48.89461; 2.38872;L;
Glazart;Diffusion spectacles vivants;7-15 Avenue de la Porte de la Villette;48.899288; 2.386694;L;
Péniche Anako;Diffusion spectacles vivants;Bassin de la Villette;48.8875478; 2.3760476;L;
La Péniche Opéra;Diffusion spectacles vivants;Bassin de la Villette;48.885746; 2.374859;L;
Théâtre Darius Milhaud;Diffusion spectacles vivants;80 allée Darius Milhaud;48.8859779; 2.3931757;L;
glise Saint Roch;Diffusion spectacles vivants;24 rue Saint Roch;48.8644506; 2.3317141;L;
glise Saint-Eustache;Diffusion spectacles vivants;2 impasse Saint-Eustache;48.863393; 2.345099;L;
Médiathèque musicale de Paris;Diffusion spectacles vivants;8 porte Saint-Eustache;48.862357; 2.345843;L;
Opéra comique;Diffusion spectacles vivants;1 place Boieldieu;48.8706772; 2.3376408;L;
Théâtre des Variétés;Diffusion spectacles vivants;7 boulevard Montmartre;48.8714945; 2.3422074;L;
Bibliothèque Marguerite Audoux;Diffusion spectacles vivants;10 rue Portefoin;48.8635945; 2.360135;L;
Galerie Quang;Diffusion spectacles vivants;7 rue des Filles du Calvaire;48.8624802; 2.3654188;L;
Instituto cultural de Mexico;Diffusion spectacles vivants;119 rue Vieille-du-Temple;48.8609945; 2.3625348;L;
Maison de la Poésie;Diffusion spectacles vivants;Passage Molière;48.8623474; 2.3519539;L;
Le Petit Casino;Diffusion spectacles vivants;17 rue Chapon;48.8634259; 2.3560048;L;
Théâtre Dejazet;Diffusion spectacles vivants;41 boulevard du Temple;48.8662732; 2.3645587;L;
Bibliothèque Isle Saint-Louis … Paris;Diffusion spectacles vivants;21 rue Saint-Louis en l'ile;48.8514761; 2.3573883;L;
Café de la Gare;Diffusion spectacles vivants;41 rue du Temple;48.859552; 2.353949;L;
Micadanses;Diffusion spectacles vivants;16 rue Geoffroy l'Asnier;48.8545318; 2.3562167;L;
Théâtre de l'Ile Saint-Louis - Paul Rey;Diffusion spectacles vivants;39 quai d'Anjou;48.8523192; 2.3573231;L;
Bibliothèque Rainer Maria Rilke … Paris;Diffusion spectacles vivants;88 Ter boulevard de Port-Royal;48.8393; 2.339084;L;
Centre Culturel?Italien;Diffusion spectacles vivants;4 rue des Prˆtres St Séverin;48.852272; 2.345275;L;
Centre d'art et de culture de l'espace Rachi Guy de Rothschild;Diffusion spectacles vivants;39 rue Broca;48.8379284; 2.3478231;L;
Espace Saint-Michel;Diffusion spectacles vivants;7 place Saint-Michel;48.8531155; 2.344223;L;
Institut Culturel Finlandais;Diffusion spectacles vivants;60 rue des coles;48.8501114; 2.3432972;L;
Institut du monde arabe;Diffusion spectacles vivants;Place Mohammed V;48.849268; 2.3554666;L;
Théâtre de la Huchette;Diffusion spectacles vivants;23 rue de la Huchette;48.8530589; 2.3453459;L;
Théâtre de Nesle;Diffusion spectacles vivants;8 rue de Nesle;48.8547514; 2.3392438;L;
Centre culturel de Chine … Paris;Diffusion spectacles vivants;1 boulevard de la Tour Maubourg;48.8621458; 2.310561;L;
La Culée Rive-Gauche du Pont Alexandre III;Diffusion spectacles vivants;Pont Alexandre III - Rive Gauche;48.8612598; 2.3132654;L;
Espace EDF Electra;Diffusion spectacles vivants;6 rue Récamier;48.8522346; 2.327984;L;
Forum culturel autrichien;Diffusion spectacles vivants;17 avenue de Villars;48.8519182; 2.3138044;L;
Maison de l'Amérique latine;Diffusion spectacles vivants;217 boulevard Saint-Germain;48.857342; 2.3237558;L;
Théâtre Adyar;Diffusion spectacles vivants;4 square Rapp;48.8587282; 2.3006611;L;
Espace Pierre Cardin;Diffusion spectacles vivants;1-3 avenue Gabriel;48.8674865; 2.3187235;L;
Athénée - Théâtre Louis Jouvet;Diffusion spectacles vivants;Square de l'Opéra Louis Jouvet;48.8722285; 2.3291574;L;
Centre d'animation Valeyre;Diffusion spectacles vivants;24 rue Rochechouart;48.8781077; 2.3449333;L;
L'Olympia;Diffusion spectacles vivants;28 boulevard des Capucines;48.87022; 2.328326;L;
Petit Théâtre de Paris;Diffusion spectacles vivants;15 rue Blanche;48.8786247; 2.33155;L;
Théâtre Mogador;Diffusion spectacles vivants;25 rue de Mogador;48.875286; 2.331204;L;
Théâtre Trévise;Diffusion spectacles vivants;14 rue de Trévise;48.873408; 2.345342;L;
Bibliothèque Fran‡ois Villon … Paris;Diffusion spectacles vivants;81 boulevard de la Villette;48.8772136; 2.3707779;L;
Bibliothèque Lancry … Paris;Diffusion spectacles vivants;11 rue de Lancry;48.869387; 2.360108;L;
Théâtre Comédia;Diffusion spectacles vivants;4 boulevard de Strasbourg;48.869892; 2.3545707;L;
Théâtre de la Renaissance;Diffusion spectacles vivants;20 boulevard Saint-Martin;48.8690494; 2.3563207;L;
Le Bataclan;Diffusion spectacles vivants;50 boulevard Voltaire;48.863063; 2.370815;L;
La Boutonnière;Diffusion spectacles vivants;25 rue Popincourt;48.8581479; 2.3767665;L;
Comédie Nation;Diffusion spectacles vivants;77 rue de Montreuil;48.8484884; 2.3975373;L;
La Loge;Diffusion spectacles vivants;77 rue de Charonne;48.8538774; 2.3815069;L;
Naxos Bobine;Diffusion spectacles vivants;135 rue de la Roquette;48.8585901; 2.3838337;L;
La Scène Bastille;Diffusion spectacles vivants;2 bis rue des Taillandiers;48.853541; 2.375761;L;
Théâtre Le Temple;Diffusion spectacles vivants;18 rue du Faubourg-du-Temple;48.868199; 2.366387;L;
La Vitrine;Diffusion spectacles vivants;24 rue Moret;48.8674299; 2.3793209;L;
Maison rouge;Diffusion spectacles vivants;10 boulevard de la bastille;48.847334; 2.367529;L;
Opéra National de Paris - Opéra Bastille;Diffusion spectacles vivants;120 rue de Lyon;48.8519444; 2.3705556;L;
Théâtre de l'Aquarium;Diffusion spectacles vivantsL;a Cartoucherie;48.836094; 2.450119;L;
Théâtre du Chaudron;Diffusion spectacles vivantsL;a Cartoucherie;48.834738; 2.449387;L;
La Cachette;Diffusion spectacles vivants;124 avenue d'Italie;48.8237658; 2.3577739;L;
La Dame de Canton;Diffusion spectacles vivants;Port de la gare;48.8341379; 2.377319;L;
Petit bain;Diffusion spectacles vivants;7 Ports de la Gare;48.833008; 2.379376;L;
Bibliothèque Georges Brassens … Paris;Diffusion spectacles vivants;38 rue Gassendi;48.8337127; 2.3257689;L;
Bibliothèque Gutenberg … Paris;Diffusion spectacles vivants;8 rue de la Montagne d'Aulas;48.8402475; 2.2787776;L;
Bibliothèque Vandamme … Paris;Diffusion spectacles vivants;80 avenue du Maine;48.8385369; 2.3221472;L;
Théâtre 14 Jean-Marie Serreau;Diffusion spectacles vivants;20 avenue Marc Sangnier;48.8262507; 2.3065106;L;
Théâtre d'Edgar;Diffusion spectacles vivants;58 boulevard Edgar Quinet;48.8415105; 2.3244174;L;
Théâtre Montparnasse;Diffusion spectacles vivants;31 rue de la Gaïté;48.8394969; 2.3235395;L;
Centre culturel algérien;Diffusion spectacles vivants;171 rue de la Croix-Nivert;48.8397081; 2.2901289;L;
Théâtre Aire Falguière;Diffusion spectacles vivants;55 rue de la Procession;48.8365746; 2.309742;L;
Centre culturel coréen;Diffusion spectacles vivants;2 avenue d'Iéna;48.8631469; 2.2919825;L;
Institut slovaque de Paris;Diffusion spectacles vivants;125 rue du Ranelagh;48.8560179; 2.2680298;L;
L'Avant Rue;Diffusion spectacles vivants;134 rue de Tocqueville;48.8889313; 2.3056531;L;
Bibliothèque Batignolles … Paris;Diffusion spectacles vivants;18 rue des Batignolles;48.8843495; 2.3219934;L;
Théâtre le Méry;Diffusion spectacles vivants;7 place de Clichy;48.8837557; 2.3268201;L;
lysée Montmartre;Diffusion spectacles vivants;72 boulevard Rochechouart;48.8829464; 2.3437224;L;
Rendez-vous des amis;Diffusion spectacles vivants;23 rue Gabrielle;48.8857454; 2.3406778;L;
Le Stock - cole ATLA;Diffusion spectacles vivants;12 villa de Guelma;48.883484; 2.3373633;L;
Théâtre de Verre;Diffusion spectacles vivants;17 rue de la Chapelle;48.8915686; 2.3596921;L;
Théâtre Le Funambule;Diffusion spectacles vivants;53 rue des Saules;48.8907673; 2.3404795;L;
Théâtre Ouvert - Centre dramatique national de création;Diffusion spectacles vivants;Jardin d'Hiver;48.88483; 2.332291;L;
Atelier du Plateau;Diffusion spectacles vivants;5 rue du Plateau;48.8779396; 2.3851275;L;
Le Cabaret Sauvage;Diffusion spectacles vivants;Parc de la Villette;48.886688; 2.384424;L;
Péniche L?antipode;Diffusion spectacles vivants;55 quai de la Seine;48.8871395; 2.375465;L;
Théâtre Clavel;Diffusion spectacles vivants;3 rue Clavel;48.8744026; 2.385113;L;
Théâtre de la Providence;Diffusion spectacles vivants;73 rue Rébeval;48.874563; 2.38142;L;
Confluences;Diffusion spectacles vivants;190 boulevard de Charonne;48.8578182; 2.3925333;L;
Studio Le Regard du Cygne;Diffusion spectacles vivants;210 rue de Belleville;48.8751826; 2.3951875;L;
Le Théâtre aux mains nues;Diffusion spectacles vivants;7 square des Cardeurs;48.8584471; 2.4079768;L;
Théâtre des Quarts d'Heures;Diffusion spectacles vivants;10 square des Cardeurs;48.858166; 2.407528;L;
Centre de Russie pour la science et la culture;Diffusion spectacles vivants;61 rue Boissière;48.868275; 2.2875107;L;
Palais de Tokyo - Site de création contemporaine;Diffusion spectacles vivants;13 rue du Président Wilson;48.8641085; 2.29646374102;L;
Maison de l'UNESCO;Diffusion spectacles vivants;7 place de Fontenoy;48.849591; 2.306255;L;
Lavoir Moderne Parisien;Diffusion spectacles vivants;35 rue Léon;48.8887648; 2.3535699;L;
Sudden Théâtre;Diffusion spectacles vivants;14 bis rue Sainte-Isaure;48.8940768; 2.3443201;L;
Théâtre de Dix-Heures;Diffusion spectacles vivants;36 boulevard de Clichy;48.8828639; 2.3363746;L;
Théâtre des 2 Anes;Diffusion spectacles vivants;100 boulevard de Clichy;48.884241; 2.3316917;L;
Abracadabar;Diffusion spectacles vivants;123 avenue Jean Jaurès;48.8861001; 2.3822935;L;
Bibliothèque Claude Lévi-Strauss … Paris;Diffusion spectacles vivants;41 avenue de Flandre;48.8869416; 2.3718418;L;
Bibliothèque Place des Fˆtes … Paris;Diffusion spectacles vivants;18 rue Janssen;48.8793745; 2.397682;L;
Centre d'animation Mathis;Diffusion spectacles vivants;15 rue Mathis;48.8907598; 2.3749563;L;
MK2 Quai de Seine;Diffusion spectacles vivants;14 Quai de la Seine;48.885065; 2.371404;L;
Bouillon Belge;Diffusion spectacles vivants;6 rue Planchat;48.8519314; 2.3993522;L;
La Flèche d'Or;Diffusion spectacles vivants;102 bis rue de Bagnolet;48.859432; 2.402888;L;
La Maroquinerie;Diffusion spectacles vivants;23 rue Boyer;48.868582; 2.392112;L;
Studio de l'Ermitage;Diffusion spectacles vivants;8 rue de l'Ermitage;48.8699891; 2.3916783;L;
Le Caveau des artistes;Diffusion spectacles vivants;79 rue des Martyrs;48.882887; 2.339594;L;
Le Divan du Monde;Diffusion spectacles vivants;75 rue des Martyrs;48.882444; 2.339593;L;
Olympic Café;Diffusion spectacles vivants;20 rue Léon;48.8878547; 2.3535367;L;
Théâtre de La Reine Blanche;Diffusion spectacles vivants;2 bis passage Ruelle;48.8867083; 2.3582251;L;
Théâtre de la Ville - Les Abbesses;Diffusion spectacles vivants;31 rue des Abbesses;48.884841; 2.337333;L;
Théâtre Pixel;Diffusion spectacles vivants;18 rue Championnet;48.89522; 2.351726;L;
Cité de la Musique;Diffusion spectacles vivants;221 avenue Jean Jaurès;48.8895857; 2.3939185;L;
Conservatoire de Paris;Diffusion spectacles vivants;209 avenue Jean-Jaurès;48.88896; 2.390939;L;
Espace B;Diffusion spectacles vivants;16 rue Barbanègre;48.8932337; 2.3844223;L;
FRAC Ile-de-France Le Plateau;Diffusion spectacles vivants;place Annah Arendt;48.877678; 2.385733;L;
Théâtre des Deux Rˆves;Diffusion spectacles vivants;5 passage de Thionville;48.8879833; 2.3820727;L;
Le vent se lève;Diffusion spectacles vivants;181 bis avenue Jean Jaurès;48.887838; 2.388788;L;
Théâtre de l'Est Parisien;Diffusion spectacles vivants;159 avenue Gambetta;48.8703681; 2.4031773;L;
Vingtième Théâtre;Diffusion spectacles vivants;7 rue des Plƒtrières;48.8678999; 2.389464;L;
Théâtre Paris-Villette;Diffusion spectacles vivants;211 avenue Jean-Jaurès;48.8866647; 2.3844281;L;
La Bellevilloise;Diffusion spectacles vivants;19 rue Boyer;48.868229; 2.392235;L;
Bliothèque Oscar Wilde … Paris;Diffusion spectacles vivants;12 rue du Télégraphe;48.8719783; 2.3999956;L;
Centre Animation Amandiers;Diffusion spectacles vivants;110 rue des Amandiers;48.867958; 2.3887483;L;
Chez Pascaline;Diffusion spectacles vivants;49 rue de Pixericourt;48.872847; 2.396057;L;
Comédie de la Passerelle;Diffusion spectacles vivants;102 rue Orfila;48.8679043; 2.3998183;L;
Médiathèque Marguerite Duras … Paris;Diffusion spectacles vivants;115 rue de Bagnolet;48.8599582; 2.4036253;L;
Théâtre Les Enfants terribles;Diffusion spectacles vivants;157 rue Pelleport;48.874185; 2.396586;L;
Goethe Institut Paris;Diffusion spectacles vivants;17 avenue d'Iéna;48.8661287; 2.2944094;L;
Tréteaux de France;Diffusion spectacles vivants;11 rue Yvon Villarceau;48.8686964; 2.2872631;L;
Espace Périphérique;Diffusion spectacles vivants;211 avenue Jean Jaurès;48.8866647; 2.3844281;L;
Parc de la Villette;Diffusion spectacles vivants;211 avenue Jean Jaurès;48.893827; 2.390274;L;
