iderp;nom;activite;adresse;lat;lon;type;categorie
;LAYONE;COMM. DE DÉT. D'ARTICLES D'HORLOGERIE ET DE BIJOUTERIE EN MAGASIN SPÉCIALISÉ;2 R LAMARTINE 75009;48,876575;2,344125;M;
;LE PETIT DESORDRE;COMMERCE DE DÉTAIL DE MEUBLES;94 R NOLLET 75017;48,888158;2,319446;M;
;F & A TELECOM;COMMERCE D'ALIMENTATION GÉNÉRALE;75 BD DE LA VILLETTE 75010;48,876814;2,371245;M;
;LES MARIEES FOX;COMMERCE DE DÉTAIL D'HABILLEMENT EN MAGASIN SPÉCIALISÉ;147 BD AUGUSTE BLANQUI 75013;48,831072;2,34247;M;
;Les Salons MAYA;COIFFURE;46 R PONCELET 75017;48,880338;2,299392;M;
;LES SAVEURS DU MONDE;COMMERCE DE GROS (COMMERCE INTERENTREPRISES) DE BOISSONS;12 R DE PORT MAHON 75002;48,869803;2,334058;M;
;LES TAPIS LUXE;AUTRES COMMERCES DE DÉTAIL SUR ÉVENTAIRES ET MARCHÉS;7 R CURNONSKY 75017;48,890822;2,297093;M;
;LES TERRES ESSENTIELLES;COMMERCE DE DÉTAIL DE PARFUMERIE ET DE PRODUITS DE BEAUTÉ EN MAGASIN SPÉCIALISÉ;55 RTE DE MANTES 78240;48,907756;2,044347;M;
;ERBALAB;COMMERCE DE GROS (COMMERCE INTERENTREPRISES) NON SPÉCIALISÉ;47 R DE PONTHIEU 75008;48,871571;2,306487;M;
;ETEASE;COMM. DE DÉTAIL D'ORDINATEURS  D'UNITÉS PÉRIPH. ET DE LOGI. EN MAG. SPÉCIALISÉ;6 R TACLET 75020;48,871282;2,397466;M;
;TECHNO COM;COMM. DE DÉTAIL D'ORDINATEURS  D'UNITÉS PÉRIPH. ET DE LOGI. EN MAG. SPÉCIALISÉ;2 ALL DE LA PAIX 92220;48,79221;2,313108;M;
;TEKCAR;COMMERCE DE GROS D'ÉQUIPEMENTS AUTOMOBILES;10 R DU COLISEE 75008;48,870547;2,307978;M;
;LE VIN DE BLAISE;COMMERCE DE GROS (COMMERCE INTERENTREPRISES) DE BOISSONS;34 R DU DOCTEUR BLANCHE 75016;48,853985;2,2653;M;
;LES DOIGTS D'UNE FEE;COMMERCE DE DÉTAIL D'HABILLEMENT EN MAGASIN SPÉCIALISÉ;78 R RENE BOULANGER 75010;48,869303;2,357495;M;
;LOLIE SHOP;COMMERCE DE GROS (COMMERCE INTERENTREPRISES) DE TEXTILES;5 VLA RONSARD 95550;49,038059;2,210535;M;
;FRANCEBATT;COMMERCE DE GROS (COMMERCE INTERENTREPRISES) DE MATÉRIEL ÉLECTRIQUE;53 AV DE L'EPINETTE 77100;48,959673;2,910377;M;
;FUNOA;COMMERCE DE GROS (COMMERCE INTERENTREPRISES) D'AUTRES BIENS DOMESTIQUES;38 R DE L'ANNONCIATION 75016;48,857333;2,278353;M;
;GAMBETTA SHOP;COMM. DE DÉTAIL D'ORDINATEURS  D'UNITÉS PÉRIPH. ET DE LOGI. EN MAG. SPÉCIALISÉ;9 R DU CHER 75020;48,864586;2,399899;M;
;LESSOL;COMM. DE GROS (COMM. INTERENT.) D'APPAREILS SANITAIRES ET PROD. DE DÉCORATION;38 R DE BERRI 75008;48,873879;2,30699;M;
;LFM FACTORY;PÂTISSERIE;12 R MANUEL 75009;48,878414;2,340185;M;
;FIT AND CAYS;COMMERCE DE DÉTAIL DE PAIN  PÂTISSERIE ET CONFISERIE EN MAGASIN SPÉCIALISÉ;106 R MOUFFETARD 75005;48,84099;2,349573;M;
;FLOCON;COMMERCE DE GROS (COMMERCE INTERENTREPRISES) ALIMENTAIRE SPÉCIALISÉ DIVERS;13 R DE CHANALEILLES 75007;48,853111;2,318107;M;
;France Hearing Care;COMMERCE DE DÉTAIL D'ARTICLES MÉDICAUX ET ORTHOPÉDIQUES EN MAGASIN SPÉCIALISÉ;13 R MARMONTEL 75015;48,837047;2,299938;M;
;GAIA HITEK;COMM. DE GROS (COMM. INTERENT.) D'ORDI.  D'ÉQUI. INFO. PÉRIPHÉRIQUES ET LOGI.;4 R FIRMIN GILLOT 75015;48,832969;2,289885;M;
;WEB AUTO STORE;COMMERCE DE VOITURES ET DE VÉHICULES AUTOMOBILES LÉGERS;26 R DE LA CHAPELLE 75018;48,892004;2,359798;M;
;YWL PARIS;COMMERCE DE GROS (COMMERCE INTERENTREPRISES) D'HABILLEMENT ET DE CHAUSSURES;36 BD DU TEMPLE 75011;48,865369;2,365722;M;
;JOUL;COMMERCE DE GROS (COMMERCE INTERENTREPRISES) DE MATÉRIEL ÉLECTRIQUE;55 R DU FAUBOURG MONTMARTRE 75009;48,87537;2,340657;M;
;GC DISTRIBUTIONS;COMMERCE DE GROS (COMMERCE INTERENTREPRISES) ALIMENTAIRE SPÉCIALISÉ DIVERS;3 R DE TEHERAN 75008;48,875573;2,312679;M;
;LIBRAIRIE ALLEMANDE;COMMERCE DE DÉTAIL DE LIVRES EN MAGASIN SPÉCIALISÉ;5 R FREDERIC SAUTON 75005;48,851046;2,349204;M;
;LIBRAIRIE DU CANAL;COMMERCE DE DÉTAIL DE JOURNAUX ET PAPETERIE EN MAGASIN SPÉCIALISÉ;3 R EUGENE VARLIN 75010;48,877829;2,365141;M;
;SARL GERY DISTRIBUTION;COMMERCE D'ALIMENTATION GÉNÉRALE;7 BD CHASTENET DE GERY 94800;48,802136;2,356243;M;
;SARL HAS;COMMERCE DE DÉTAIL D'HABILLEMENT EN MAGASIN SPÉCIALISÉ;109 AV PAUL VAILLANT COUTURIER 93120;48,922989;2,412742;M;
;SARL HITACHE;COMMERCE DE GROS (COMMERCE INTERENTREPRISES) NON SPÉCIALISÉ;136 R DE SAUSSURE 75017;48,889082;2,307914;M;
;J2MN;COMMERCE DE DÉTAIL DE LA CHAUSSURE;16 R DE VEZELAY 75008;48,878645;2,313912;M;
;VS9;COMMERCE DE GROS (COMMERCE INTERENTREPRISES) NON SPÉCIALISÉ;45 AV VICTOR HUGO 93300;48,90352;2,37198;M;
;KLIN D'OEIL;AUTRES COMMERCES DE DÉTAIL EN MAGASIN NON SPÉCIALISÉ;6 R DEGUERRY 75011;48,868518;2,37303;M;
;LA MIE QUI VOUS VEUT DU BIEN;BOULANGERIE ET BOULANGERIE-PÂTISSERIE;50 R DE LA REUNION 75020;48,854844;2,40192;M;
;SARL TAFATHE;COMMERCE DE GROS (COMMERCE INTERENTREPRISES) NON SPÉCIALISÉ;41 BD SERURIER 75019;48,878079;2,403449;M;
;SARL TAFATHE;COMMERCE DE GROS (COMMERCE INTERENTREPRISES) NON SPÉCIALISÉ;41 BD SERURIER 75019;48,878079;2,403449;M;
;SARL NICDAN;BOULANGERIE ET BOULANGERIE-PÂTISSERIE;50 R BELGRAND 75020;48,864542;2,405228;M;
;HORON CASH & CARRY;COMMERCE D'ALIMENTATION GÉNÉRALE;152/154 R MAURICE BERTEAUX 95870;48,930727;2,207498;M;
;PARIS BOX;COMMERCE DE DÉTAIL DE PARFUMERIE ET DE PRODUITS DE BEAUTÉ EN MAGASIN SPÉCIALISÉ;241 R DE TOLBIAC 75013;48,826221;2,342593;M;
;P.G.M.;AUTRES COMMERCES DE DÉTAIL SPÉCIALISÉS DIVERS;3 BD CHARLES DE GAULLE 91800;48,694543;2,504114;M;
;LABONNEAFFAIRE.COM;AUTRES COMMERCES DE DÉTAIL SUR ÉVENTAIRES ET MARCHÉS;18 PL DE FRANCE 95200;48,977411;2,376028;M;
;MASSABOVA BOOKING SAS;COMMERCE DE GROS (COMMERCE INTERENTREPRISES) D'AUTRES BIENS DOMESTIQUES;126 R DE TURENNE 75003;48,864051;2,364816;M;
;VS9;COMMERCE DE GROS (COMMERCE INTERENTREPRISES) NON SPÉCIALISÉ;45 AV VICTOR HUGO 93300;48,90352;2,37198;M;
;COTE TALENTS;AUTRES ENSEIGNEMENTS;27 R CAVENDISH 75019;48,883313;2,379623;M;
;LA SIGNATURE;COMMERCE DE GROS (COMMERCE INTERENTREPRISES) NON SPÉCIALISÉ;80 R DE MENILMONTANT 75020;48,868964;2,390852;M;
;ART PENICAUT CONSULTING;AUTRES COMMERCES DE DÉTAIL SPÉCIALISÉS DIVERS;4 R LAS CASES 75007;48,857936;2,322209;M;
;MM;AUTRES COMMERCES DE DÉTAIL SPÉCIALISÉS DIVERS;58 R DU GENERAL LECLERC 77100;48,959715;2,879678;M;
;MONSTER SERVICES;COMMERCE DE VOITURES ET DE VÉHICULES AUTOMOBILES LÉGERS;5 ALL DU MIDI 94310;48,750598;2,409122;M;
;MY BOOTY IS BEAUTIFUL;COMMERCE DE DÉTAIL D'HABILLEMENT EN MAGASIN SPÉCIALISÉ;88 QU DE LA LOIRE 75019;48,88732;2,378912;M;
;SAMSOE & SAMSOE FRANCE S.A.R.L.;COMMERCE DE GROS (COMMERCE INTERENTREPRISES) D'HABILLEMENT ET DE CHAUSSURES;70 AV DE CLICHY 75017;48,8879;2,325103;M;
;SARL SIMAX;COMMERCE DE DÉTAIL DE PARFUMERIE ET DE PRODUITS DE BEAUTÉ EN MAGASIN SPÉCIALISÉ;15 R DE MENILMONTANT 75020;48,867436;2,384321;M;
;RM AUTO;COMMERCE DE VOITURES ET DE VÉHICULES AUTOMOBILES LÉGERS;13 ALL AMBROISE LAMBERT 77500;48,884357;2,587559;M;
;Elite Services;COMM. DE GROS (COMM. INTERENT.) DE FOURN. ET ÉQUI. DIV. POUR LE COMM. ET SERV.;34 AV DE STALINGRAD 93170;48,874711;2,427424;M;
;AUTOMOBILES BEAURIVAGE;COMMERCE DE VOITURES ET DE VÉHICULES AUTOMOBILES LÉGERS;112 AV KLEBER 75016;48,864234;2,287817;M;
;AVIE;COMMERCE DE GROS (COMMERCE INTERENTREPRISES) NON SPÉCIALISÉ;27 R DE LA CHAPELLE 75018;48,89218;2,359667;M;
;BEAUTE DISCOUNT;COMMERCE DE DÉTAIL DE PARFUMERIE ET DE PRODUITS DE BEAUTÉ EN MAGASIN SPÉCIALISÉ;109 R LECOURBE 75015;48,842464;2,302536;M;
;BESNIER BRON HUGO;COMMERCE DE DÉTAIL D'ÉQUIPEMENTS AUTOMOBILES;33 R BRUNEL 75017;48,878942;2,287508;M;
;BIG BROTHER DISTRIBUTION;COMM. DE GROS (COMM. INTERENT.) DE COMPOSANTS ET D'ÉQUI. ÉLECTRO. ET TÉLÉCOM.;21 R DES ROSIERS 77500;48,886559;2,618953;M;
;LESSOL;COMM. DE GROS (COMM. INTERENT.) D'APPAREILS SANITAIRES ET PROD. DE DÉCORATION;38 R DE BERRI 75008;48,873879;2,30699;M;
;MBF TRADING;COMM. DE GROS (COMM. INTERENT.) DE COMPOSANTS ET D'ÉQUI. ÉLECTRO. ET TÉLÉCOM.;7 PL DU 11 NOVEMBRE 1918 93000;48,909025;2,442236;M;
;MESHECTARES.COM;COMM. DE GROS (COMM. INTERENT.) CÉRÉ.  TABAC NON MANU.  SEM. ET ALIM. BÉTAIL;1 RTE DE GAMBAISEUIL 78950;48,774061;1,677962;M;
;BOYS IN THE WOOD;COMMERCE DE DÉTAIL DE MEUBLES;9 R EMILE ALLEZ 75017;48,882577;2,289371;M;
;RAY JUST ENERGY FRANCE;COMMERCE DE GROS (COMMERCE INTERENTREPRISES) DE BOISSONS;32 AV PIERRE 1ER DE SERBIE 75008;48,86769;2,299959;M;
;TEKCAR;COMMERCE DE GROS D'ÉQUIPEMENTS AUTOMOBILES;10 R DU COLISEE 75008;48,870547;2,307978;M;
;BRUT D'ARGAN;COMM. DE GROS (COMM. INTERENTREPRISES) DE PARFUMERIE ET DE PRODUITS DE BEAUTÉ;7 R BROCA 75005;48,838781;2,349001;M;
;MOEBIUS MENTORING;AUTRES ENSEIGNEMENTS;57 BD ARAGO 75013;48,834743;2,344374;M;
;ARC EN CIEL;COMMERCE DE DÉTAIL DE LIVRES EN MAGASIN SPÉCIALISÉ;3 R JEAN MACE 75011;48,852842;2,384173;M;
;WATTINNE PARIS;COMMERCE DE DÉTAIL D'HABILLEMENT EN MAGASIN SPÉCIALISÉ;24 R DE POITOU 75003;48,861625;2,362824;M;
;SARL APERO LA PERLE;COMMERCE D'ALIMENTATION GÉNÉRALE;29 BD GABRIEL PERI 95110;48,967296;2,262362;M;
;CARTE GRISE INSTANTANEE;COMMERCE DE VOITURES ET DE VÉHICULES AUTOMOBILES LÉGERS;42 QU SADI CARNOT 77100;48,95587;2,880788;M;
;Cercle de La Horla;AUTRES COMMERCES DE DÉTAIL SPÉCIALISÉS DIVERS;37 R DE GRENELLE 75007;48,853978;2,326857;M;
;ARZA KIOSQUE;COMMERCE DE DÉTAIL DE JOURNAUX ET PAPETERIE EN MAGASIN SPÉCIALISÉ;12 AV EDOUARD VAILLANT 92150;48,862983;2,210334;M;
;Elite Services;COMM. DE GROS (COMM. INTERENT.) DE FOURN. ET ÉQUI. DIV. POUR LE COMM. ET SERV.;34 AV DE STALINGRAD 93170;48,874711;2,427424;M;
;ATEK OFFICE;COMM. DE GROS (COMM. INTERENT.) D'AUTRES MACHINES ET ÉQUIPEMENTS DE BUREAU;5 AV DE VILLIERS 75017;48,881582;2,314585;M;
;AU BON PAIN DE JAURES;BOULANGERIE ET BOULANGERIE-PÂTISSERIE;42 AV JEAN JAURES 75019;48,88356;2,373815;M;
;SASU MILA;COMMERCE DE DÉTAIL DE PARFUMERIE ET DE PRODUITS DE BEAUTÉ EN MAGASIN SPÉCIALISÉ;6 R DE LANCRY 75010;48,868938;2,360162;M;
;LESSOL;COMM. DE GROS (COMM. INTERENT.) D'APPAREILS SANITAIRES ET PROD. DE DÉCORATION;38 R DE BERRI 75008;48,873879;2,30699;M;
;VERGER VAUGIRARD 212;COMMERCE D'ALIMENTATION GÉNÉRALE;212 R DE VAUGIRARD 75015;48,841049;2,306108;M;
;GC DISTRIBUTIONS;COMMERCE DE GROS (COMMERCE INTERENTREPRISES) ALIMENTAIRE SPÉCIALISÉ DIVERS;3 R DE TEHERAN 75008;48,875573;2,312679;M;
;Shoesyourvintage;COMMERCE DE GROS (COMMERCE INTERENTREPRISES) D'HABILLEMENT ET DE CHAUSSURES;4 R DE NAVARRE 75005;48,843869;2,353676;M;
;APRIL;COMMERCE DE DÉTAIL DE PARFUMERIE ET DE PRODUITS DE BEAUTÉ EN MAGASIN SPÉCIALISÉ;76/78 AV DES CHAMPS ELYSEES 75008;48,870916;2,304061;M;
;AUX BONHEURS DU JOUR;COMMERCE DE DÉTAIL ALIMENTAIRE SUR ÉVENTAIRES ET MARCHÉS;51 QU DES GRANDS AUGUSTINS 75006;48,855172;2,341686;M;
;BE MAAD;COMM. DE DÉT. D'ARTICLES D'HORLOGERIE ET DE BIJOUTERIE EN MAGASIN SPÉCIALISÉ;5 R PIERRE CHAUSSON 75010;48,87061;2,360357;M;
;SCOAC;AUTRES COMMERCES DE DÉTAIL SPÉCIALISÉS DIVERS;7 R DU MORVAN 75011;48,860017;2,38138;M;
;WEMAKEDRONES;COMMERCE DE DÉTAIL DE JEUX ET JOUETS EN MAGASIN SPÉCIALISÉ;15 R DU DOCTEUR GOUJON 75012;48,840304;2,398546;M;
;DAYMEN TEX;COMMERCE DE GROS (COMMERCE INTERENTREPRISES) D'HABILLEMENT ET DE CHAUSSURES;70 AV VICTOR HUGO 93300;48,905296;2,37442;M;
;SOSGSM;COMMERCE DE DÉTAIL DE MATÉRIELS DE TÉLÉCOMMUNICATION EN MAGASIN SPÉCIALISÉ;65 R DE LA GOUTTE D'OR 75018;48,885256;2,349516;M;
;SPEED AUTO;COMMERCE DE DÉTAIL D'ÉQUIPEMENTS AUTOMOBILES;148 AV EUGENE VARLIN 77270;48,950927;2,601086;M;
;SPORTS EN APARTE;COMMERCE DE DÉTAIL D'ARTICLES DE SPORT EN MAGASIN SPÉCIALISÉ;37 R D'AMSTERDAM 75008;48,878952;2,32689;M;
;GL COIFF;COIFFURE;6 ALL URBAIN LE VERRIER 93420;48,963513;2,538937;M;
;JOUL;COMMERCE DE GROS (COMMERCE INTERENTREPRISES) DE MATÉRIEL ÉLECTRIQUE;55 R DU FAUBOURG MONTMARTRE 75009;48,87537;2,340657;M;
;H PIRATE;COMMERCE DE GROS (COMMERCE INTERENTREPRISES) NON SPÉCIALISÉ;9 R GEORGES CLEMENCEAU 77120;48,819687;3,096135;M;
;HM26;COMMERCES DE DÉTAIL D'OPTIQUE;19 BD DE MAGENTA 75010;48,870586;2,36091;M;
;BOUCHERIE DU MARCHE;COMMERCE DE DÉTAIL DE VIANDES ET DE PRODUITS À BASE DE VIANDE EN MAG. SPÉCIALISÉ;72 BD MORTIER 75020;48,868881;2,409254;M;
;boutchichnegoce;COMMERCE DE DÉTAIL DE FRUITS ET LÉGUMES EN MAGASIN SPÉCIALISÉ;3 R MARX DORMOY 75018;48,885018;2,359131;M;
;WEB AUTO STORE;COMMERCE DE VOITURES ET DE VÉHICULES AUTOMOBILES LÉGERS;26 R DE LA CHAPELLE 75018;48,892004;2,359798;M;
;SARL RAIZ TELECOM;COMMERCE DE DÉTAIL DE MATÉRIELS DE TÉLÉCOMMUNICATION EN MAGASIN SPÉCIALISÉ;8 BD HELOISE 95100;48,943012;2,25462;M;
;SARL SARTORY-BILLARD;COMM. DE DÉT. D'ARTICLES D'HORLOGERIE ET DE BIJOUTERIE EN MAGASIN SPÉCIALISÉ;98 AV DE VERSAILLES 75016;48,844753;2,270776;M;
;6-6;COMMERCE D'ALIMENTATION GÉNÉRALE;15 R POISSONNIERE 75002;48,869233;2,347722;M;
;940093 PAM LAURENT & AUFFRANT ARIANE;COMM. DE GROS (COMM. INTERENT.) DE COMPOSANTS ET D'ÉQUI. ÉLECTRO. ET TÉLÉCOM.;23 R D'ANJOU 75008;48,870958;2,32143;M;
;AU GRAND MAGASIN;COMMERCE DE DÉTAIL DE BIENS D'OCCASION EN MAGASIN;11 R JEAN MACE 75011;48,853063;2,383549;M;
;BB UNIT FRANCE;COMMERCE DE GROS (COMMERCE INTERENTREPRISES) NON SPÉCIALISÉ;79 R DE LEVIS 75017;48,884494;2,312071;M;
;MAX-K;AUTRES COMMERCES DE DÉTAIL SPÉCIALISÉS DIVERS;19 R DE ROME 75008;48,876074;2,323516;M;
;MELin'Concept;COMMERCE DE GROS (COMMERCE INTERENTREPRISES) D'AUTRES BIENS DOMESTIQUES;2 ESP DE LA GARE 95110;48,971018;2,263458;M;
;CVM;AUTRES COMMERCES DE DÉTAIL ALIMENTAIRES EN MAGASIN SPÉCIALISÉ;56 BD BEAUMARCHAIS 75011;48,857587;2,368332;M;
;DANILS;COMMERCE DE GROS (COMMERCE INTERENTREPRISES) NON SPÉCIALISÉ;54 R DE MEAUX 75019;48,881948;2,374206;M;
;CLOTHER;COMMERCE DE GROS (COMMERCE INTERENTREPRISES) NON SPÉCIALISÉ;3 VLA GAUDELET 75011;48,865727;2,379573;M;
;LESSOL;COMM. DE GROS (COMM. INTERENT.) D'APPAREILS SANITAIRES ET PROD. DE DÉCORATION;38 R DE BERRI 75008;48,873879;2,30699;M;
;BLUE DEER BIOTECH;COMMERCE DE GROS (COMMERCE INTERENTREPRISES) DE PRODUITS PHARMACEUTIQUES;24 BD DE JARDY 92420;48,833958;2,153893;M;
;DESTOCK SCOOTER;COMMERCE ET RÉPARATION DE MOTOCYCLES;32 R DE PARADIS 75011;48,875288;2,351543;M;
;DREAM PARIS;COMMERCE DE DÉTAIL D'HABILLEMENT EN MAGASIN SPÉCIALISÉ;121 R HAXO 75019;48,876541;2,402309;M;
;COIFFEUR DU QUARTIER;COIFFURE;23 R GUY MOQUET 75017;48,891912;2,321855;M;
;WEB AUTO STORE;COMMERCE DE VOITURES ET DE VÉHICULES AUTOMOBILES LÉGERS;26 R DE LA CHAPELLE 75018;48,892004;2,359798;M;
;AMBROISE S.D;COMMERCE DE GROS (COMMERCE INTERENTREPRISES) NON SPÉCIALISÉ;1 IMP DES TERRASSES 95000;49,044731;2,038361;M;
;AFRICA CO GROUP;COMMERCE DE GROS (COMMERCE INTERENTREPRISES) NON SPÉCIALISÉ;27 R D'ANJOU 78000;48,796987;2,126523;M;
;SAS S.L.A.T. & COMPAGNIE;AUTRES COMMERCES DE DÉTAIL SPÉCIALISÉS DIVERS;51 R DE BOURGOGNE 75007;48,856407;2,317205;M;
;TEKCAR;COMMERCE DE GROS D'ÉQUIPEMENTS AUTOMOBILES;10 R DU COLISEE 75008;48,870547;2,307978;M;
;AMEUBLEMENT DECORATION CONCEPTION;COMMERCE DE DÉTAIL DE MEUBLES;187 AV VICTOR HUGO 75016;48,865607;2,276069;M;
;AGENCE MONDIAL TRADING;COMMERCE DE VOITURES ET DE VÉHICULES AUTOMOBILES LÉGERS;17 R DU DEPARTEMENT 75019;48,885344;2,366131;M;
;F. BELTONI;COMMERCE DE DÉTAIL DE LA CHAUSSURE;41 BD DE STRASBOURG 75010;48,871889;2,355464;M;
;FEYLES;COMMERCE DE GROS (COMMERCE INTERENTREPRISES) DE BOISSONS;129 R DU RANELAGH 75016;48,856235;2,267301;M;
;SABENA CASH & CARRY;COMMERCE D'ALIMENTATION GÉNÉRALE;21 BD JACQUES COPEAU 95200;48,976664;2,369968;M;
;APRIL;COMMERCE DE DÉTAIL DE PARFUMERIE ET DE PRODUITS DE BEAUTÉ EN MAGASIN SPÉCIALISÉ;76/78 AV DES CHAMPS ELYSEES 75008;48,870916;2,304061;M;
;AIKEN;AUTRES COMMERCES DE DÉTAIL EN MAGASIN NON SPÉCIALISÉ;19 BD DE BEAUSEJOUR 75016;48,857548;2,27079;M;
;AIRZUNE;COMM. DE DÉTAIL D'ORDINATEURS  D'UNITÉS PÉRIPH. ET DE LOGI. EN MAG. SPÉCIALISÉ;14 AV DE L'OPERA 75001;48,865303;2,334831;M;
;AIT BUSINESS;COMM. DE GROS (COMM. INTERENTREPRISES) DE PARFUMERIE ET DE PRODUITS DE BEAUTÉ;53 R MARX DORMOY 75018;48,888288;2,359702;M;
;PARIS MAISON;COMMERCE DE DÉTAIL D'HABILLEMENT EN MAGASIN SPÉCIALISÉ;27 AV DE LA PARISIENNE 93140;48,912421;2,486302;M;
;PBA CONTAINER;COMM. DE GROS (COMM. INTERENT.) DE FOURN. ET ÉQUI. DIV. POUR LE COMM. ET SERV.;8 R CROZATIER 75012;48,845673;2,382776;M;
;AKYOMA;COIFFURE;83 AV GABRIEL PERI 95870;48,931746;2,211395;M;
;940093 PAM LAURENT & AUFFRANT ARIANE;COMM. DE GROS (COMM. INTERENT.) DE COMPOSANTS ET D'ÉQUI. ÉLECTRO. ET TÉLÉCOM.;23 R D'ANJOU 75008;48,870958;2,32143;M;
;ALESIA COMMERCE INTERNATIONAL;COMMERCE DE GROS (COMMERCE INTERENTREPRISES) NON SPÉCIALISÉ;8 R DE MOSCOU 75008;48,87999;2,326396;M;
;SECURITY CASH SYSTEM;COMMERCE DE GROS (COMMERCE INTERENTREPRISES) NON SPÉCIALISÉ;72 R PIXERECOURT 75020;48,87432;2,395964;M;
;SECURITY FIRST;COMMERCE DE GROS (COMMERCE INTERENTREPRISES) DE MATÉRIEL ÉLECTRIQUE;58 AV DE WAGRAM 75017;48,879228;2,299241;M;
;SEINE FRAICHE;COMMERCE DE DÉTAIL ALIMENTAIRE SUR ÉVENTAIRES ET MARCHÉS;9 R EVARISTE GALOIS 75020;48,873775;2,413044;M;
;SEIZEAVRIL;COMMERCE DE GROS (COMMERCE INTERENTREPRISES) D'HABILLEMENT ET DE CHAUSSURES;98 R DU MOULIN DES PRES 75013;48,824199;2,354438;M;
;SAS LE LOUP BLEU PARIS;COMMERCE DE DÉTAIL D'HABILLEMENT EN MAGASIN SPÉCIALISÉ;6 R DU CHATEAU D'EAU 75010;48,869212;2,361912;M;
;MONTAVIA FRANCE;COMMERCE DE DÉTAIL DE BOISSONS EN MAGASIN SPÉCIALISÉ;26 R DU PLATEAU 75019;48,878194;2,383909;M;
;GLOBAL CONNECTIONS;AUTRES COMMERCES DE DÉTAIL SPÉCIALISÉS DIVERS;16 BD KELLERMANN 75013;48,820174;2,356862;M;
;GLOBAL SQUARE CONSULTING;COMMERCES DE DÉTAIL DE CHARBONS ET COMBUSTIBLES;7 R GOUNOD 75017;48,883236;2,300455;M;
;RENOV TAPIS;COMM. DE DÉT. DE TAPIS  MOQUETTES ET REVÊTEMENTS DE MURS ET SOLS EN MAG. SPÉC.;64 R JEAN DE LA FONTAINE 75016;48,850533;2,270688;M;
;RENZE;COMMERCE DE GROS (COMMERCE INTERENTREPRISES) D'HABILLEMENT ET DE CHAUSSURES;10 R ERNEST LEFEVRE 75020;48,869231;2,40309;M;
;ALIMENTATION MALAKOFF;COMMERCE D'ALIMENTATION GÉNÉRALE;20 R GAMBETTA 92240;48,822858;2,307686;M;
;JOUL;COMMERCE DE GROS (COMMERCE INTERENTREPRISES) DE MATÉRIEL ÉLECTRIQUE;55 R DU FAUBOURG MONTMARTRE 75009;48,87537;2,340657;M;
;ERBALAB;COMMERCE DE GROS (COMMERCE INTERENTREPRISES) NON SPÉCIALISÉ;47 R DE PONTHIEU 75008;48,871571;2,306487;M;
;AMMA;COMMERCE DE DÉTAIL DE MATÉRIELS DE TÉLÉCOMMUNICATION EN MAGASIN SPÉCIALISÉ;24 R EUGENE JUMIN 75019;48,887807;2,392322;M;
;SEVEN;COMM. DE GROS (COMM. INTERENT.) D'ORDI.  D'ÉQUI. INFO. PÉRIPHÉRIQUES ET LOGI.;10 AV REAUMUR 92140;48,776279;2,239108;M;
;ITALMAC;COMM. DE GROS (COMM. INTERENT.) DE MACH. POUR L'INDUS. TEXTILE ET L'HABIL.;8 R GABRIEL LAUMAIN 75010;48,873429;2,348893;M;
;RUPOHI BANGLA;COMMERCE D'ALIMENTATION GÉNÉRALE;135 BD DE MENILMONTANT 75011;48,866483;2,383044;M;
;SALON DE COIFFURE BEBE ET LARA;COIFFURE;32 R LABAT 75018;48,889329;2,348884;M;
;SARAH SAUVIN;AUTRES COMMERCES DE DÉTAIL SPÉCIALISÉS DIVERS;7 AV CHARLES 93220;48,890686;2,521231;M;
;A.M.S.Y;COMM. DE DÉTAIL D'ORDINATEURS  D'UNITÉS PÉRIPH. ET DE LOGI. EN MAG. SPÉCIALISÉ;43 R PIAT 75020;48,872519;2,384286;M;
;SHADY;COMMERCE DE DÉTAIL ALIMENTAIRE SUR ÉVENTAIRES ET MARCHÉS;45 R DE NANTES 75019;48,892736;2,38045;M;
;SHAHJALAL STORE DEUX;COMMERCE D'ALIMENTATION GÉNÉRALE;16 R DE CHABROL 75010;48,876784;2,354155;M;
;SHAYAH-VISION SASU;COMMERCES DE DÉTAIL D'OPTIQUE;12 AV DES ANDES 91940;48,677455;2,194397;M;
;SHIVAS;AUTRES COMMERCES DE DÉTAIL EN MAGASIN NON SPÉCIALISÉ;4 R PERDONNET 75010;48,883057;2,359692;M;
;MSH;COMMERCE DE GROS (COMMERCE INTERENTREPRISES) D'HABILLEMENT ET DE CHAUSSURES;19 R DUPHOT 75001;48,86858;2,325397;M;
;SECUR'LAND;AUTRES COMMERCES DE DÉTAIL EN MAGASIN NON SPÉCIALISÉ;40 BD RICHARD LENOIR 75011;48,857566;2,371572;M;
;AIRZUNE;COMM. DE DÉTAIL D'ORDINATEURS  D'UNITÉS PÉRIPH. ET DE LOGI. EN MAG. SPÉCIALISÉ;14 AV DE L'OPERA 75001;48,865303;2,334831;M;
;DAYMEN TEX;COMMERCE DE GROS (COMMERCE INTERENTREPRISES) D'HABILLEMENT ET DE CHAUSSURES;70 AV VICTOR HUGO 93300;48,905296;2,37442;M;
;ANTIPODES;COMMERCE DE DÉTAIL D'HABILLEMENT EN MAGASIN SPÉCIALISÉ;2 R ROGER VERLOMME 75003;48,856713;2,36714;M;
;APOI;COMMERCE DE GROS (COMMERCE INTERENTREPRISES) D'HABILLEMENT ET DE CHAUSSURES;23 R BLONDEL 75002;48,868873;2,352471;M;
;ARAKU FRANCE;AUTRES COMMERCES DE DÉTAIL ALIMENTAIRES EN MAGASIN SPÉCIALISÉ;14 BD DE COURCELLES 75017;48,881171;2,313797;M;
;DAYMEN TEX;COMMERCE DE GROS (COMMERCE INTERENTREPRISES) D'HABILLEMENT ET DE CHAUSSURES;70 AV VICTOR HUGO 93300;48,905296;2,37442;M;
;LA 5EME EPICERIE;COMMERCE D'ALIMENTATION GÉNÉRALE;59 R CAULAINCOURT 75018;48,889565;2,335166;M;
;MBF TRADING;COMM. DE GROS (COMM. INTERENT.) DE COMPOSANTS ET D'ÉQUI. ÉLECTRO. ET TÉLÉCOM.;7 PL DU 11 NOVEMBRE 1918 93000;48,909025;2,442236;M;
;LAINOH-EXPORT;COMMERCE DE GROS (COMMERCE INTERENTREPRISES) NON SPÉCIALISÉ;66 R JOUFFROY D'ABBANS 75017;48,88456;2,305865;M;
;SEYHAN CREATION;COMMERCE DE GROS (COMMERCE INTERENTREPRISES) NON SPÉCIALISÉ;26 R MESLAY 75003;48,867859;2,359739;M;
;TEKCAR;COMMERCE DE GROS D'ÉQUIPEMENTS AUTOMOBILES;10 R DU COLISEE 75008;48,870547;2,307978;M;
;MT CASH;COMMERCE DE GROS (COMMERCE INTERENTREPRISES) D'AUTRES BIENS DOMESTIQUES;161 AV VICTOR HUGO 93300;48,911188;2,37914;M;
;ANUSHKA;COMMERCE D'ALIMENTATION GÉNÉRALE;72 R LOUIS BLANC 75010;48,88412;2,359813;M;
;ARTE HOUSSARD;COMMERCE DE DÉTAIL D'HABILLEMENT EN MAGASIN SPÉCIALISÉ;39 R VANEAU 75007;48,852014;2,319135;M;
;SOPHIE;COIFFURE;250 R DE LA CONVENTION 75015;48,835557;2,301869;M;
;SOUTH WINDS;COMMERCE DE GROS (COMMERCE INTERENTREPRISES) ALIMENTAIRE NON SPÉCIALISÉ;8 R LACEPEDE 75005;48,843728;2,353954;M;
;MYMA GALLERY;AUTRES COMMERCES DE DÉTAIL SPÉCIALISÉS DIVERS;8 R DU CHATEAU LANDON 75010;48,879938;2,362413;M;
;NB COM;COMM. DE GROS (COMM. INTERENT.) DE COMPOSANTS ET D'ÉQUI. ÉLECTRO. ET TÉLÉCOM.;3 ALL DU VAL D'ESSONNE 78310;48,765877;1,946172;M;
;NEITH NYER;COMMERCE DE DÉTAIL D'HABILLEMENT EN MAGASIN SPÉCIALISÉ;63 R MARX DORMOY 75018;48,889263;2,359702;M;
;NIVALETI;COMMERCE DE DÉTAIL DE BOISSONS EN MAGASIN SPÉCIALISÉ;76 ALL DE MONTFERMEIL 93340;48,895948;2,527214;M;
;NPK ALIMENTATION GENERALE;COMMERCE D'ALIMENTATION GÉNÉRALE;26 R DUHESME 75018;48,89101;2,339263;M;
;SEVEN;COMM. DE GROS (COMM. INTERENT.) D'ORDI.  D'ÉQUI. INFO. PÉRIPHÉRIQUES ET LOGI.;10 AV REAUMUR 92140;48,776279;2,239108;M;
;MBF TRADING;COMM. DE GROS (COMM. INTERENT.) DE COMPOSANTS ET D'ÉQUI. ÉLECTRO. ET TÉLÉCOM.;7 PL DU 11 NOVEMBRE 1918 93000;48,909025;2,442236;M;
;MEGA COLLECTION;COMMERCE DE DÉTAIL D'HABILLEMENT EN MAGASIN SPÉCIALISÉ;40 R DE BELLEVILLE 75020;48,872954;2,380713;M;
;MON COUSIN ALIMENTATION;COMMERCE D'ALIMENTATION GÉNÉRALE;18 CRS DES ROCHES 77186;48,845106;2,615359;M;
;ASP.7;COMMERCE D'ALIMENTATION GÉNÉRALE;25 R DE LA JONQUIERE 75017;48,893486;2,324935;M;
;SPIRIT CARAIB;COMMERCE DE DÉTAIL DE BOISSONS EN MAGASIN SPÉCIALISÉ;2 ALL URBAIN LE VERRIER 93420;48,962882;2,540265;M;
;SPORTS D'EPOQUE 2;COMMERCE DE GROS (COMMERCE INTERENTREPRISES) D'AUTRES BIENS DOMESTIQUES;30 AV CORENTIN CARIOU 75019;48,896786;2,384853;M;
;ALESIA COMMERCE INTERNATIONAL;COMMERCE DE GROS (COMMERCE INTERENTREPRISES) NON SPÉCIALISÉ;8 R DE MOSCOU 75008;48,87999;2,326396;M;
;SOY;COMMERCE DE DÉTAIL D'HABILLEMENT EN MAGASIN SPÉCIALISÉ;48 R DU FAUBOURG POISSONNIERE 75010;48,874335;2,348062;M;
;SOY TEXTILE;COMMERCE DE GROS (COMMERCE INTERENTREPRISES) DE TEXTILES;3 BD ALBERT CAMUS 95200;48,979045;2,371547;M;
;S.P. ALIMENTATION LEGENDRE;COMMERCE D'ALIMENTATION GÉNÉRALE;163 R LEGENDRE 75017;48,891221;2,325301;M;
;AM INVESTISSEMENT;COMMERCE DE GROS (COMMERCE INTERENTREPRISES) ALIMENTAIRE NON SPÉCIALISÉ;121 R CHAMPIONNET 75018;48,895352;2,338089;M;
;SAS SHOE UP;COMMERCE DE DÉTAIL DE LA CHAUSSURE;113 R LAMARCK 75018;48,890764;2,332297;M;
;SAS SIDNEY SILVER;COMM. DE DÉT. D'ARTICLES D'HORLOGERIE ET DE BIJOUTERIE EN MAGASIN SPÉCIALISÉ;4 R DES GRAVILLIERS 75003;48,86348;2,358021;M;
;SIGADIS;SUPÉRETTES;2 AV DES VIGNES BENETTES 78230;48,88063;2,096587;M;
;SILLI BTP AND CO;COMMERCE DE GROS (COMMERCE INTERENTREPRISES) NON SPÉCIALISÉ;144 AV DE FLANDRE 75019;48,893606;2,380968;M;
;SIXIEME CIEL;COIFFURE;52 R VAVIN 75006;48,842659;2,328574;M;
;940093 PAM LAURENT & AUFFRANT ARIANE;COMM. DE GROS (COMM. INTERENT.) DE COMPOSANTS ET D'ÉQUI. ÉLECTRO. ET TÉLÉCOM.;23 R D'ANJOU 75008;48,870958;2,32143;M;
;LAINOH-EXPORT;COMMERCE DE GROS (COMMERCE INTERENTREPRISES) NON SPÉCIALISÉ;66 R JOUFFROY D'ABBANS 75017;48,88456;2,305865;M;
;ALPC;COMMERCE DE GROS (COMMERCE INTERENTREPRISES) NON SPÉCIALISÉ;29 R LE MAROIS 75016;48,838548;2,260959;M;
;SNC LUXUARY REAL ESTATE;COMMERCE DE DÉTAIL D'HABILLEMENT EN MAGASIN SPÉCIALISÉ;4 R CHRISTOPHE COLOMB 75008;48,870025;2,300349;M;
;SMART TECHNOLOGY;COMM. DE DÉTAIL D'ORDINATEURS  D'UNITÉS PÉRIPH. ET DE LOGI. EN MAG. SPÉCIALISÉ;60 R DES MOINES 75017;48,890537;2,321093;M;
;LUCIE.L;COMMERCE DE GROS (COMMERCE INTERENTREPRISES) D'AUTRES BIENS DOMESTIQUES;18 R DES GRAVILLIERS 75003;48,863738;2,357178;M;
;SPORTS EN APARTE;COMMERCE DE DÉTAIL D'ARTICLES DE SPORT EN MAGASIN SPÉCIALISÉ;37 R D'AMSTERDAM 75008;48,878952;2,32689;M;
;TEKCAR;COMMERCE DE GROS D'ÉQUIPEMENTS AUTOMOBILES;10 R DU COLISEE 75008;48,870547;2,307978;M;
;AU RAISIN DIVIN;COMMERCE DE DÉTAIL DE BOISSONS EN MAGASIN SPÉCIALISÉ;1 R BERTRAND FLORNOY 77120;48,811809;3,08319;M;
;SULTANA TELECOM;COMMERCE DE DÉTAIL DE MATÉRIELS DE TÉLÉCOMMUNICATION EN MAGASIN SPÉCIALISÉ;95 BD DIDEROT 75012;48,847725;2,388837;M;
;SURIYAN;AUTRES COMMERCES DE DÉTAIL SPÉCIALISÉS DIVERS;31 BD DE LA CHAPELLE 75010;48,884213;2,360307;M;
;SURLUXE;COMM. DE GROS (COMM. INTERENTREPRISES) DE PARFUMERIE ET DE PRODUITS DE BEAUTÉ;3 ALL DES LILAS 92150;48,866902;2,215763;M;
;S&K COIFFURE;COIFFURE;9 R LETORT 75018;48,894044;2,342982;M;
;STEPHANIE SEGUIN SASU;COMM. DE DÉT. DE TAPIS  MOQUETTES ET REVÊTEMENTS DE MURS ET SOLS EN MAG. SPÉC.;52 R DES POISSONNIERS 75018;48,889394;2,35188;M;
;A.ELAKIYA;COMMERCE D'ALIMENTATION GÉNÉRALE;94 R RIQUET 75018;48,890158;2,361104;M;
;SweetNess & Cook;COMMERCE DE DÉTAIL DE PAIN  PÂTISSERIE ET CONFISERIE EN MAGASIN SPÉCIALISÉ;12 R AUGUSTE CHABRIERES 75015;48,835257;2,288835;M;
;SECURITY FIRST;COMMERCE DE GROS (COMMERCE INTERENTREPRISES) DE MATÉRIEL ÉLECTRIQUE;58 AV DE WAGRAM 75017;48,879228;2,299241;M;
;Terroirs Lyriques;COMMERCE DE GROS (COMMERCE INTERENTREPRISES) ALIMENTAIRE NON SPÉCIALISÉ;23 R OUDINOT 75007;48,849846;2,316705;M;
;GLOBAL STOCKS;COMMERCE DE GROS (COMMERCE INTERENTREPRISES) NON SPÉCIALISÉ;6 R DE SARCELLES 95410;48,98481;2,36306;M;
;PRO.TECH.BAT;COMMERCE DE DÉTAIL D'AUTRES ÉQUIPEMENTS DU FOYER;7 BD PEREIRE 75017;48,887539;2,31284;M;
;RUPOHI BANGLA;COMMERCE D'ALIMENTATION GÉNÉRALE;135 BD DE MENILMONTANT 75011;48,866483;2,383044;M;
;STAR FRUITS;COMMERCE DE DÉTAIL DE FRUITS ET LÉGUMES EN MAGASIN SPÉCIALISÉ;21 R D'AVRON 75020;48,851703;2,400016;M;
;AMMA;COMMERCE DE DÉTAIL DE MATÉRIELS DE TÉLÉCOMMUNICATION EN MAGASIN SPÉCIALISÉ;24 R EUGENE JUMIN 75019;48,887807;2,392322;M;
;STEPHENSON;BOULANGERIE ET BOULANGERIE-PÂTISSERIE;23 R STEPHENSON 75018;48,886639;2,356379;M;
;LE PONEY FOUGUEUX;COMMERCE DE DÉTAIL DE MEUBLES;37 R FAIDHERBE 75011;48,853311;2,382558;M;
;LE VERGER ETOILE;COMMERCE DE GROS (COMMERCE INTERENTREPRISES) DE FRUITS ET LÉGUMES;149 AV DU MAINE 75014;48,83385;2,324674;M;
;AUTO COMPANY;COMMERCE DE VOITURES ET DE VÉHICULES AUTOMOBILES LÉGERS;8 R DU CAPORAL PEUGEOT 75017;48,887511;2,28941;M;
;SAF;COMMERCE DE DÉTAIL ALIMENTAIRE SUR ÉVENTAIRES ET MARCHÉS;19 R DES BLUETS 75011;48,864863;2,383109;M;
;SAMA PALETTES;COMMERCE DE GROS (COMM. INTERENT.) DE BOIS ET DE MATÉRIAUX DE CONSTRUCTION;22 RLE DE PARIS 94460;48,745789;2,473283;M;
;SPORTS EN APARTE;COMMERCE DE DÉTAIL D'ARTICLES DE SPORT EN MAGASIN SPÉCIALISÉ;37 R D'AMSTERDAM 75008;48,878952;2,32689;M;
;SARL ELITE VOYAGE;COMM. DE GROS (COMM. INTERENT.) D'ORDI.  D'ÉQUI. INFO. PÉRIPHÉRIQUES ET LOGI.;7 R DE LA FIDELITE 75010;48,874391;2,355996;M;
;STAR COIFFURES;COIFFURE;116 R DE LA GLACIERE 75013;48,828433;2,342638;M;
;SMTOPAZ;COIFFURE;3 R AUGUSTE BARTHOLDI 75015;48,850787;2,294705;M;
;TAPATIA;COMMERCE DE DÉTAIL D'HABILLEMENT EN MAGASIN SPÉCIALISÉ;57 R D'ALLERAY 75015;48,836532;2,305676;M;
;TEKCAR;COMMERCE DE GROS D'ÉQUIPEMENTS AUTOMOBILES;10 R DU COLISEE 75008;48,870547;2,307978;M;
;SILVERSTONE;COMMERCE DE GROS (COMMERCE INTERENTREPRISES) D'AUTRES BIENS DOMESTIQUES;18 AV ALPHONSE DE NEUVILLE 92380;48,847999;2,185387;M;
;SAS DB;COMMERCE DE DÉTAIL DE BIENS D'OCCASION EN MAGASIN;11 R ALPHONSE DAUDET 75014;48,826449;2,327683;M;
;SOCIETE DES BROCANTEURS;COMMERCE DE GROS (COMMERCE INTERENTREPRISES) NON SPÉCIALISÉ;43 R DE TREVISE 75009;48,875416;2,345398;M;
;CRABE MADELEINE;COMMERCE DE GROS (COMMERCE INTERENTREPRISES) ALIMENTAIRE NON SPÉCIALISÉ;19 PL DE LA MADELEINE 75008;48,87074;2,32399;M;
;CREATION COIFFURE;COIFFURE;18 R DE LA CHINE 75020;48,867659;2,398771;M;
;CSH AUTO;COMMERCE DE VOITURES ET DE VÉHICULES AUTOMOBILES LÉGERS;99 AV PABLO PICASSO 92000;48,888783;2,222312;M;
;HaysCut;COMMERCE DE GROS (COMMERCE INTERENTREPRISES) NON SPÉCIALISÉ;48 BD DE BELLEVILLE 75020;48,869147;2,380896;M;
;HILANE;SUPERMARCHÉS;69 R D'ALESIA 75014;48,827845;2,32913;M;
;TOUBO;COMMERCE DE DÉTAIL D'HABILLEMENT EN MAGASIN SPÉCIALISÉ;3 R DE MONTMORENCY 75003;48,86246;2,357046;M;
;TRADING & LOGISTICS SOLUTIONS;COMMERCE DE GROS (COMMERCE INTERENTREPRISES) NON SPÉCIALISÉ;1 SQ HENRI REGNAULT 92400;48,894005;2,242853;M;
;TRS EXO;COMMERCE D'ALIMENTATION GÉNÉRALE;35 BD HENRI BERGSON 95200;48,976487;2,376819;M;
;Ultibuy;COMMERCE DE GROS (COMMERCE INTERENTREPRISES) NON SPÉCIALISÉ;16 R DE LA FOLIE MERICOURT 75011;48,862218;2,374005;M;
;AIRZUNE;COMM. DE DÉTAIL D'ORDINATEURS  D'UNITÉS PÉRIPH. ET DE LOGI. EN MAG. SPÉCIALISÉ;14 AV DE L'OPERA 75001;48,865303;2,334831;M;
;VECTANS PHARMA;COMMERCE DE GROS (COMMERCE INTERENTREPRISES) DE PRODUITS PHARMACEUTIQUES;13 R AUBER 75009;48,87262;2,328844;M;
;SARL HD COIFFURE;COIFFURE;3 ALL DES VIOLETTES 78410;48,956695;1,854192;M;
;SAS GARAGE DE L'ESPOIR;COMMERCE DE VOITURES ET DE VÉHICULES AUTOMOBILES LÉGERS;27 AV DE L'EPINETTE 77100;48,95958;2,906808;M;
;FTCI;COMMERCE DE GROS (COMMERCE INTERENTREPRISES) NON SPÉCIALISÉ;194 AV JEAN JAURES 75019;48,888193;2,39148;M;
;TEAM FIT;COMMERCE DE DÉTAIL D'ARTICLES DE SPORT EN MAGASIN SPÉCIALISÉ;182 AV DU GENERAL DE GAULLE 77270;48,950792;2,602713;M;
;CUISINE CHAVILLOISE;COMMERCE DE DÉTAIL DE BIENS D'OCCASION EN MAGASIN;800 AV ROGER SALENGRO 92370;48,814164;2,192685;M;
;D.A.B;COMMERCE DE GROS (COMM. INTERENT.) DE BOIS ET DE MATÉRIAUX DE CONSTRUCTION;132 R DE BAGNOLET 75020;48,861024;2,405183;M;
;BOYS IN THE WOOD;COMMERCE DE DÉTAIL DE MEUBLES;9 R EMILE ALLEZ 75017;48,882577;2,289371;M;
;JAC INVEST;COMM. DE DÉTAIL D'ORDINATEURS  D'UNITÉS PÉRIPH. ET DE LOGI. EN MAG. SPÉCIALISÉ;59 BD EXELMANS 75016;48,842378;2,261097;M;
;SHAHENA;COMMERCE DE DÉTAIL DE MATÉRIELS DE TÉLÉCOMMUNICATION EN MAGASIN SPÉCIALISÉ;199 R DE LA CONVENTION 75015;48,83694;2,297784;M;
;GOGO PLUS;COMMERCE D'ALIMENTATION GÉNÉRALE;2 R DE PANAMA 75018;48,887687;2,353282;M;
;SO GLOSS;COMM. DE GROS (COMM. INTERENTREPRISES) DE PARFUMERIE ET DE PRODUITS DE BEAUTÉ;14 PL DE LA NATION 75012;48,847306;2,395271;M;
;DAMA ES DISTRIBUTION;COMMERCE DE GROS (COMMERCE INTERENTREPRISES) DE BOISSONS;29 AV HOCHE 94320;48,767317;2,399827;M;
;SPORTS EN APARTE;COMMERCE DE DÉTAIL D'ARTICLES DE SPORT EN MAGASIN SPÉCIALISÉ;37 R D'AMSTERDAM 75008;48,878952;2,32689;M;
;THE COLLECTION;COMMERCE DE VOITURES ET DE VÉHICULES AUTOMOBILES LÉGERS;16 AV DE LA BOURDONNAIS 75007;48,85964;2,296769;M;
;CHARMES & COMPAGNIE;COMMERCE DE GROS (COMMERCE INTERENTREPRISES) D'AUTRES BIENS DOMESTIQUES;181 BD PEREIRE 75017;48,882071;2,292224;M;
;CHATEAU ROUGE DE L'ESSONNE;COMMERCE DE GROS (COMMERCE INTERENTREPRISES) DE BOISSONS;17 AV DES SABLONS 91350;48,655179;2,391008;M;
;LA P'TITE MAREE;COMMERCE DE DÉTAIL ALIMENTAIRE SUR ÉVENTAIRES ET MARCHÉS;70 RTE DE DOURDAN 91470;48,585125;2,054323;M;
;LABOUDI;COMMERCE DE DÉTAIL DE PAIN  PÂTISSERIE ET CONFISERIE EN MAGASIN SPÉCIALISÉ;47 BD ORNANO 75018;48,895482;2,346182;M;
;L'Atelier Folklore;COMMERCE DE GROS (COMMERCE INTERENTREPRISES) D'AUTRES BIENS DOMESTIQUES;42 PAS CHOISEUL 75002;48,867912;2,335495;M;
;LCV;COMMERCE DE DÉTAIL DE MATÉRIELS DE TÉLÉCOMMUNICATION EN MAGASIN SPÉCIALISÉ;17 BD BOURDON 75004;48,848959;2,366192;M;
;LE VERGER ETOILE;COMMERCE DE GROS (COMMERCE INTERENTREPRISES) DE FRUITS ET LÉGUMES;149 AV DU MAINE 75014;48,83385;2,324674;M;
;ADI-KARE-M;COMMERCE DE DÉTAIL DE PARFUMERIE ET DE PRODUITS DE BEAUTÉ EN MAGASIN SPÉCIALISÉ;81 R ALBERT 75013;48,827128;2,370694;M;
;PANTIN MULTIMEDIA;COMMERCE DE DÉTAIL DE MATÉRIELS DE TÉLÉCOMMUNICATION EN MAGASIN SPÉCIALISÉ;117 AV JEAN LOLIVE 93500;48,892744;2,410401;M;
;FOODAXYS;COMMERCE DE DÉTAIL DE PAIN  PÂTISSERIE ET CONFISERIE EN MAGASIN SPÉCIALISÉ;196 R DE LA CONVENTION 75015;48,837314;2,295969;M;
;L.O CONCEPT;COMMERCE DE GROS (COMMERCE INTERENTREPRISES) NON SPÉCIALISÉ;111 AV VICTOR HUGO 93300;48,906989;2,375985;M;
;CIE INTERNATIONAL;COMMERCE DE GROS (COMMERCE INTERENTREPRISES) NON SPÉCIALISÉ;37 BD JEAN ALLEMANE 95100;48,951238;2,253168;M;
;F F APERITIF;AUTRES COMMERCES DE DÉTAIL ALIMENTAIRES EN MAGASIN SPÉCIALISÉ;26 R DES MOINES 75017;48,888597;2,319273;M;
;SECURITY FIRST;COMMERCE DE GROS (COMMERCE INTERENTREPRISES) DE MATÉRIEL ÉLECTRIQUE;58 AV DE WAGRAM 75017;48,879228;2,299241;M;
;NOVIA GROUP;COMMERCE DE VOITURES ET DE VÉHICULES AUTOMOBILES LÉGERS;55 BD DE CHARONNE 75011;48,852795;2,396966;M;
;OFENICIA;COMMERCE DE GROS (COMMERCE INTERENTREPRISES) NON SPÉCIALISÉ;97 R DE LA JONQUIERE 75017;48,895113;2,316812;M;
;LAINOH-EXPORT;COMMERCE DE GROS (COMMERCE INTERENTREPRISES) NON SPÉCIALISÉ;66 R JOUFFROY D'ABBANS 75017;48,88456;2,305865;M;
;KINT & SENCIA;COMM. DE GROS (COMM. INTERENTREPRISES) DE PARFUMERIE ET DE PRODUITS DE BEAUTÉ;96 R BLANCHE 75009;48,882986;2,332254;M;
;KLAETER;AUTRES COMMERCES DE DÉTAIL SPÉCIALISÉS DIVERS;30 R DE MIROMESNIL 75008;48,873363;2,316017;M;
;KNJ FRUITS ET LEGUMES;COMMERCE DE DÉTAIL ALIMENTAIRE SUR ÉVENTAIRES ET MARCHÉS;7 R VICTOR LETALLE 75020;48,866991;2,385461;M;
;MBF TRADING;COMM. DE GROS (COMM. INTERENT.) DE COMPOSANTS ET D'ÉQUI. ÉLECTRO. ET TÉLÉCOM.;7 PL DU 11 NOVEMBRE 1918 93000;48,909025;2,442236;M;
;FRANCE DEPANNAGE AUTO;COMMERCE DE VOITURES ET DE VÉHICULES AUTOMOBILES LÉGERS;32 ALL DES PEUPLIERS 93270;48,929713;2,515527;M;
;COLLECTION C FRANCE;AUTRES COMMERCES DE DÉTAIL SPÉCIALISÉS DIVERS;5 R DROUOT 75009;48,872563;2,340231;M;
;COTON UNIQUE;COMMERCE DE GROS (COMMERCE INTERENTREPRISES) DE TEXTILES;47/49 R GUERSANT 75017;48,882503;2,28812;M;
;MBF TRADING;COMM. DE GROS (COMM. INTERENT.) DE COMPOSANTS ET D'ÉQUI. ÉLECTRO. ET TÉLÉCOM.;7 PL DU 11 NOVEMBRE 1918 93000;48,909025;2,442236;M;
;D.D.S;COMMERCE D'ALIMENTATION GÉNÉRALE;11 AV STEPHANE MALLARME 75017;48,886431;2,293201;M;
;940093 PAM LAURENT & AUFFRANT ARIANE;COMM. DE GROS (COMM. INTERENT.) DE COMPOSANTS ET D'ÉQUI. ÉLECTRO. ET TÉLÉCOM.;23 R D'ANJOU 75008;48,870958;2,32143;M;
;PARIS LABEL FRANCE SARL;COMMERCE DE GROS (COMMERCE INTERENTREPRISES) NON SPÉCIALISÉ;14 R DU CLOITRE NOTRE DAME 75004;48,853453;2,349853;M;
;PARIS SPORT;COMMERCE DE DÉTAIL D'ARTICLES DE SPORT EN MAGASIN SPÉCIALISÉ;11 R MARX DORMOY 75018;48,885298;2,359147;M;
;SAS CAP EXPRESS;COMMERCE DE GROS (COMMERCE INTERENTREPRISES) DE PRODUITS PHARMACEUTIQUES;101 AV DU GENERAL LECLERC 75685;48,825791;2,326565;M;
;PERLESDIS;COMMERCE D'ALIMENTATION GÉNÉRALE;72 AV PARMENTIER 75011;48,86373;2,375679;M;
;GLOBAL NEGOCE;COMMERCE DE GROS (COMMERCE INTERENTREPRISES) DE MATÉRIEL ÉLECTRIQUE;8 IMP DE LA DEFENSE 75018;48,885425;2,327422;M;
;GO SERVICES;AUTRES COMMERCES DE DÉTAIL ALIMENTAIRES EN MAGASIN SPÉCIALISÉ;17 AV DE LA REPUBLIQUE 75011;48,866228;2,370255;M;
;ABINA ALIMENTATION GENERALE;COMMERCE D'ALIMENTATION GÉNÉRALE;24 AV DE LIVRY 93270;48,933483;2,536308;M;
;ALESIA COMMERCE INTERNATIONAL;COMMERCE DE GROS (COMMERCE INTERENTREPRISES) NON SPÉCIALISÉ;8 R DE MOSCOU 75008;48,87999;2,326396;M;
;SKO;COMMERCE DE DÉTAIL DE LA CHAUSSURE;19 R DU DELTA 75009;48,882378;2,347262;M;
;GPx2;COMMERCE DE GROS (COMMERCE INTERENTREPRISES) D'ANIMAUX VIVANTS;23 DOM DE L'ABBAYE 78810;48,874175;1,971681;M;
;ENERGYSQUARE;COMM. DE GROS (COMM. INTERENT.) DE COMPOSANTS ET D'ÉQUI. ÉLECTRO. ET TÉLÉCOM.;4 R DE LA GLACIERE 75013;48,837252;2,345332;M;
;WINCKLER CONSULTING;AUTRES ENSEIGNEMENTS;76 R LECOURBE 75015;48,843602;2,305479;M;
;Société du palais;COMMERCE DE DÉTAIL D'HABILLEMENT EN MAGASIN SPÉCIALISÉ;2 PL DE LA PORTE MAILLOT 75017;48,878577;2,283835;M;
;DESIGN & CERAMIC;COMM. DE DÉT. DE QUINCAILLERIE  PEINTURES ET VERRES EN PETITES SURF. - DE 400 M²;167 BD JEAN ALLEMANE 95100;48,963105;2,260268;M;
;A LA PARISIENNE;COMMERCE DE DÉTAIL DE MEUBLES;82 BD MURAT 75016;48,841154;2,255942;M;
;MBF TRADING;COMM. DE GROS (COMM. INTERENT.) DE COMPOSANTS ET D'ÉQUI. ÉLECTRO. ET TÉLÉCOM.;7 PL DU 11 NOVEMBRE 1918 93000;48,909025;2,442236;M;
;LAINOH-EXPORT;COMMERCE DE GROS (COMMERCE INTERENTREPRISES) NON SPÉCIALISÉ;66 R JOUFFROY D'ABBANS 75017;48,88456;2,305865;M;
;ELEGANCE ONE;COMM. DE GROS (COMM. INTERENTREPRISES) DE PARFUMERIE ET DE PRODUITS DE BEAUTÉ;24 R DE LA FOLIE MERICOURT 75011;48,862665;2,373529;M;
;ELICIO VENT DU NORD;COMMERCE DE GROS (COMMERCE INTERENTREPRISES) DE MATÉRIEL ÉLECTRIQUE;30 BD RICHARD LENOIR 75011;48,85678;2,371216;M;
;CMONDOUBLE;AUTRES COMMERCES DE DÉTAIL SPÉCIALISÉS DIVERS;18 R DE L'EST 75020;48,871054;2,394131;M;
;MBF TRADING;COMM. DE GROS (COMM. INTERENT.) DE COMPOSANTS ET D'ÉQUI. ÉLECTRO. ET TÉLÉCOM.;7 PL DU 11 NOVEMBRE 1918 93000;48,909025;2,442236;M;
;COCO PAL;COMM. DE GROS (COMM. INTERENT.) DE FOURNITURES ET ÉQUIPEMENTS INDUSTRIELS DIVERS;31 R DE L'ORGEVAL 77120;48,801794;3,095468;M;
;MCA;COMMERCE DE GROS (COMMERCE INTERENTREPRISES) DE FRUITS ET LÉGUMES;110 R CARDINET 75017;48,885665;2,311795;M;
;MCD;COMMERCE DE DÉTAIL DE MEUBLES;35 R GAZAN 75014;48,821822;2,3409;M;
;MIMI MIDUL;COMMERCE D'ALIMENTATION GÉNÉRALE;21 AV DU 8 MAI 1945 95200;48,977161;2,37399;M;
;YOUNG COSMETIC FRANCE;COMMERCE DE DÉTAIL DE PARFUMERIE ET DE PRODUITS DE BEAUTÉ EN MAGASIN SPÉCIALISÉ;57 R AU MAIRE 75003;48,864952;2,354626;M;
;YVELINE ANTIQUES;COMMERCE DE DÉTAIL DE BIENS D'OCCASION EN MAGASIN;4 R DE FURSTEMBERG 75006;48,85454;2,335854;M;
;ACK DISTRIBUTION;SUPERMARCHÉS;69 R DE CLICHY 75009;48,8819;2,328086;M;
;AIRZUNE;COMM. DE DÉTAIL D'ORDINATEURS  D'UNITÉS PÉRIPH. ET DE LOGI. EN MAG. SPÉCIALISÉ;14 AV DE L'OPERA 75001;48,865303;2,334831;M;
;GROSS-MAT;COMMERCE DE GROS (COMM. INTERENT.) DE BOIS ET DE MATÉRIAUX DE CONSTRUCTION;4 PL LOUIS ARMAND 75012;48,844955;2,373234;M;
;SNC RETH;COMMERCE DE DÉTAIL DE JOURNAUX ET PAPETERIE EN MAGASIN SPÉCIALISÉ;35 BD ARISTIDE BRIAND 93100;48,870101;2,449979;M;
;SOCAREVA;COMMERCE DE GROS (COMMERCE INTERENTREPRISES) ALIMENTAIRE SPÉCIALISÉ DIVERS;AV DES COMTES DE CHAMPAGNE 77100;48,955653;2,914783;M;
;LOULEA;COMMERCE DE DÉTAIL D'HABILLEMENT EN MAGASIN SPÉCIALISÉ;38 BD DES BATIGNOLLES 75017;48,882909;2,323378;M;
;VS9;COMMERCE DE GROS (COMMERCE INTERENTREPRISES) NON SPÉCIALISÉ;45 AV VICTOR HUGO 93300;48,90352;2,37198;M;
;DAYMEN TEX;COMMERCE DE GROS (COMMERCE INTERENTREPRISES) D'HABILLEMENT ET DE CHAUSSURES;70 AV VICTOR HUGO 93300;48,905296;2,37442;M;
;MMSN;COMMERCE DE DÉTAIL D'HABILLEMENT EN MAGASIN SPÉCIALISÉ;140 R LECOURBE 75015;48,842009;2,300337;M;
;MY ACCESS;COMMERCE DE GROS (COMMERCE INTERENTREPRISES) NON SPÉCIALISÉ;27 R ARMAND CARREL 75019;48,882563;2,378662;M;
;NCA;COMMERCE DE GROS (COMMERCE INTERENTREPRISES) DE BOISSONS;27 R JASMIN 75016;48,851518;2,265738;M;
;LESSOL;COMM. DE GROS (COMM. INTERENT.) D'APPAREILS SANITAIRES ET PROD. DE DÉCORATION;38 R DE BERRI 75008;48,873879;2,30699;M;
;SECURITY FIRST;COMMERCE DE GROS (COMMERCE INTERENTREPRISES) DE MATÉRIEL ÉLECTRIQUE;58 AV DE WAGRAM 75017;48,879228;2,299241;M;
;SECURITY FIRST;COMMERCE DE GROS (COMMERCE INTERENTREPRISES) DE MATÉRIEL ÉLECTRIQUE;58 AV DE WAGRAM 75017;48,879228;2,299241;M;
;GUILLAUME SERGENTI STUDIO;COIFFURE;94 R DE VARENNE 75007;48,856031;2,315784;M;
;SOCIETE FRANCAISE DE MENUISERIES;COMMERCE DE GROS (COMM. INTERENT.) DE BOIS ET DE MATÉRIAUX DE CONSTRUCTION;109 R DE CHARENTON 75012;48,846881;2,378543;M;
;SODA FOOD MARKET;COMMERCE DE GROS (COMMERCE INTERENTREPRISES) ALIMENTAIRE NON SPÉCIALISÉ;1 ALL MAURICE CHEVALIER 93100;48,864492;2,435287;M;
;DAYMEN TEX;COMMERCE DE GROS (COMMERCE INTERENTREPRISES) D'HABILLEMENT ET DE CHAUSSURES;70 AV VICTOR HUGO 93300;48,905296;2,37442;M;
;COIFFURE BEAUTE BRASIL;COIFFURE;28 R NICOLAI 75012;48,836389;2,394982;M;
;COIFFURE DE L'AMITIE;COIFFURE;113 AV ARISTIDE BRIAND 92120;48,81255;2,326324;M;
;Computer Technology Cash;COMM. DE DÉTAIL D'ORDINATEURS  D'UNITÉS PÉRIPH. ET DE LOGI. EN MAG. SPÉCIALISÉ;152 AV DAUMESNIL 75012;48,840328;2,391826;M;
;LFM FACTORY;PÂTISSERIE;12 R MANUEL 75009;48,878414;2,340185;M;
;NS PHONE;COMM. DE DÉTAIL D'ORDINATEURS  D'UNITÉS PÉRIPH. ET DE LOGI. EN MAG. SPÉCIALISÉ;80 AV JEAN JAURES 75019;48,884701;2,378155;M;
;AGNES BEAUTE;COMMERCE DE DÉTAIL DE PARFUMERIE ET DE PRODUITS DE BEAUTÉ EN MAGASIN SPÉCIALISÉ;7 R POULET 75018;48,886792;2,348349;M;
;AGR;COMMERCE DE DÉTAIL DE MATÉRIELS DE TÉLÉCOMMUNICATION EN MAGASIN SPÉCIALISÉ;70 R DOUDEAUVILLE 75018;48,888417;2,352044;M;
;ALTEX SERVICES;COMMERCE DE GROS (COMMERCE INTERENTREPRISES) DE MATÉRIEL ÉLECTRIQUE;43 BD AUGUSTE BLANQUI 75013;48,829656;2,35111;M;
;EWLM;AUTRES ENSEIGNEMENTS;19 R DE LA SABLIERE 75014;48,831794;2,323341;M;
;DAYMEN TEX;COMMERCE DE GROS (COMMERCE INTERENTREPRISES) D'HABILLEMENT ET DE CHAUSSURES;70 AV VICTOR HUGO 93300;48,905296;2,37442;M;
;RECIPROQUE;AUTRES COMMERCES DE DÉTAIL SPÉCIALISÉS DIVERS;7 R DU DOCTEUR CHARLES RICHET 75013;48,831898;2,364329;M;
;RED COIFFURE;COIFFURE;6 BD DE L'OURCQ 77270;48,951106;2,600605;M;
;REMUSAT;COMM. DE DÉT. DE QUINCAILLERIE  PEINTURES ET VERRES EN PETITES SURF. - DE 400 M²;14 R DE REMUSAT 75016;48,848104;2,271072;M;
;CONFLUENCES ELECTRONICS;COMMERCE DE GROS (COMMERCE INTERENTREPRISES) D'APPAREILS ÉLECTROMÉNAGERS;27/29 R RAFFET 75016;48,851778;2,264769;M;
;FALITEC INTERNATIONAL;COMM. DE GROS (COMM. INTERENT.) D'ORDI.  D'ÉQUI. INFO. PÉRIPHÉRIQUES ET LOGI.;11 R DES TERNES 75017;48,881212;2,288482;M;
;RESAIR;COMMERCE DE GROS (COMMERCE INTERENTREPRISES) NON SPÉCIALISÉ;50 R RODIER 75009;48,879841;2,343649;M;
;RÉTRO-LÉGEND;COMMERCE DE VOITURES ET DE VÉHICULES AUTOMOBILES LÉGERS;8 R BOUCRY 75018;48,893833;2,362384;M;
;ALEXIA KLEIN PARIS;COMMERCE DE GROS (COMMERCE INTERENTREPRISES) D'HABILLEMENT ET DE CHAUSSURES;26 BD RASPAIL 75007;48,8534;2,3262;M;
;APRIL;COMMERCE DE DÉTAIL DE PARFUMERIE ET DE PRODUITS DE BEAUTÉ EN MAGASIN SPÉCIALISÉ;76/78 AV DES CHAMPS ELYSEES 75008;48,870916;2,304061;M;
;ASAV;AUTRES COMMERCES DE DÉTAIL EN MAGASIN NON SPÉCIALISÉ;41 AV HENRI BARBUSSE 92220;48,801198;2,314615;M;
;STEVE AUTO;COMMERCE D'AUTRES VÉHICULES AUTOMOBILES;1 ALL DU VAL DU MOULIN 93240;48,953998;2,390619;M;
;DURET - GILLOT;COMMERCE DE DÉTAIL DE VIANDES ET DE PRODUITS À BASE DE VIANDE EN MAG. SPÉCIALISÉ;56 R D'AUTEUIL 75016;48,848037;2,262325;M;
;EBUYREADY;COMMERCE DE GROS (COMMERCE INTERENTREPRISES) NON SPÉCIALISÉ;106 BD VICTOR HUGO 92110;48,901765;2,317787;M;
;SARL SADKI;COMM. DE DÉT. DE TEXTILES  D'HABIL. ET DE CHAUSSURES SUR ÉVENTAIRES ET MARCHÉS;108 R DE BAGNOLET 75020;48,859721;2,403376;M;
;SARL TAFATHE;COMMERCE DE GROS (COMMERCE INTERENTREPRISES) NON SPÉCIALISÉ;41 BD SERURIER 75019;48,878079;2,403449;M;
;JKM;COIFFURE;39 R SERVAN 75011;48,861407;2,382581;M;
;DAYMEN TEX;COMMERCE DE GROS (COMMERCE INTERENTREPRISES) D'HABILLEMENT ET DE CHAUSSURES;70 AV VICTOR HUGO 93300;48,905296;2,37442;M;
;KID'S CENTER;COMMERCE DE DÉTAIL DE BIENS D'OCCASION EN MAGASIN;13 CRS GAMBETTA 77120;48,814717;3,085037;M;
;DESTOCK-INFORMATIQUE;COMM. DE GROS (COMM. INTERENT.) D'ORDI.  D'ÉQUI. INFO. PÉRIPHÉRIQUES ET LOGI.;18 AV GALLE 93370;48,900959;2,582978;M;
;AUTOMOBILES BEAURIVAGE;COMMERCE DE VOITURES ET DE VÉHICULES AUTOMOBILES LÉGERS;112 AV KLEBER 75016;48,864234;2,287817;M;
;D@TAZ;COMM. DE DÉTAIL D'ORDINATEURS  D'UNITÉS PÉRIPH. ET DE LOGI. EN MAG. SPÉCIALISÉ;8 R FRANCOIS VILLON 75015;48,83852;2,299821;M;
;THE 8 SHAPE;COMMERCE DE DÉTAIL DE TEXTILES EN MAGASIN SPÉCIALISÉ;183 R LEGENDRE 75017;48,892195;2,326336;M;
;Mitsubishi Heavy Industries France;COMM. DE GROS (COMM. INTERENT.) DE FOURNITURES ET ÉQUIPEMENTS INDUSTRIELS DIVERS;3 AV HOCHE 75008;48,877607;2,304706;M;
;SAS Anda Luz;COMMERCE DE DÉTAIL DE LA CHAUSSURE;18 R TIPHAINE 75015;48,848894;2,296024;M;
;SECURITY FIRST;COMMERCE DE GROS (COMMERCE INTERENTREPRISES) DE MATÉRIEL ÉLECTRIQUE;58 AV DE WAGRAM 75017;48,879228;2,299241;M;
;E.M.A.V;COMMERCE DE DÉTAIL D'APPAREILS ÉLECTROMÉNAGERS EN MAGASIN SPÉCIALISÉ;46 PAS DU BUREAU 75011;48,853706;2,39392;M;
;ISMADAM;SUPERMARCHÉS;7 R DE VAUGIRARD 75006;48,848977;2,3399;M;
;MPPF MON PETIT POLO FRANCAIS;COMMERCE DE GROS (COMMERCE INTERENTREPRISES) DE TEXTILES;7 R DU GENERAL BERTRAND 75007;48,848353;2,313128;M;
;NC-PHILATELIE;AUTRES COMMERCES DE DÉTAIL SPÉCIALISÉS DIVERS;10 R DE MAUBEUGE 75009;48,876452;2,341278;M;
;GD REAUMUR;COMMERCE DE GROS (COMMERCE INTERENTREPRISES) D'HABILLEMENT ET DE CHAUSSURES;130 R REAUMUR 75002;48,868417;2,342942;M;
;GC DISTRIBUTIONS;COMMERCE DE GROS (COMMERCE INTERENTREPRISES) ALIMENTAIRE SPÉCIALISÉ DIVERS;3 R DE TEHERAN 75008;48,875573;2,312679;M;
;LES TERRASSES DE LA BUTTE CHAUMONT;BOULANGERIE ET BOULANGERIE-PÂTISSERIE;AV DU 1ER MAI 91120;48,710778;2,256926;M;
;GLOBAL STOCKS;COMMERCE DE GROS (COMMERCE INTERENTREPRISES) NON SPÉCIALISÉ;6 R DE SARCELLES 95410;48,98481;2,36306;M;
;FanjaMag;COMMERCE DE DÉTAIL D'HABILLEMENT EN MAGASIN SPÉCIALISÉ;12 PL EDOUARD VII 75009;48,871395;2,329195;M;
;Kawaii Compagny;COMM. DE GROS (COMM. INTERENT.) DE COMPOSANTS ET D'ÉQUI. ÉLECTRO. ET TÉLÉCOM.;8 R DE VARIZE 75016;48,841055;2,257813;M;
;KQ BOUCHERIE;COMMERCE DE DÉTAIL DE VIANDES ET DE PRODUITS À BASE DE VIANDE EN MAG. SPÉCIALISÉ;34 R PHILIPPE DE GIRARD 75010;48,884145;2,361656;M;
;GEO-RACE.COM;AUTRES COMMERCES DE DÉTAIL SPÉCIALISÉS DIVERS;7 AV PASTEUR 92400;48,901388;2,27097;M;
;FDC;AUTRES COMMERCES DE DÉTAIL SPÉCIALISÉS DIVERS;10 R DES FILLES DU CALVAIRE 75003;48,862421;2,365606;M;
;TEKCAR;COMMERCE DE GROS D'ÉQUIPEMENTS AUTOMOBILES;10 R DU COLISEE 75008;48,870547;2,307978;M;
;LCV;COMMERCE DE DÉTAIL DE MATÉRIELS DE TÉLÉCOMMUNICATION EN MAGASIN SPÉCIALISÉ;17 BD BOURDON 75004;48,848959;2,366192;M;
;E&C ANTICS;COMMERCE DE DÉTAIL DE BIENS D'OCCASION EN MAGASIN;137 BD MALESHERBES 75017;48,88367;2,308831;M;
;DAYMEN TEX;COMMERCE DE GROS (COMMERCE INTERENTREPRISES) D'HABILLEMENT ET DE CHAUSSURES;70 AV VICTOR HUGO 93300;48,905296;2,37442;M;
;FINANCE@IMPACT;AUTRES ENSEIGNEMENTS;15 R BUFFON 75005;48,842586;2,362025;M;
;GC DISTRIBUTIONS;COMMERCE DE GROS (COMMERCE INTERENTREPRISES) ALIMENTAIRE SPÉCIALISÉ DIVERS;3 R DE TEHERAN 75008;48,875573;2,312679;M;
;FINE FOODS SOLUTIONS;COMMERCE DE GROS (COMMERCE INTERENTREPRISES) ALIMENTAIRE NON SPÉCIALISÉ;56 R DE SEVRES 75007;48,848191;2,319917;M;
;LASA;COMMERCE DE DÉTAIL D'HABILLEMENT EN MAGASIN SPÉCIALISÉ;26 R DES SABLONS 77300;48,405483;2,699438;M;
;L'ATELIER M;COIFFURE;98 AV LEDRU ROLLIN 75011;48,851905;2,376665;M;
;GEORGES ET ROSALIE;COMMERCE DE DÉTAIL DE TEXTILES EN MAGASIN SPÉCIALISÉ;28 R GODEFROY CAVAIGNAC 75011;48,855681;2,380944;M;
;FASHION STRELITZIA by Sandra Biloé;COMMERCE DE DÉTAIL D'HABILLEMENT EN MAGASIN SPÉCIALISÉ;4 R BERNARD PALISSY 75006;48,853224;2,33207;M;
;Fatty Fish;COMMERCE DE GROS (COMMERCE INTERENTREPRISES) D'HABILLEMENT ET DE CHAUSSURES;5 R MAURICE LOEWY 75014;48,826979;2,33389;M;
;FRENCH HUB;COMM. DE GROS (COMM. INTERENT.) DE COMPOSANTS ET D'ÉQUI. ÉLECTRO. ET TÉLÉCOM.;55 BD LANNES 75016;48,865435;2,270837;M;
;SECURITY FIRST;COMMERCE DE GROS (COMMERCE INTERENTREPRISES) DE MATÉRIEL ÉLECTRIQUE;58 AV DE WAGRAM 75017;48,879228;2,299241;M;
;CONFLUENCES ELECTRONICS;COMMERCE DE GROS (COMMERCE INTERENTREPRISES) D'APPAREILS ÉLECTROMÉNAGERS;27/29 R RAFFET 75016;48,851778;2,264769;M;
;CONNEXION;COMM. DE GROS (COMM. INTERENT.) DE COMPOSANTS ET D'ÉQUI. ÉLECTRO. ET TÉLÉCOM.;99 R ORDENER 75018;48,891998;2,346664;M;
;CONSO;COMMERCE D'ALIMENTATION GÉNÉRALE;158 R LA FAYETTE 75010;48,8793;2,357389;M;
;SPORTS D'EPOQUE 2;COMMERCE DE GROS (COMMERCE INTERENTREPRISES) D'AUTRES BIENS DOMESTIQUES;30 AV CORENTIN CARIOU 75019;48,896786;2,384853;M;
;LAVANTINA;COMMERCE DE GROS (COMMERCE INTERENTREPRISES) D'HABILLEMENT ET DE CHAUSSURES;143 R D'ABOUKIR 75002;48,869324;2,352009;M;
;BFMT;COIFFURE;4 R LUCIEN SAMPAIX 75010;48,870834;2,359874;M;
;BISHOP KING & KNIGHT;CAFÉTÉRIAS ET AUTRES LIBRES-SERVICES;19 R DE CLERY 75002;48,868037;2,346193;M;
;MD CHEESES;AUTRES COMMERCES DE DÉTAIL ALIMENTAIRES EN MAGASIN SPÉCIALISÉ;1 R DU RETRAIT 75020;48,86765;2,396111;M;
;CRAZY RUNNERS SHOP;COMMERCE DE DÉTAIL DE TEXTILES EN MAGASIN SPÉCIALISÉ;67 AV DE SUFFREN 75007;48,851849;2,299807;M;
;CTC;COMM. DE DÉTAIL D'ORDINATEURS  D'UNITÉS PÉRIPH. ET DE LOGI. EN MAG. SPÉCIALISÉ;22 R DE LA MARE BLANCHE 77186;48,850087;2,625711;M;
;Coiffure 14;COIFFURE;93/95 AV DU GENERAL LECLERC 75014;48,826026;2,326399;M;
;DRANCY VIANDE;COMMERCE DE DÉTAIL DE VIANDES ET DE PRODUITS À BASE DE VIANDE EN MAG. SPÉCIALISÉ;150 AV HENRI BARBUSSE 93700;48,920683;2,453394;M;
;DRESSING STREET;COMMERCE DE DÉTAIL D'ARTICLES DE SPORT EN MAGASIN SPÉCIALISÉ;28 AV THIERS 77000;48,530697;2,655174;M;
;DRIVE YOUR CAR;COMMERCE DE VOITURES ET DE VÉHICULES AUTOMOBILES LÉGERS;76 R DE MENILMONTANT 75020;48,868779;2,390403;M;
;Sneakersnstuff;COMMERCE DE DÉTAIL D'HABILLEMENT EN MAGASIN SPÉCIALISÉ;95 R REAUMUR 75002;48,867574;2,345844;M;
;940093 PAM LAURENT & AUFFRANT ARIANE;COMM. DE GROS (COMM. INTERENT.) DE COMPOSANTS ET D'ÉQUI. ÉLECTRO. ET TÉLÉCOM.;23 R D'ANJOU 75008;48,870958;2,32143;M;
;MBF TRADING;COMM. DE GROS (COMM. INTERENT.) DE COMPOSANTS ET D'ÉQUI. ÉLECTRO. ET TÉLÉCOM.;7 PL DU 11 NOVEMBRE 1918 93000;48,909025;2,442236;M;
;CREP'YE;COMMERCE DE DÉTAIL ALIMENTAIRE SUR ÉVENTAIRES ET MARCHÉS;21 AV JEAN RACINE 92330;48,773745;2,309029;M;
;MT CASH;COMMERCE DE GROS (COMMERCE INTERENTREPRISES) D'AUTRES BIENS DOMESTIQUES;161 AV VICTOR HUGO 93300;48,911188;2,37914;M;
;DANA'BELLE;COIFFURE;29 AV GAMBETTA 78400;48,897053;2,163867;M;
;SIMA INTERNATIONAL;COMMERCE DE GROS (COMMERCE INTERENTREPRISES) NON SPÉCIALISÉ;1 ALL GAMBETTA 93250;48,892015;2,497627;M;
;THE FASHION LICENSE GROUP;COMMERCE DE DÉTAIL D'HABILLEMENT EN MAGASIN SPÉCIALISÉ;95 R DE PRONY 75017;48,884179;2,299518;M;
;SECURITY FIRST;COMMERCE DE GROS (COMMERCE INTERENTREPRISES) DE MATÉRIEL ÉLECTRIQUE;58 AV DE WAGRAM 75017;48,879228;2,299241;M;
;JOUL;COMMERCE DE GROS (COMMERCE INTERENTREPRISES) DE MATÉRIEL ÉLECTRIQUE;55 R DU FAUBOURG MONTMARTRE 75009;48,87537;2,340657;M;
;SECURITY FIRST;COMMERCE DE GROS (COMMERCE INTERENTREPRISES) DE MATÉRIEL ÉLECTRIQUE;58 AV DE WAGRAM 75017;48,879228;2,299241;M;
;SAS LUXURY STOCK;COMMERCE DE GROS (COMMERCE INTERENTREPRISES) NON SPÉCIALISÉ;37 BD PONIATOWSKI 75012;48,832827;2,399976;M;
;LESSOL;COMM. DE GROS (COMM. INTERENT.) D'APPAREILS SANITAIRES ET PROD. DE DÉCORATION;38 R DE BERRI 75008;48,873879;2,30699;M;
;DAYMEN TEX;COMMERCE DE GROS (COMMERCE INTERENTREPRISES) D'HABILLEMENT ET DE CHAUSSURES;70 AV VICTOR HUGO 93300;48,905296;2,37442;M;
;DICED;COIFFURE;9 R BREMONTIER 75017;48,884508;2,304018;M;
;LUCILIA;AUTRES COMMERCES DE DÉTAIL ALIMENTAIRES EN MAGASIN SPÉCIALISÉ;27 R DU GENERAL LECLERC 77450;48,902193;2,811966;M;
;MAISON MARTEAU;BOULANGERIE ET BOULANGERIE-PÂTISSERIE;5 CRS DU DANUBE 77700;48,85523;2,775466;M;
;CLICHY SUPERMARCHE;COMMERCE D'ALIMENTATION GÉNÉRALE;105 BD JEAN JAURES 92110;48,903963;2,302881;M;
;MBF TRADING;COMM. DE GROS (COMM. INTERENT.) DE COMPOSANTS ET D'ÉQUI. ÉLECTRO. ET TÉLÉCOM.;7 PL DU 11 NOVEMBRE 1918 93000;48,909025;2,442236;M;
;DISTRI AVENIR;SUPERMARCHÉS;88 BD DE MENILMONTANT 75020;48,864725;2,385808;M;
;DISTRI NAZARETH;COMMERCE D'ALIMENTATION GÉNÉRALE;43 R NOTRE DAME DE NAZARETH 75003;48,867527;2,357378;M;
;LABONNEAFFAIRE.COM;AUTRES COMMERCES DE DÉTAIL SUR ÉVENTAIRES ET MARCHÉS;18 PL DE FRANCE 95200;48,977411;2,376028;M;
;DON PARIS;COMMERCE DE DÉTAIL D'HABILLEMENT EN MAGASIN SPÉCIALISÉ;30 R NOLLET 75017;48,885948;2,323125;M;
;DPG CONSULTING;COMM. DE DÉT. DE QUINCAILLERIE  PEINTURES ET VERRES EN PETITES SURF. - DE 400 M²;27 IMP DE LA CARTELLERIE 91530;48,537663;2,085204;M;
;RUBY BEAUTE;COIFFURE;45 BD MORTIER 75020;48,867123;2,408613;M;
;SGO France;COMM. DE GROS (COMM. INTERENT.) D'ORDI.  D'ÉQUI. INFO. PÉRIPHÉRIQUES ET LOGI.;61 R MONSIEUR LE PRINCE 75006;48,848682;2,340605;M;
;SMCG;COIFFURE;72 R LEON FROT 75011;48,857218;2,385122;M;
;DYNAMIC MOTOS;COMMERCE ET RÉPARATION DE MOTOCYCLES;21 R TURGOT 75009;48,880792;2,34502;M;
;EKINOX;COMMERCE DE GROS (COMMERCE INTERENTREPRISES) D'AUTRES BIENS DOMESTIQUES;36 AV ALAIN PEYREFITTE 77160;48,563465;3,300235;M;
;COCCI MARKET;SUPÉRETTES;54 ALL DES BOIS 95220;49,015664;2,124961;M;
;BRAYN;AUTRES ENSEIGNEMENTS;7 PL DES SASSIERS 77200;48,852395;2,657518;M;
;940093 PAM LAURENT & AUFFRANT ARIANE;COMM. DE GROS (COMM. INTERENT.) DE COMPOSANTS ET D'ÉQUI. ÉLECTRO. ET TÉLÉCOM.;23 R D'ANJOU 75008;48,870958;2,32143;M;
;940093 PAM LAURENT & AUFFRANT ARIANE;COMM. DE GROS (COMM. INTERENT.) DE COMPOSANTS ET D'ÉQUI. ÉLECTRO. ET TÉLÉCOM.;23 R D'ANJOU 75008;48,870958;2,32143;M;
;940093 PAM LAURENT & AUFFRANT ARIANE;COMM. DE GROS (COMM. INTERENT.) DE COMPOSANTS ET D'ÉQUI. ÉLECTRO. ET TÉLÉCOM.;23 R D'ANJOU 75008;48,870958;2,32143;M;
;SARL ELEGANCE COIFFURE;COIFFURE;76 R DU CHATEAU D'EAU 75010;48,872721;2,35496;M;
;SAS DANIEL SELECTION;COMMERCE DE GROS (COMMERCE INTERENTREPRISES) DE TEXTILES;106 BD ARAGO 75014;48,834655;2,334004;M;
;DAYMEN TEX;COMMERCE DE GROS (COMMERCE INTERENTREPRISES) D'HABILLEMENT ET DE CHAUSSURES;70 AV VICTOR HUGO 93300;48,905296;2,37442;M;
;MLB AIX;COMMERCES DE DÉTAIL D'OPTIQUE;34 AV GABRIEL PERI 95100;48,944407;2,250818;M;
;VS9;COMMERCE DE GROS (COMMERCE INTERENTREPRISES) NON SPÉCIALISÉ;45 AV VICTOR HUGO 93300;48,90352;2,37198;M;
;MBF TRADING;COMM. DE GROS (COMM. INTERENT.) DE COMPOSANTS ET D'ÉQUI. ÉLECTRO. ET TÉLÉCOM.;7 PL DU 11 NOVEMBRE 1918 93000;48,909025;2,442236;M;
;CIE INTERNATIONAL;COMMERCE DE GROS (COMMERCE INTERENTREPRISES) NON SPÉCIALISÉ;37 BD JEAN ALLEMANE 95100;48,951238;2,253168;M;
;CHAPELLE VIANDES;COMMERCE DE DÉTAIL DE VIANDES ET DE PRODUITS À BASE DE VIANDE EN MAG. SPÉCIALISÉ;58 R MARX DORMOY 75018;48,888462;2,36006;M;
;SECURITY FIRST;COMMERCE DE GROS (COMMERCE INTERENTREPRISES) DE MATÉRIEL ÉLECTRIQUE;58 AV DE WAGRAM 75017;48,879228;2,299241;M;
;LE CAFE CURIEUX;COMMERCE DE DÉTAIL DE BIENS D'OCCASION EN MAGASIN;3 R SCIPION 75005;48,837923;2,35403;M;
;LE CHAMP D'ELISE;COMM. DE GROS (COMM. INTERENTREPRISES) D'ARTICLES D'HORLOGERIE  DE BIJOUTERIE;13 BD DE LA VILLETTE 75010;48,872844;2,375757;M;
;N.K.G. ALIMENTATION;COMMERCE D'ALIMENTATION GÉNÉRALE;30 R LANTIEZ 75017;48,895032;2,323967;M;
;LEMA DISTRIB;SUPERMARCHÉS;11 AV PARMENTIER 75011;48,859675;2,378859;M;
;YABALI;COMMERCE DE DÉTAIL DE FRUITS ET LÉGUMES EN MAGASIN SPÉCIALISÉ;14 R DES GONCOURT 75011;48,869916;2,371853;M;
;TEKCAR;COMMERCE DE GROS D'ÉQUIPEMENTS AUTOMOBILES;10 R DU COLISEE 75008;48,870547;2,307978;M;
;BIGO;COMMERCE DE DÉTAIL D'AUTRES ÉQUIPEMENTS DU FOYER;40 BD BARBES 75018;48,886806;2,349784;M;
;ROSEBUD BOURGOGNE;COMM. DE DÉT. FLEURS PLANTES GRAINES ENGR. ANI. DE COMP.  ALI. ANI. EN MAG. SPÉC;4 PL DE L'ODEON 75006;48,84991;2,338455;M;
;RYAN SHOES.DDM;COMMERCE DE DÉTAIL DE LA CHAUSSURE;6 R MESLAY 75003;48,867386;2,362213;M;
;SARL AERUN;COMMERCE D'ALIMENTATION GÉNÉRALE;173 R LEGENDRE 75017;48,891626;2,325732;M;
;SARL AL MADINA II;COMMERCE DE DÉTAIL DE VIANDES ET DE PRODUITS À BASE DE VIANDE EN MAG. SPÉCIALISÉ;122 BD MURAT 75016;48,837289;2,258275;M;
;SARL BELTZ;COMMERCE DE GROS (COMMERCE INTERENTREPRISES) DE TEXTILES;72 AV DE WAGRAM 75017;48,880055;2,299844;M;
;LES FLEURS DE SHAYAAN;COMM. DE DÉT. FLEURS PLANTES GRAINES ENGR. ANI. DE COMP.  ALI. ANI. EN MAG. SPÉC;15 PL NOTRE DAME 95300;49,049018;2,092352;M;
;AMIR RATES SPORTS;COMMERCE DE DÉTAIL D'ARTICLES DE SPORT EN MAGASIN SPÉCIALISÉ;65 R DES ENTREPRENEURS 75015;48,845061;2,289511;M;
;DAYMEN TEX;COMMERCE DE GROS (COMMERCE INTERENTREPRISES) D'HABILLEMENT ET DE CHAUSSURES;70 AV VICTOR HUGO 93300;48,905296;2,37442;M;
;VS9;COMMERCE DE GROS (COMMERCE INTERENTREPRISES) NON SPÉCIALISÉ;45 AV VICTOR HUGO 93300;48,90352;2,37198;M;
;MADEEHA;COMMERCE DE DÉTAIL DE PARFUMERIE ET DE PRODUITS DE BEAUTÉ EN MAGASIN SPÉCIALISÉ;34 R POULET 75018;48,88791;2,350905;M;
;SASU CMMS CHICORY MAME MAREMA SEYE;COMMERCE DE GROS (COMMERCE INTERENTREPRISES) NON SPÉCIALISÉ;10 R TURGOT 77500;48,89633;2,617322;M;
;LUCILIA;AUTRES COMMERCES DE DÉTAIL ALIMENTAIRES EN MAGASIN SPÉCIALISÉ;27 R DU GENERAL LECLERC 77450;48,902193;2,811966;M;
;SARL GNANAM EXOTIQUE;COMMERCE D'ALIMENTATION GÉNÉRALE;44 BD PASTEUR 93120;48,922893;2,383949;M;
;AS FINE ARTS;COMM. DE GROS (COMM. INTERENT.) DE MEUBLES  DE TAPIS   D'APPAREILS D'ÉCLAIRAGE;5 R DE SAINTONGE 75003;48,861056;2,361529;M;
;BUROLIA;COMMERCE DE DÉTAIL D'AUTRES ÉQUIPEMENTS DU FOYER;11 R MAISON DIEU 75014;48,835598;2,322754;M;
;SAYMON L'ART DE LA LITERIE;COMM. DE GROS (COMM. INTERENT.) DE MEUBLES  DE TAPIS   D'APPAREILS D'ÉCLAIRAGE;9 ALL JULIAN GRIMAU 95340;49,150802;2,274269;M;
;SAZ;AUTRES COMMERCES DE DÉTAIL EN MAGASIN NON SPÉCIALISÉ;151 R D'ALESIA 75014;48,830202;2,319831;M;
;SENSOO S.A.S;COMMERCE DE GROS (COMMERCE INTERENTREPRISES) D'AUTRES BIENS DOMESTIQUES;22 R DES BONS ENFANTS 75001;48,86357;2,338695;M;
;SHOWROOM 115;COMMERCE DE DÉTAIL D'HABILLEMENT EN MAGASIN SPÉCIALISÉ;115 R DU THEATRE 75015;48,846132;2,295507;M;
;TECHPHONE TRADE;COMMERCE DE DÉTAIL DE MATÉRIELS DE TÉLÉCOMMUNICATION EN MAGASIN SPÉCIALISÉ;8 ALL DE LA PLAINE 77700;48,849185;2,78774;M;
;The Learning Person;AUTRES ENSEIGNEMENTS;16 AV DU GENERAL LECLERC 75014;48,832535;2,330657;M;
;TREND HOME;COMMERCE DE GROS (COMMERCE INTERENTREPRISES) D'AUTRES BIENS DOMESTIQUES;11 ALL DES EIDERS 75019;48,894185;2,379036;M;
;GC DISTRIBUTIONS;COMMERCE DE GROS (COMMERCE INTERENTREPRISES) ALIMENTAIRE SPÉCIALISÉ DIVERS;3 R DE TEHERAN 75008;48,875573;2,312679;M;
;VS9;COMMERCE DE GROS (COMMERCE INTERENTREPRISES) NON SPÉCIALISÉ;45 AV VICTOR HUGO 93300;48,90352;2,37198;M;
;FTCI;COMMERCE DE GROS (COMMERCE INTERENTREPRISES) NON SPÉCIALISÉ;194 AV JEAN JAURES 75019;48,888193;2,39148;M;
;JL STOCK;COMMERCE DE DÉTAIL D'HABILLEMENT EN MAGASIN SPÉCIALISÉ;2 SQ CLAUDE DEBUSSY 75017;48,884273;2,313957;M;
;KEKAMA;COIFFURE;49 R DU CHATEAU D'EAU 75010;48,871985;2,356432;M;
;SECURITY FIRST;COMMERCE DE GROS (COMMERCE INTERENTREPRISES) DE MATÉRIEL ÉLECTRIQUE;58 AV DE WAGRAM 75017;48,879228;2,299241;M;
;J2MN;COMMERCE DE DÉTAIL DE LA CHAUSSURE;16 R DE VEZELAY 75008;48,878645;2,313912;M;
;TEKCAR;COMMERCE DE GROS D'ÉQUIPEMENTS AUTOMOBILES;10 R DU COLISEE 75008;48,870547;2,307978;M;
;VIKNES TELECOM;COMMERCE D'ALIMENTATION GÉNÉRALE;92 R DE BELLEVILLE 75020;48,873789;2,385231;M;
;VINHOS VSV;COMMERCE DE GROS (COMMERCE INTERENTREPRISES) DE BOISSONS;4 SQ DE MAUBEUGE 75009;48,878364;2,346268;M;
;ANNE VITCHEN FLORAL DESIGN;COMM. DE DÉT. FLEURS PLANTES GRAINES ENGR. ANI. DE COMP.  ALI. ANI. EN MAG. SPÉC;159 R DE ROME 75017;48,886911;2,314875;M;
;CUISINE CHAVILLOISE;COMMERCE DE DÉTAIL DE BIENS D'OCCASION EN MAGASIN;800 AV ROGER SALENGRO 92370;48,814164;2,192685;M;
;SAS CINQ CIDRES;COMMERCE DE GROS (COMMERCE INTERENTREPRISES) ALIMENTAIRE NON SPÉCIALISÉ;15 R DE LA COMETE 75007;48,858884;2,309166;M;
;DAYMEN TEX;COMMERCE DE GROS (COMMERCE INTERENTREPRISES) D'HABILLEMENT ET DE CHAUSSURES;70 AV VICTOR HUGO 93300;48,905296;2,37442;M;
;DAYMEN TEX;COMMERCE DE GROS (COMMERCE INTERENTREPRISES) D'HABILLEMENT ET DE CHAUSSURES;70 AV VICTOR HUGO 93300;48,905296;2,37442;M;
;940093 PAM LAURENT & AUFFRANT ARIANE;COMM. DE GROS (COMM. INTERENT.) DE COMPOSANTS ET D'ÉQUI. ÉLECTRO. ET TÉLÉCOM.;23 R D'ANJOU 75008;48,870958;2,32143;M;
;940093 PAM LAURENT & AUFFRANT ARIANE;COMM. DE GROS (COMM. INTERENT.) DE COMPOSANTS ET D'ÉQUI. ÉLECTRO. ET TÉLÉCOM.;23 R D'ANJOU 75008;48,870958;2,32143;M;
;LE BOUDOIR;COMMERCE DE DÉTAIL DE BIENS D'OCCASION EN MAGASIN;51 R DU FAUBOURG POISSONNIERE 75009;48,874459;2,347887;M;
;LE COMPTOIR DES GOURMETS;COMMERCE DE DÉTAIL DE VIANDES ET DE PRODUITS À BASE DE VIANDE EN MAG. SPÉCIALISÉ;17 R ERNEST DESSAINT 77120;48,813839;3,085149;M;
;SweetNess & Cook;COMMERCE DE DÉTAIL DE PAIN  PÂTISSERIE ET CONFISERIE EN MAGASIN SPÉCIALISÉ;12 R AUGUSTE CHABRIERES 75015;48,835257;2,288835;M;
;DIAG BIOPROCESS;COMMERCE DE GROS (COMMERCE INTERENTREPRISES) NON SPÉCIALISÉ;107 BD CHARLES DE GAULLE 92700;48,913416;2,229942;M;
;DAYMEN TEX;COMMERCE DE GROS (COMMERCE INTERENTREPRISES) D'HABILLEMENT ET DE CHAUSSURES;70 AV VICTOR HUGO 93300;48,905296;2,37442;M;
;ISMAIL;COMMERCE DE GROS (COMMERCE INTERENTREPRISES) DE PRODUITS SURGELÉS;28 PL GEORGES GUYNEMER 95200;48,980414;2,371174;M;
;PLANET MEUBLES;COMM. DE GROS (COMM. INTERENT.) DE MEUBLES  DE TAPIS   D'APPAREILS D'ÉCLAIRAGE;1 R DU 8 MAI 1945 95110;48,968277;2,255176;M;
;PLM OPTIC;COMMERCES DE DÉTAIL D'OPTIQUE;11 R D'ARGENSON 75008;48,874859;2,316588;M;
;NAVA SAS;COMMERCE DE GROS (COMMERCE INTERENTREPRISES) D'HABILLEMENT ET DE CHAUSSURES;184 R DE BELLEVILLE 75020;48,875265;2,393261;M;
;DAYMEN TEX;COMMERCE DE GROS (COMMERCE INTERENTREPRISES) D'HABILLEMENT ET DE CHAUSSURES;70 AV VICTOR HUGO 93300;48,905296;2,37442;M;
;SARL SADKI;COMM. DE DÉT. DE TEXTILES  D'HABIL. ET DE CHAUSSURES SUR ÉVENTAIRES ET MARCHÉS;108 R DE BAGNOLET 75020;48,859721;2,403376;M;
;SMART TECHNOLOGY;COMM. DE DÉTAIL D'ORDINATEURS  D'UNITÉS PÉRIPH. ET DE LOGI. EN MAG. SPÉCIALISÉ;60 R DES MOINES 75017;48,890537;2,321093;M;
;SECURITY FIRST;COMMERCE DE GROS (COMMERCE INTERENTREPRISES) DE MATÉRIEL ÉLECTRIQUE;58 AV DE WAGRAM 75017;48,879228;2,299241;M;
;LAINOH-EXPORT;COMMERCE DE GROS (COMMERCE INTERENTREPRISES) NON SPÉCIALISÉ;66 R JOUFFROY D'ABBANS 75017;48,88456;2,305865;M;
;M.B.R. Turbigo;COMMERCES DE DÉTAIL D'OPTIQUE;89 R DE TURBIGO 75003;48,866814;2,361487;M;
;MCA EXPRESS;COMMERCE DE DÉTAIL DE FRUITS ET LÉGUMES EN MAGASIN SPÉCIALISÉ;11 R FAIDHERBE 75011;48,851445;2,383699;M;
;EPICERIE LARIBOISIERE;COMMERCE D'ALIMENTATION GÉNÉRALE;11 R AMBROISE PARE 75010;48,881905;2,352036;M;
;TITIS BY ALICE;COMM. DE DÉT. DE TEXTILES  D'HABIL. ET DE CHAUSSURES SUR ÉVENTAIRES ET MARCHÉS;10 R DE PONT A MOUSSON 75017;48,898493;2,324072;M;
;PLM OPTIC;COMMERCES DE DÉTAIL D'OPTIQUE;11 R D'ARGENSON 75008;48,874859;2,316588;M;
;BOUCHERIE DU MARCHE;COMMERCE DE DÉTAIL DE VIANDES ET DE PRODUITS À BASE DE VIANDE EN MAG. SPÉCIALISÉ;72 BD MORTIER 75020;48,868881;2,409254;M;
;OPERATION SCOOTERS;COMMERCE ET RÉPARATION DE MOTOCYCLES;116 R DU CHEMIN VERT 75011;48,861825;2,383547;M;
;DAYMEN TEX;COMMERCE DE GROS (COMMERCE INTERENTREPRISES) D'HABILLEMENT ET DE CHAUSSURES;70 AV VICTOR HUGO 93300;48,905296;2,37442;M;
;SECURITY FIRST;COMMERCE DE GROS (COMMERCE INTERENTREPRISES) DE MATÉRIEL ÉLECTRIQUE;58 AV DE WAGRAM 75017;48,879228;2,299241;M;
;DISTRICOURBE;SUPERMARCHÉS;45 R LECOURBE 75015;48,843843;2,30721;M;
;DIVA STELLA;COMM. DE DÉT. D'ARTICLES D'HORLOGERIE ET DE BIJOUTERIE EN MAGASIN SPÉCIALISÉ;14 R DU DOBROPOL 75017;48,883404;2,285754;M;
;DIZIER AUTOMOBILES;COMMERCE DE VOITURES ET DE VÉHICULES AUTOMOBILES LÉGERS;19 R FARADAY 75017;48,882296;2,293696;M;
;D&M OUTLET;COMMERCE DE DÉTAIL D'HABILLEMENT EN MAGASIN SPÉCIALISÉ;28 BD POISSONNIERE 75009;48,871448;2,34437;M;
;WEB AUTO STORE;COMMERCE DE VOITURES ET DE VÉHICULES AUTOMOBILES LÉGERS;26 R DE LA CHAPELLE 75018;48,892004;2,359798;M;
;P.R. France SARL;COMMERCE DE DÉTAIL D'HABILLEMENT EN MAGASIN SPÉCIALISÉ;18 R JEAN MERMOZ 75008;48,870787;2,311578;M;
;SPORTS D'EPOQUE 2;COMMERCE DE GROS (COMMERCE INTERENTREPRISES) D'AUTRES BIENS DOMESTIQUES;30 AV CORENTIN CARIOU 75019;48,896786;2,384853;M;
;SARL KAZEMI;AUTRES COMMERCES DE DÉTAIL ALIMENTAIRES EN MAGASIN SPÉCIALISÉ;35 AV THEOPHILE GAUTIER 75016;48,849713;2,271967;M;
;LEVANT&CO PARIS;COMMERCE DE GROS (COMMERCE INTERENTREPRISES) ALIMENTAIRE NON SPÉCIALISÉ;14 R PASCAL 75005;48,838378;2,349493;M;
;DOOS;COMMERCE DE GROS (COMMERCE INTERENTREPRISES) NON SPÉCIALISÉ;6 CITE BEAUHARNAIS 75011;48,853544;2,389412;M;
;D'ORSAY INTERNATIONAL;COMM. DE GROS (COMM. INTERENTREPRISES) DE PARFUMERIE ET DE PRODUITS DE BEAUTÉ;55 AV MONTAIGNE 75008;48,868201;2,308169;M;
;LA JONQUIERE;COMMERCE D'ALIMENTATION GÉNÉRALE;12 R DE LA JONQUIERE 75017;48,893361;2,326243;M;
;LA PLACE AUX STOCKS;COMMERCE DE GROS (COMMERCE INTERENTREPRISES) NON SPÉCIALISÉ;164 RTE DE VILLEMOMBLE 93140;48,891396;2,490387;M;
;LIBELLULE SAS;AUTRES COMMERCES DE DÉTAIL ALIMENTAIRES EN MAGASIN SPÉCIALISÉ;4 PL DU GENERAL BEURET 75015;48,841901;2,302876;M;
;LESSOL;COMM. DE GROS (COMM. INTERENT.) D'APPAREILS SANITAIRES ET PROD. DE DÉCORATION;38 R DE BERRI 75008;48,873879;2,30699;M;
;COSMETIQUE 46;COMMERCE DE DÉTAIL DE PARFUMERIE ET DE PRODUITS DE BEAUTÉ EN MAGASIN SPÉCIALISÉ;46 BD DE STRASBOURG 75010;48,872864;2,356473;M;
;COUP DE POUCE A DOM;AUTRES ENSEIGNEMENTS;10 R PERGOLESE 75016;48,875589;2,285447;M;
;JCM & Co;AUTRES ENSEIGNEMENTS;28 SEN DES VAUX DE ROME 94800;48,789702;2,373633;M;
;JJDC EXPORT;COMMERCE DE GROS (COMMERCE INTERENTREPRISES) NON SPÉCIALISÉ;9 R DU PONCELET 77700;48,84778;2,781228;M;
;JLDS;COIFFURE;25 AV EDOUARD VAILLANT 92150;48,863206;2,21081;M;
;KEAL PROVINS;COMMERCE DE DÉTAIL D'HABILLEMENT EN MAGASIN SPÉCIALISÉ;24 RTE DE CHAMPBENOIST 77160;48,553634;3,299203;M;
;KEMIT;COIFFURE;51 AV PAUL VAILLANT COUTURIER 93120;48,92092;2,409349;M;
;LAINOH-EXPORT;COMMERCE DE GROS (COMMERCE INTERENTREPRISES) NON SPÉCIALISÉ;66 R JOUFFROY D'ABBANS 75017;48,88456;2,305865;M;
;ORIENTAL COIFF;COIFFURE;20 PL DU GRAND MARTROY 95300;49,051371;2,097284;M;
;LOUCKA;SUPERMARCHÉS;110 AV DE LYON 77140;48,253359;2,701775;M;
;LUMA;COMMERCE DE DÉTAIL DE MATÉRIELS DE TÉLÉCOMMUNICATION EN MAGASIN SPÉCIALISÉ;16 R VOLTAIRE 75011;48,852557;2,391768;M;
;MAISON DES GOURMETS;BOULANGERIE ET BOULANGERIE-PÂTISSERIE;335 R DE BELLEVILLE 75019;48,876734;2,404817;M;
;LEADPUBLIC;COMMERCE DE DÉTAIL D'ARTICLES DE SPORT EN MAGASIN SPÉCIALISÉ;1 R DU DELTA 75009;48,882338;2,349506;M;
;GD REAUMUR;COMMERCE DE GROS (COMMERCE INTERENTREPRISES) D'HABILLEMENT ET DE CHAUSSURES;130 R REAUMUR 75002;48,868417;2,342942;M;
;LA BOITE A BONBECS;COMMERCE DE GROS (COMMERCE INTERENTREPRISES) DE SUCRE  CHOCOLAT ET CONFISERIE;16 R THEODULE RIBOT 75017;48,880052;2,300333;M;
;LA FINE EQUIPE;AUTRES COMMERCES DE DÉTAIL EN MAGASIN NON SPÉCIALISÉ;12 R JUGE 75015;48,849999;2,292507;M;
;LA PYRAMIDE TEL;COMMERCE DE DÉTAIL DE MATÉRIELS DE TÉLÉCOMMUNICATION EN MAGASIN SPÉCIALISÉ;112 BD DE LA CHAPELLE 75018;48,884037;2,350875;M;
;OZENBIOTEC;COMMERCE DE GROS (COMMERCE INTERENTREPRISES) ALIMENTAIRE NON SPÉCIALISÉ;47 R DE TURENNE 75003;48,857878;2,364359;M;
;MCSCONNECT;COMM. DE DÉTAIL D'ORDINATEURS  D'UNITÉS PÉRIPH. ET DE LOGI. EN MAG. SPÉCIALISÉ;101 BD BESSIERES 75017;48,895818;2,31754;M;
;PACIFIC RUBER WORKS - FRANCE;COMMERCE DE GROS (COMMERCE INTERENTREPRISES) DE PRODUITS CHIMIQUES;61 AV DE VAUCRESSON 78150;48,823242;2,139083;M;
;L'ECHEVELUE;COIFFURE;10 PL D'ALIGRE 75012;48,848518;2,37823;M;
;SPORTS EN APARTE;COMMERCE DE DÉTAIL D'ARTICLES DE SPORT EN MAGASIN SPÉCIALISÉ;37 R D'AMSTERDAM 75008;48,878952;2,32689;M;
;ODEON;COMMERCE DE DÉTAIL D'HABILLEMENT EN MAGASIN SPÉCIALISÉ;10 BD DE BONNE NOUVELLE 75010;48,870023;2,351914;M;
;DAYMEN TEX;COMMERCE DE GROS (COMMERCE INTERENTREPRISES) D'HABILLEMENT ET DE CHAUSSURES;70 AV VICTOR HUGO 93300;48,905296;2,37442;M;
;L.O CONCEPT;COMMERCE DE GROS (COMMERCE INTERENTREPRISES) NON SPÉCIALISÉ;111 AV VICTOR HUGO 93300;48,906989;2,375985;M;
;GLOBAL STOCKS;COMMERCE DE GROS (COMMERCE INTERENTREPRISES) NON SPÉCIALISÉ;6 R DE SARCELLES 95410;48,98481;2,36306;M;
;GREETIT;COMM. DE DÉTAIL D'ORDINATEURS  D'UNITÉS PÉRIPH. ET DE LOGI. EN MAG. SPÉCIALISÉ;33 R DE L'ECHAUDE 75006;48,853239;2,335519;M;
;RETAIL SOURCING CONSULTING PARIS;AUTRES COMMERCES DE DÉTAIL SPÉCIALISÉS DIVERS;71 QU PANHARD ET LEVASSOR 75013;48,830763;2,38127;M;
;REVELA;COIFFURE;61 AV ARISTIDE BRIAND 91420;48,699884;2,325846;M;
;QUING;COMMERCE DE GROS (COMMERCE INTERENTREPRISES) D'HABILLEMENT ET DE CHAUSSURES;26 R BREGUET 75011;48,857747;2,374218;M;
;Elite Services;COMM. DE GROS (COMM. INTERENT.) DE FOURN. ET ÉQUI. DIV. POUR LE COMM. ET SERV.;34 AV DE STALINGRAD 93170;48,874711;2,427424;M;
;GEAR ELEVEN CLASSIC CARS;COMMERCE DE VOITURES ET DE VÉHICULES AUTOMOBILES LÉGERS;16 R GASTON DE CAILLAVET 75015;48,849216;2,284174;M;
;LA SIGNATURE;COMMERCE DE GROS (COMMERCE INTERENTREPRISES) NON SPÉCIALISÉ;80 R DE MENILMONTANT 75020;48,868964;2,390852;M;
;HELIA CONCEPT;COMMERCE DE DÉTAIL D'HABILLEMENT EN MAGASIN SPÉCIALISÉ;235 R DE LA CONVENTION 75015;48,835798;2,301779;M;
;LESSOL;COMM. DE GROS (COMM. INTERENT.) D'APPAREILS SANITAIRES ET PROD. DE DÉCORATION;38 R DE BERRI 75008;48,873879;2,30699;M;
;HELLO AFRICA;COMM. DE GROS (COMM. INTERENT.) D'ORDI.  D'ÉQUI. INFO. PÉRIPHÉRIQUES ET LOGI.;35 BD DE LA CHAPELLE 75010;48,884297;2,359346;M;
;PASS ENR;COMM. DE GROS (COMM. INTERENT.) DE FOURNITURES ET ÉQUIPEMENTS INDUSTRIELS DIVERS;22 R PIERRE MENDES FRANCE 77200;48,838224;2,653993;M;
;PRIMEUR 18;COMMERCE DE DÉTAIL DE FRUITS ET LÉGUMES EN MAGASIN SPÉCIALISÉ;131 R RAYMOND LOSSERAND 75014;48,83205;2,314746;M;
;ISHU;COMMERCE DE DÉTAIL DE MATÉRIELS DE TÉLÉCOMMUNICATION EN MAGASIN SPÉCIALISÉ;25 R PERDONNET 75010;48,884208;2,361553;M;
;LA YUMMY FACTORY;AUTRES COMMERCES DE DÉTAIL ALIMENTAIRES EN MAGASIN SPÉCIALISÉ;12 R SINGER 75016;48,855614;2,278729;M;
;CRAZY RUNNERS SHOP;COMMERCE DE DÉTAIL DE TEXTILES EN MAGASIN SPÉCIALISÉ;67 AV DE SUFFREN 75007;48,851849;2,299807;M;
;THANH TUNG;COMMERCE DE DÉTAIL DE BIENS D'OCCASION EN MAGASIN;3 R NEUVE POPINCOURT 75011;48,864685;2,373982;M;
;TN SERVICES +;COMMERCE DE VOITURES ET DE VÉHICULES AUTOMOBILES LÉGERS;23 R WASHINGTON 75008;48,873275;2,303088;M;
;RENZE;COMMERCE DE GROS (COMMERCE INTERENTREPRISES) D'HABILLEMENT ET DE CHAUSSURES;10 R ERNEST LEFEVRE 75020;48,869231;2,40309;M;
;PREMIUM PROTECT;COMMERCE DE GROS (COMMERCE INTERENTREPRISES) D'HABILLEMENT ET DE CHAUSSURES;104 BD DE MAGENTA 75010;48,877933;2,354829;M;
;Pureté & Bien-être;COMMERCE D'ALIMENTATION GÉNÉRALE;116 R JEAN DE LA FONTAINE 75016;48,848625;2,265282;M;
;LE VERGER ETOILE;COMMERCE DE GROS (COMMERCE INTERENTREPRISES) DE FRUITS ET LÉGUMES;149 AV DU MAINE 75014;48,83385;2,324674;M;
;Promotion Joaillerie de Paris - PJP;COMM. DE GROS (COMM. INTERENTREPRISES) D'ARTICLES D'HORLOGERIE  DE BIJOUTERIE;1 R DUBAN 75016;48,856401;2,277747;M;
;JARDIN DE LA CONVENTION;COMMERCE DE DÉTAIL DE FRUITS ET LÉGUMES EN MAGASIN SPÉCIALISÉ;244 R DE LA CONVENTION 75015;48,835735;2,301245;M;
;LASKO;AUTRES COMMERCES DE DÉTAIL SPÉCIALISÉS DIVERS;282 R LECOURBE 75015;48,838313;2,288096;M;
;LAUGIER AUTOMOBILES;COMMERCE DE VOITURES ET DE VÉHICULES AUTOMOBILES LÉGERS;1 RLE DU TIR 78150;48,837305;2,110977;M;
;SARL SADKI;COMM. DE DÉT. DE TEXTILES  D'HABIL. ET DE CHAUSSURES SUR ÉVENTAIRES ET MARCHÉS;108 R DE BAGNOLET 75020;48,859721;2,403376;M;
;V.DIS;COMMERCE DE GROS (COMMERCE INTERENTREPRISES) ALIMENTAIRE NON SPÉCIALISÉ;169 AV JEAN JAURES 75019;48,887552;2,387782;M;
;LE VERGER ETOILE;COMMERCE DE GROS (COMMERCE INTERENTREPRISES) DE FRUITS ET LÉGUMES;149 AV DU MAINE 75014;48,83385;2,324674;M;
;VITAMAX;AUTRES COMMERCES DE DÉTAIL ALIMENTAIRES EN MAGASIN SPÉCIALISÉ;12 R FLATTERS 75005;48,8381;2,346277;M;
;SPORTS EN APARTE;COMMERCE DE DÉTAIL D'ARTICLES DE SPORT EN MAGASIN SPÉCIALISÉ;37 R D'AMSTERDAM 75008;48,878952;2,32689;M;
;LE VIN PARFAIT;COMMERCE DE DÉTAIL DE BOISSONS EN MAGASIN SPÉCIALISÉ;29 R JOUFFROY D'ABBANS 75017;48,885834;2,309485;M;
;GO SERVICES;AUTRES COMMERCES DE DÉTAIL ALIMENTAIRES EN MAGASIN SPÉCIALISÉ;17 AV DE LA REPUBLIQUE 75011;48,866228;2,370255;M;
;TEKCAR;COMMERCE DE GROS D'ÉQUIPEMENTS AUTOMOBILES;10 R DU COLISEE 75008;48,870547;2,307978;M;
;Le Bar à Vape;AUTRES COMMERCES DE DÉTAIL SPÉCIALISÉS DIVERS;4 R DES WALLONS 75013;48,839073;2,360658;M;
;APRIL;COMMERCE DE DÉTAIL DE PARFUMERIE ET DE PRODUITS DE BEAUTÉ EN MAGASIN SPÉCIALISÉ;76/78 AV DES CHAMPS ELYSEES 75008;48,870916;2,304061;M;
;STAR AFRO HAIR;COMMERCE DE DÉTAIL DE PARFUMERIE ET DE PRODUITS DE BEAUTÉ EN MAGASIN SPÉCIALISÉ;94 R MYRHA 75018;48,886394;2,348218;M;
;DESTOCK SCOOTER;COMMERCE ET RÉPARATION DE MOTOCYCLES;32 R DE PARADIS 75011;48,875288;2,351543;M;
;KOUTCHI;COMMERCE DE DÉTAIL DE BIENS D'OCCASION EN MAGASIN;14 R DE FOURCY 75004;48,855111;2,359465;M;
;L.O CONCEPT;COMMERCE DE GROS (COMMERCE INTERENTREPRISES) NON SPÉCIALISÉ;111 AV VICTOR HUGO 93300;48,906989;2,375985;M;
;La Librairie Culinaire Ephémère;COMMERCE DE DÉTAIL DE LIVRES EN MAGASIN SPÉCIALISÉ;59 R PASCAL 75013;48,834924;2,34808;M;
;LES GUEULES DE LOU;COIFFURE;4 R MELINGUE 75019;48,874758;2,386144;M;
;L'EMOI DES MOTS;COMMERCE DE DÉTAIL DE LIVRES EN MAGASIN SPÉCIALISÉ;25 R DESCARTES 75005;48,84604;2,349189;M;
;TEKCAR;COMMERCE DE GROS D'ÉQUIPEMENTS AUTOMOBILES;10 R DU COLISEE 75008;48,870547;2,307978;M;
;PARIS KIN MULTISERVICES;COMMERCE DE GROS (COMMERCE INTERENTREPRISES) NON SPÉCIALISÉ;20 R LEON 75018;48,887913;2,35359;M;
;PERFECT-COURS;AUTRES ENSEIGNEMENTS;18 VLA FLEURY 93140;48,904651;2,478379;M;
;METROBRAND;COMMERCE DE GROS (COMMERCE INTERENTREPRISES) NON SPÉCIALISÉ;14 R MOREAU 75012;48,849722;2,372669;M;
;M.L.G;COMMERCE DE GROS (COMMERCE INTERENTREPRISES) D'HABILLEMENT ET DE CHAUSSURES;8 R LITTRE 75006;48,845428;2,323865;M;
;RAF 26;COMMERCE DE GROS (COMMERCE INTERENTREPRISES) ALIMENTAIRE NON SPÉCIALISÉ;15 AV SIMON BOLIVAR 75019;48,87439;2,383286;M;
;INSOLITES COLLECTION;COMMERCE DE GROS (COMMERCE INTERENTREPRISES) NON SPÉCIALISÉ;60 R NOTRE DAME DE NAZARETH 75003;48,867683;2,357107;M;
;LAMA;COMM. DE GROS (COMM. INTERENTREPRISES) DE PARFUMERIE ET DE PRODUITS DE BEAUTÉ;146 BD DIDEROT 75012;48,847566;2,390071;M;
;HANA;COMMERCE DE GROS (COMMERCE INTERENTREPRISES) DE TEXTILES;47 R MESLAY 75003;48,868092;2,357876;M;
;GC DISTRIBUTIONS;COMMERCE DE GROS (COMMERCE INTERENTREPRISES) ALIMENTAIRE SPÉCIALISÉ DIVERS;3 R DE TEHERAN 75008;48,875573;2,312679;M;
;SEA NORD;COMM. DE GROS (COMM. INTERENT.) DE COMPOSANTS ET D'ÉQUI. ÉLECTRO. ET TÉLÉCOM.;51 R MONTMARTRE 75002;48,865856;2,344535;M;
;MONTBIAN AG;COMMERCE DE GROS (COMMERCE INTERENTREPRISES) DE PRODUITS PHARMACEUTIQUES;46 R DE LEVIS 75017;48,883491;2,314137;M;
;MY DO IT BOX;COMMERCE DE DÉTAIL D'AUTRES ÉQUIPEMENTS DU FOYER;108 CRS DE VINCENNES 75012;48,846825;2,409211;M;
;HARVEST PARIS;COMMERCE DE GROS (COMMERCE INTERENTREPRISES) DE CAFÉ  THÉ  CACAO ET ÉPICES;32 R REAUMUR 75003;48,865281;2,357791;M;
;SECURITY FIRST;COMMERCE DE GROS (COMMERCE INTERENTREPRISES) DE MATÉRIEL ÉLECTRIQUE;58 AV DE WAGRAM 75017;48,879228;2,299241;M;
;HM FRANCE;COMMERCE DE DÉTAIL D'HABILLEMENT EN MAGASIN SPÉCIALISÉ;7 AV DE LA PORTE DE MONTREUIL 75020;48,853885;2,411702;M;
;ROSASTAR;COMMERCE DE GROS (COMMERCE INTERENTREPRISES) D'HABILLEMENT ET DE CHAUSSURES;18 R NOTRE DAME DE NAZARETH 75003;48,867164;2,360667;M;
;ROYAL EXOTIQUE;COMMERCE D'ALIMENTATION GÉNÉRALE;66 R STEPHENSON 75018;48,889262;2,35604;M;
;ART'OPP;COMMERCE DE GROS (COMMERCE INTERENTREPRISES) D'AUTRES BIENS DOMESTIQUES;54 AV DE VERSAILLES 75016;48,848199;2,274253;M;
;ILIANA;COIFFURE;5 BD ORNANO 75018;48,891942;2,349144;M;
;SKINECLIPSE;COMMERCE DE DÉTAIL DE PARFUMERIE ET DE PRODUITS DE BEAUTÉ EN MAGASIN SPÉCIALISÉ;5 AV DES CHASSEURS 75017;48,887149;2,30611;M;
;SME;COMMERCE DE GROS (COMMERCE INTERENTREPRISES) NON SPÉCIALISÉ;1 BD SERURIER 75019;48,877274;2,406296;M;
;QUAI 12;COMMERCE DE DÉTAIL DE JEUX ET JOUETS EN MAGASIN SPÉCIALISÉ;12 QU DE LA MEGISSERIE 75001;48,858031;2,34463;M;
;R M ALIMENTATION GENERALE;COMMERCE D'ALIMENTATION GÉNÉRALE;17 R GERANDO 75009;48,882831;2,346201;M;
;BIOSBAND SAS;COMMERCE DE DÉTAIL DE PRODUITS PHARMACEUTIQUES EN MAGASIN SPÉCIALISÉ;47 R DE LYON 75012;48,849519;2,370523;M;
;Librairie HOGIER;COMMERCE DE DÉTAIL DE BIENS D'OCCASION EN MAGASIN;11 R DU ROI DORE 75003;48,86022;2,363693;M;
;LKC;COMMERCE D'ALIMENTATION GÉNÉRALE;31 AV LAPLACE 94110;48,807982;2,332165;M;
;L'UNIVERS DU MOBILE;COMMERCE DE DÉTAIL DE MATÉRIELS DE TÉLÉCOMMUNICATION EN MAGASIN SPÉCIALISÉ;1 R DES PROUVAIRES 75001;48,861318;2,343989;M;
;940093 PAM LAURENT & AUFFRANT ARIANE;COMM. DE GROS (COMM. INTERENT.) DE COMPOSANTS ET D'ÉQUI. ÉLECTRO. ET TÉLÉCOM.;23 R D'ANJOU 75008;48,870958;2,32143;M;
;LUX CREATION;COMMERCE DE GROS (COMMERCE INTERENTREPRISES) D'HABILLEMENT ET DE CHAUSSURES;103 BD VOLTAIRE 75011;48,859055;2,37834;M;
;LYSIANE PROUTEAU EURL;COMMERCE DE GROS (COMMERCE INTERENTREPRISES) D'AUTRES BIENS DOMESTIQUES;4 PL LEON DEUBEL 75016;48,837774;2,259657;M;
;YOYO;COMM. DE GROS (COMM. INTERENTREPRISES) DE PARFUMERIE ET DE PRODUITS DE BEAUTÉ;17 CHE DES VIGNES 93000;48,90305;2,418356;M;
;DELICE & GOURMAND EVENT;AUTRES COMMERCES DE DÉTAIL EN MAGASIN NON SPÉCIALISÉ;13 BD VARIENGHIEN 77140;48,27362;2,69378;M;
;DELON-HOEBANX;COMMERCE DE DÉTAIL DE BIENS D'OCCASION EN MAGASIN;198 BD PEREIRE 75017;48,880843;2,289111;M;
;DEPANN'COPIEUR;COMM. DE GROS (COMM. INTERENT.) D'ORDI.  D'ÉQUI. INFO. PÉRIPHÉRIQUES ET LOGI.;9 R DE LA BELLE ETOILE 77230;49,045861;2,661153;M;
;AIRCLEANUP;COMM. DE DÉT. FLEURS PLANTES GRAINES ENGR. ANI. DE COMP.  ALI. ANI. EN MAG. SPÉC;18 R YVES TOUDIC 75010;48,869827;2,363964;M;
;Alexis Mugica Coaching & Formation;AUTRES ENSEIGNEMENTS;185 R DE GRENELLE 75007;48,856865;2,303902;M;
;MAMATAZ TRADING;COMMERCE DE GROS (COMMERCE INTERENTREPRISES) ALIMENTAIRE NON SPÉCIALISÉ;28 R DE CHABROL 75010;48,876944;2,352991;M;
;NORA;COMMERCE DE DÉTAIL D'HABILLEMENT EN MAGASIN SPÉCIALISÉ;91 R DE TURENNE 75003;48,860845;2,364466;M;
;MAMATAZ TRADING;COMMERCE DE GROS (COMMERCE INTERENTREPRISES) ALIMENTAIRE NON SPÉCIALISÉ;28 R DE CHABROL 75010;48,876944;2,352991;M;
;ANSEMA;COMMERCE DE GROS (COMMERCE INTERENTREPRISES) NON SPÉCIALISÉ;66 AV MOZART 75016;48,853449;2,268536;M;
;SARL AMBITION;COMM. DE GROS (COMM. INTERENTREPRISES) DE PARFUMERIE ET DE PRODUITS DE BEAUTÉ;110 R DES COURONNES 75020;48,871187;2,388863;M;
;MEXEXPORT;COMM. DE GROS (COMM. INTERENTREPRISES) D'ARTICLES D'HORLOGERIE  DE BIJOUTERIE;106 AV THIERS 93340;48,897787;2,521231;M;
;MEZIANA DISTRIBUTION;SUPÉRETTES;9 R TROUSSEAU 75011;48,851435;2,378635;M;
;MINI PRICE;COMMERCE DE DÉTAIL D'AUTRES ÉQUIPEMENTS DU FOYER;126 R DE BELLEVILLE 75020;48,874705;2,388523;M;
;MOD'ACH;COMMERCE DE DÉTAIL D'HABILLEMENT EN MAGASIN SPÉCIALISÉ;25 R D'AMSTERDAM 75008;48,878214;2,32686;M;
;VAL'OR INVEST;COMMERCE DE GROS (COMMERCE INTERENTREPRISES) DE MINERAIS ET MÉTAUX;2 SQ D'URFE 75016;48,850318;2,259331;M;
;SARL APERO LA PERLE;COMMERCE D'ALIMENTATION GÉNÉRALE;29 BD GABRIEL PERI 95110;48,967296;2,262362;M;
;SAREE MAHAL-AGARAM;COMMERCE DE GROS (COMMERCE INTERENTREPRISES) NON SPÉCIALISÉ;22 R PERDONNET 75010;48,88383;2,361037;M;
;SARL COIFFURE 19;COIFFURE;121 AV SIMON BOLIVAR 75019;48,880546;2,373911;M;
;NADIA BOZ;COIFFURE;55 R D'ALESIA 75014;48,827716;2,330633;M;
;NEMOURS DISTRIBUTION;COMMERCE DE GROS (COMMERCE INTERENTREPRISES) NON SPÉCIALISÉ;4 R DES MOINES 77140;48,265127;2,716438;M;
;NEW AND CO;COMMERCE DE DÉTAIL D'HABILLEMENT EN MAGASIN SPÉCIALISÉ;58 R D'AVRON 75020;48,852089;2,403256;M;
;Société du palais;COMMERCE DE DÉTAIL D'HABILLEMENT EN MAGASIN SPÉCIALISÉ;2 PL DE LA PORTE MAILLOT 75017;48,878577;2,283835;M;
;V.A.P;AUTRES COMMERCES DE DÉTAIL SPÉCIALISÉS DIVERS;67 R DE ROCHECHOUART 75009;48,880843;2,346338;M;
;VENTE 2 STOCK;COMMERCE DE GROS (COMMERCE INTERENTREPRISES) NON SPÉCIALISÉ;5 R LERICHE 75015;48,835804;2,294392;M;
;Venuat & Harley;BOULANGERIE ET BOULANGERIE-PÂTISSERIE;17 R DU CHATEAU D'EAU 75010;48,869991;2,360321;M;
;GILES FOREMAN CENTRE FOR ACTING PARIS SAS;AUTRES ENSEIGNEMENTS;18 R LABAT 75018;48,889938;2,350345;M;
;Girls in Paris;COMMERCE DE DÉTAIL D'HABILLEMENT EN MAGASIN SPÉCIALISÉ;93 QU DE VALMY 75010;48,873743;2,362969;M;
;SAI;COMM. DE DÉTAIL D'ORDINATEURS  D'UNITÉS PÉRIPH. ET DE LOGI. EN MAG. SPÉCIALISÉ;20 R DE LANCRY 75010;48,870009;2,360916;M;
;SAIE;COMM. DE GROS (COMM. INTERENT.) DE FOURN. ET ÉQUI. DIV. POUR LE COMM. ET SERV.;58 AV DU 8 MAI 1945 93420;48,965419;2,528296;M;
;CIE INTERNATIONAL;COMMERCE DE GROS (COMMERCE INTERENTREPRISES) NON SPÉCIALISÉ;37 BD JEAN ALLEMANE 95100;48,951238;2,253168;M;
;YWL PARIS;COMMERCE DE GROS (COMMERCE INTERENTREPRISES) D'HABILLEMENT ET DE CHAUSSURES;36 BD DU TEMPLE 75011;48,865369;2,365722;M;
;A-PLUS BAZAR;COMMERCE D'ALIMENTATION GÉNÉRALE;13 R DU BORREGO 75020;48,872745;2,39927;M;
;ARFA INTER PRIZE;COMMERCE DE DÉTAIL ALIMENTAIRE SUR ÉVENTAIRES ET MARCHÉS;30 R CUSTINE 75018;48,888778;2,347023;M;
;LE VERGER ETOILE;COMMERCE DE GROS (COMMERCE INTERENTREPRISES) DE FRUITS ET LÉGUMES;149 AV DU MAINE 75014;48,83385;2,324674;M;
;GRANDS CERCLES;AUTRES COMMERCES DE DÉTAIL SPÉCIALISÉS DIVERS;48 R DE BABYLONE 75007;48,851775;2,318279;M;
;BESNARD DISTRIBUTION;COMMERCE DE GROS (COMMERCE INTERENTREPRISES) DE FRUITS ET LÉGUMES;16 ALL JEAN TARIS 91070;48,606934;2,376722;M;
;SALON KHAZZANI 95;COMMERCE DE DÉTAIL DE MEUBLES;70 BD HELOISE 95100;48,940176;2,249058;M;
;TREND HOME;COMMERCE DE GROS (COMMERCE INTERENTREPRISES) D'AUTRES BIENS DOMESTIQUES;11 ALL DES EIDERS 75019;48,894185;2,379036;M;
;SAM;COMMERCE DE DÉTAIL D'HABILLEMENT EN MAGASIN SPÉCIALISÉ;87 CHE DE LA COTE DU CHANGE 93370;48,89552;2,581109;M;
;LA FINE EQUIPE;AUTRES COMMERCES DE DÉTAIL EN MAGASIN NON SPÉCIALISÉ;12 R JUGE 75015;48,849999;2,292507;M;
;KALAMAKI;AUTRES COMMERCES DE DÉTAIL ALIMENTAIRES EN MAGASIN SPÉCIALISÉ;23 R LE VERRIER 75006;48,841438;2,333399;M;
;LESSOL;COMM. DE GROS (COMM. INTERENT.) D'APPAREILS SANITAIRES ET PROD. DE DÉCORATION;38 R DE BERRI 75008;48,873879;2,30699;M;
;ILHAM TELECOM;COMM. DE GROS (COMM. INTERENT.) DE COMPOSANTS ET D'ÉQUI. ÉLECTRO. ET TÉLÉCOM.;6 AV SIMON BOLIVAR 75019;48,874053;2,384881;M;
;BIZOT BAZAR;AUTRES COMMERCES DE DÉTAIL SPÉCIALISÉS DIVERS;59 AV DU GENERAL MICHEL BIZOT 75012;48,835614;2,401911;M;
;PYRENEES COIFFURE;COIFFURE;62 R DES PYRENEES 75020;48,852996;2,406177;M;
;LAVIN EXOTIQUE;COMMERCE D'ALIMENTATION GÉNÉRALE;2 R BOTZARIS 75019;48,875859;2,381788;M;
;BARRETT;COMMERCE DE DÉTAIL DE LA CHAUSSURE;4 R DU DRAGON 75006;48,853897;2,331324;M;
;IMPERIALE-DISTRIBUTION;COMMERCE DE GROS (COMMERCE INTERENTREPRISES) ALIMENTAIRE NON SPÉCIALISÉ;18 AV DES CHAMPS ELYSEES 75008;48,869162;2,309541;M;
;INFINITY ID;AUTRES ENSEIGNEMENTS;60 QU DE JEMMAPES 75010;48,870609;2,366355;M;
;RCH PARIS;COMMERCE DE DÉTAIL D'HABILLEMENT EN MAGASIN SPÉCIALISÉ;26 R DE ROCHECHOUART 75009;48,878173;2,345021;M;
;LE VERGER ETOILE;COMMERCE DE GROS (COMMERCE INTERENTREPRISES) DE FRUITS ET LÉGUMES;149 AV DU MAINE 75014;48,83385;2,324674;M;
;LES COUPONS DE MONTMARTRE;COMMERCE DE DÉTAIL DE TEXTILES EN MAGASIN SPÉCIALISÉ;5 R PIERRE PICARD 75018;48,884614;2,346498;M;
;SOY TEXTILE;COMMERCE DE GROS (COMMERCE INTERENTREPRISES) DE TEXTILES;3 BD ALBERT CAMUS 95200;48,979045;2,371547;M;
;AD-VENIR;AUTRES ENSEIGNEMENTS;93 R CARDINET 75017;48,884786;2,310111;M;
;GREGOIRE OPTIQUE;COMMERCES DE DÉTAIL D'OPTIQUE;84 R D'AMSTERDAM 75009;48,88166;2,327192;M;
;GRENELLE AUTOMOBILES;COMMERCE DE VOITURES ET DE VÉHICULES AUTOMOBILES LÉGERS;82 R DUTOT 75015;48,837107;2,307062;M;
;WEB AUTO STORE;COMMERCE DE VOITURES ET DE VÉHICULES AUTOMOBILES LÉGERS;26 R DE LA CHAPELLE 75018;48,892004;2,359798;M;
;BELLE AFRO;COMMERCE DE DÉTAIL DE PARFUMERIE ET DE PRODUITS DE BEAUTÉ EN MAGASIN SPÉCIALISÉ;68 R DU CHATEAU D'EAU 75010;48,872534;2,355425;M;
;LAINOH-EXPORT;COMMERCE DE GROS (COMMERCE INTERENTREPRISES) NON SPÉCIALISÉ;66 R JOUFFROY D'ABBANS 75017;48,88456;2,305865;M;
;RED INTER;COMMERCE DE GROS (COMMERCE INTERENTREPRISES) DE BOISSONS;25 R BECCARIA 75012;48,848588;2,378596;M;
;TEKCAR;COMMERCE DE GROS D'ÉQUIPEMENTS AUTOMOBILES;10 R DU COLISEE 75008;48,870547;2,307978;M;
;GEMS PRIVE;AUTRES COMMERCES DE DÉTAIL SPÉCIALISÉS DIVERS;8 R DES QUILLES 77700;48,877064;2,772874;M;
;ALTATIS;COMMERCE DE GROS (COMMERCE INTERENTREPRISES) NON SPÉCIALISÉ;16 AV DE LOWENDAL 75015;48,849377;2,303314;M;
;TEKCAR;COMMERCE DE GROS D'ÉQUIPEMENTS AUTOMOBILES;10 R DU COLISEE 75008;48,870547;2,307978;M;
;Vinology;COMMERCE DE DÉTAIL DE BOISSONS EN MAGASIN SPÉCIALISÉ;194 AV DAUMESNIL 75012;48,838115;2,398969;M;
;GYSS;COMMERCE DE GROS (COMMERCE INTERENTREPRISES) D'HABILLEMENT ET DE CHAUSSURES;6 R D'ALEXANDRIE 75002;48,868102;2,351006;M;
;BAHYA;COMM. DE DÉT. DE TAPIS  MOQUETTES ET REVÊTEMENTS DE MURS ET SOLS EN MAG. SPÉC.;29 R RENNEQUIN 75017;48,881932;2,297598;M;
;BANOO;COMMERCE DE DÉTAIL D'HABILLEMENT EN MAGASIN SPÉCIALISÉ;54 AV DE CLICHY 75018;48,886946;2,326011;M;
;LAINOH-EXPORT;COMMERCE DE GROS (COMMERCE INTERENTREPRISES) NON SPÉCIALISÉ;66 R JOUFFROY D'ABBANS 75017;48,88456;2,305865;M;
;IB SERVICE;COMMERCE D'ALIMENTATION GÉNÉRALE;36 R DE LA CHARBONNIERE 75018;48,884206;2,352096;M;
;VOYAGES IMMOBILES;COMMERCE DE DÉTAIL DE MEUBLES;25 R RICHARD LENOIR 75011;48,855667;2,381581;M;
;VS9;COMMERCE DE GROS (COMMERCE INTERENTREPRISES) NON SPÉCIALISÉ;45 AV VICTOR HUGO 93300;48,90352;2,37198;M;
;BATI RENT;COMMERCE DE GROS (COMMERCE INTERENTREPRISES) DE MACHINES-OUTILS;6 R RONDELET 75012;48,846701;2,385479;M;
;SARL LES PEUPLIERS;COMMERCE D'ALIMENTATION GÉNÉRALE;39 R DES PEUPLIERS 75013;48,822584;2,352947;M;
;W PROJECTS;COMMERCE DE GROS (COMMERCE INTERENTREPRISES) D'HABILLEMENT ET DE CHAUSSURES;88 R DE CLERY 75002;48,869327;2,350854;M;
;WALZER & CO;COMMERCE DE DÉTAIL D'ARTICLES DE SPORT EN MAGASIN SPÉCIALISÉ;59 R DE TURBIGO 75003;48,865797;2,357102;M;
;WATTINNE PARIS;COMMERCE DE DÉTAIL D'HABILLEMENT EN MAGASIN SPÉCIALISÉ;24 R DE POITOU 75003;48,861625;2,362824;M;
;WDP;AUTRES COMMERCES DE DÉTAIL SPÉCIALISÉS DIVERS;101 R DE TURENNE 75003;48,861702;2,364612;M;
;BON VOYAGE;COMMERCE DE DÉTAIL DE MAROQUINERIE ET D'ARTICLES DE VOYAGE;64 BD DE ROCHECHOUART 75018;48,883179;2,344643;M;
;AIRZUNE;COMM. DE DÉTAIL D'ORDINATEURS  D'UNITÉS PÉRIPH. ET DE LOGI. EN MAG. SPÉCIALISÉ;14 AV DE L'OPERA 75001;48,865303;2,334831;M;
;BOUCHERIE PEAN;COMMERCE DE DÉTAIL DE VIANDES ET DE PRODUITS À BASE DE VIANDE EN MAG. SPÉCIALISÉ;109 R RAYMOND LOSSERAND 75014;48,832826;2,316151;M;
;BOUCHERIE PIVERT;COMMERCE DE DÉTAIL DE VIANDES ET DE PRODUITS À BASE DE VIANDE EN MAG. SPÉCIALISÉ;94 R DU FAUBOURG DU TEMPLE 75011;48,871033;2,374267;M;
;BOULANGERIE C.A;BOULANGERIE ET BOULANGERIE-PÂTISSERIE;37 AV HENRI DUNANT 77100;48,950676;2,89394;M;
;BOULANGERIE DE LA PLACE;BOULANGERIE ET BOULANGERIE-PÂTISSERIE;36 PL LEOPOLD HIRSCH 95100;48,94344;2,228257;M;
;SARL OMBADA;AUTRES COMMERCES DE DÉTAIL SPÉCIALISÉS DIVERS;75 R PHILIPPE DE GIRARD 75018;48,887443;2,360774;M;
;N-WINE;COMMERCE DE GROS (COMMERCE INTERENTREPRISES) DE BOISSONS;10 R DU DOCTEUR FINLAY 75015;48,852403;2,287661;M;
;O.A.;COMMERCE DE DÉTAIL DE BOISSONS EN MAGASIN SPÉCIALISÉ;19 R DE TANGER 75019;48,885821;2,368322;M;
;BINTOU LAMODE;COIFFURE;29 R LEON 75018;48,888343;2,353478;M;
;LESSOL;COMM. DE GROS (COMM. INTERENT.) D'APPAREILS SANITAIRES ET PROD. DE DÉCORATION;38 R DE BERRI 75008;48,873879;2,30699;M;
;421TRADE;COMM. DE GROS (COMM. INTERENT.) DE MEUBLES  DE TAPIS   D'APPAREILS D'ÉCLAIRAGE;37 R DU CAPITAINE MARCHAL 75020;48,867481;2,40432;M;
;940093 PAM LAURENT & AUFFRANT ARIANE;COMM. DE GROS (COMM. INTERENT.) DE COMPOSANTS ET D'ÉQUI. ÉLECTRO. ET TÉLÉCOM.;23 R D'ANJOU 75008;48,870958;2,32143;M;
;940093 PAM LAURENT & AUFFRANT ARIANE;COMM. DE GROS (COMM. INTERENT.) DE COMPOSANTS ET D'ÉQUI. ÉLECTRO. ET TÉLÉCOM.;23 R D'ANJOU 75008;48,870958;2,32143;M;
;AUTO DU VAL;COMMERCE DE VOITURES ET DE VÉHICULES AUTOMOBILES LÉGERS;15 R CAIL 75010;48,882689;2,360302;M;
;RONFA;COMMERCE DE DÉTAIL D'AUTRES ÉQUIPEMENTS DU FOYER;55 R DE DOUAI 75009;48,883507;2,329505;M;
;OPS MATERIAUX;COMMERCE DE GROS (COMM. INTERENT.) DE BOIS ET DE MATÉRIAUX DE CONSTRUCTION;81 AV JOFFRE 77450;48,895517;2,818302;M;
;OPTIQUE DU Vème;COMMERCES DE DÉTAIL D'OPTIQUE;24 R BERTHOLLET 75005;48,838682;2,345603;M;
;PARIS COSMET;COMMERCE DE DÉTAIL DE PARFUMERIE ET DE PRODUITS DE BEAUTÉ EN MAGASIN SPÉCIALISÉ;145 R DE CHARONNE 75011;48,855328;2,388069;M;
;940093 PAM LAURENT & AUFFRANT ARIANE;COMM. DE GROS (COMM. INTERENT.) DE COMPOSANTS ET D'ÉQUI. ÉLECTRO. ET TÉLÉCOM.;23 R D'ANJOU 75008;48,870958;2,32143;M;
;940093 PAM LAURENT & AUFFRANT ARIANE;COMM. DE GROS (COMM. INTERENT.) DE COMPOSANTS ET D'ÉQUI. ÉLECTRO. ET TÉLÉCOM.;23 R D'ANJOU 75008;48,870958;2,32143;M;
;LEMA DISTRIB;SUPERMARCHÉS;11 AV PARMENTIER 75011;48,859675;2,378859;M;
;WILTEE;AUTRES COMMERCES DE DÉTAIL SPÉCIALISÉS DIVERS;109 BD DE SEBASTOPOL 75002;48,866819;2,352625;M;
;SECURITY FIRST;COMMERCE DE GROS (COMMERCE INTERENTREPRISES) DE MATÉRIEL ÉLECTRIQUE;58 AV DE WAGRAM 75017;48,879228;2,299241;M;
;WEB AUTO STORE;COMMERCE DE VOITURES ET DE VÉHICULES AUTOMOBILES LÉGERS;26 R DE LA CHAPELLE 75018;48,892004;2,359798;M;
;ALESIA COMMERCE INTERNATIONAL;COMMERCE DE GROS (COMMERCE INTERENTREPRISES) NON SPÉCIALISÉ;8 R DE MOSCOU 75008;48,87999;2,326396;M;
;AUTOS DAYTONA;COMMERCE DE VOITURES ET DE VÉHICULES AUTOMOBILES LÉGERS;39 R DES PETITS CHAMPS 75001;48,866839;2,336265;M;
;LABOUDI;COMMERCE DE DÉTAIL DE PAIN  PÂTISSERIE ET CONFISERIE EN MAGASIN SPÉCIALISÉ;47 BD ORNANO 75018;48,895482;2,346182;M;
