nom;activite;adresse;lat;lon;type;categorie
RÉSIDENCE FIORI DI CALA ROSSA;RÉSIDENCE DE TOURISME;Route de Cala Rossa, 20137, LECCI;;;O;5
VILLA CLARA CHIBERTA;RÉSIDENCE DE TOURISME;149 BOULEVARD DES PLAGES, 64600, ANGLET;;;O;5
CITADINES REPUBLIQUE PARIS;RÉSIDENCE DE TOURISME;37 BIS AVENUE PARMENTIER, 75011, PARIS;;;O;5
L'ATRIUM;RÉSIDENCE DE TOURISME;15 Cours GAMBETTA, 13100, AIX-EN-PROVENCE;;;O;5
 RÉSIDENCE LES ROCHES;RÉSIDENCE DE TOURISME;RUE DU PORT, 29250, SAINT-POL-DE-LÉON;;;O;5
RESIDENCE MARE E MACCHIA;RÉSIDENCE DE TOURISME;TIZZANO, 20100, SARTENE;;;O;5
RESIDENCE LES HAUTS DE L’AVENA;RÉSIDENCE DE TOURISME;TIZZANO, 20100, SARTENE;;;O;5
RESIDENCE LES SANGUINAIRES;RÉSIDENCE DE TOURISME;ROUTE DES SANGUINAIRES BP 818, 20192, AJACCIO;;;O;5
DOMAINE DU BOSQUET;RÉSIDENCE DE TOURISME;lieu dit lafont rue de la vedrenne, 19300, EGLETONS;;;O;5
LOCA CONFORT LES DEMEURES DE BORDA;RÉSIDENCE DE TOURISME;26 rue des Lazaristes BP 258, 40106, DAX CÉDEX;;;O;5
LES BALCONS D'OYSTER POND;RÉSIDENCE DE TOURISME;15 avenue du lagon Oyster-Pond, 97150, SAINT-MARTIN;;;O;5
DOMAINE DE FIGUIERES;RÉSIDENCE DE TOURISME;103 route du Muy , 83120, SAINTE MAXIME;;;O;5
ODALYS DOMAINE DES EUCALYPTUS;RÉSIDENCE DE TOURISME;352 RD 7 LES CHATEAUX DE VILLEPEY, 83370, SAINT AYGULF;;;O;5
LES CLAIRMONTELLES;RÉSIDENCE DE TOURISME;LES CLAIRMONTELLES, 1130, LE POIZAT;;;O;5
LE FONSERANE;RÉSIDENCE DE TOURISME;190 RUE DES CHRISTOLS, 34500, BEZIERS;;;O;5
GOËLIA LES PORTES D'HONFLEUR ;RÉSIDENCE DE TOURISME;1300 ROUTE DE HONFLEUR, 27210, BOULLEVILLE;;;O;5
RESIDENCE MARINA DI PINARELLO;RÉSIDENCE DE TOURISME;LIEU-DIT VARDIOLA / TESTA, 20144, ZONZA - SAINTE LUCIE DE PORTO VECCHIO;;;O;5
RESIDENCE PLEIN SOLEIL;RÉSIDENCE DE TOURISME;ROUTE DE SCOLETTE, 73500, AVRIEUX;;;O;5
RESIDENCE U FRUSTERU;RÉSIDENCE DE TOURISME;5 QUARTIER PINEDDA, 20110, PROPRIANO;;;O;5
RESIDENCE U PIRELLU;RÉSIDENCE DE TOURISME;ROUTE DE PALOMBAGGIA, 20137, PORTO VECCHIO;;;O;5
RESIDENCE DE L'OCEAN;RÉSIDENCE DE TOURISME;49 RUE ANATOLE FRANCE, 85360, LA TRANCHE SUR MER;;;O;5
LES JARDINS DE LA BERGERIE;RÉSIDENCE DE TOURISME;ROUTE DU COLLET CHATEAU D'ANCELLE, 5260, ANCELLE;;;O;5
RESIDENCE TIVOLI;RÉSIDENCE DE TOURISME;170 AVENUE DE LA TRAINIERE, 30240, LE GRAU DU ROI;;;O;5
DOMAINE SAINT PIERRE;RÉSIDENCE DE TOURISME;DOMAINE SAINT PIERRE, 20130, CARGESE;;;O;5
COSY'S VAUBAN;RÉSIDENCE DE TOURISME;69/71 BOULEVARD VAUBAN, 59000, LILLE;;;O;5
LES THERMES DE SAUJON;RÉSIDENCE DE TOURISME;18 rue de saintonge - bp30, 17600, SAUJON;;;O;5
RESIDENCE MARINA CORSA;RÉSIDENCE DE TOURISME;6, ROUTE DE LA MER, 20240, GHISONACCIA;;;O;5
PARK AND SUITES PRESTIGE VAL D'EUROPE;RÉSIDENCE DE TOURISME;21 AVENUE DES FRESNES, 77144, MONTEVRAIN;;;O;5
RESIDENCE PARK AND SUITES;RÉSIDENCE DE TOURISME;190 BOULEVARD DU 8 MAI 1945, 1000, BOURG EN BRESSE;;;O;5
PIERRE ET VACANCES VILLAGE CLUB CAP ESTEREL;RÉSIDENCE DE TOURISME;Cap Esterel, 83530, SAINT-RAPHAËL;;;O;1
CENTER PARCS DOMAINE DES TROIS FORETS;RÉSIDENCE DE TOURISME;RUE DES BERTRAMBOIS, 57790, HATTIGNY;;;O;1
CENTER PARCS LES BOIS FRANCS;RÉSIDENCE DE TOURISME;LES BOIS FRANCS, 27130, LES BARILS;;;O;1
CENTER PARCS DOMAINE DES HAUTS DE BRUYÈRES;RÉSIDENCE DE TOURISME;DOMAINE DES HAUTS DE BRUYèRES, 41600, CHAUMONT-SUR-THARONNE;;;O;1
CENTER PARCS - LE DOMAINE DU LAC D'AILETTE;RÉSIDENCE DE TOURISME;-, 2860, CHAMOUILLE;;;O;1
PIERRE ET VACANCES VILLAGES CLUBS PONT ROYAL;RÉSIDENCE DE TOURISME;DOMAINE ET GOLF DE PONT ROYAL, 13370, MALLEMORT;;;O;1
PIERRE ET VACANCES VILLAGES CLUBS MOLIETS;RÉSIDENCE DE TOURISME;Rue Nicolas Bremontier, 40660, MOLIETS-ET-MAA;;;O;1
PIERRE ET VACANCES VILLAGE CLUB DE BELLE DUNE;RÉSIDENCE DE TOURISME;PROMENADE DU MARQUENTERRE, 80120, FORT-MAHON-PLAGE;;;O;1
VILLAGE CLUB PIERRE & VACANCES LE ROURET;RÉSIDENCE DE TOURISME;Domaine Du Rouret, 7120, GROSPIERRES;;;O;1
PIERRE ET VACANCES VILLAGES CLUBS LES RESTANQUES DU GOLFE DE SAINT-TROPEZ;RÉSIDENCE DE TOURISME;RD 244 - LA BARDASSE, 83310, GRIMAUD;;;O;1
M VACANCES LE DOMAINE DE L'ARSELLE;RÉSIDENCE DE TOURISME;Bachat Bouloud , 38410, CHAMROUSSE;;;O;1
RÉSIDENCE PIERRE ET VACANCES - VILLA FRANCIA;RÉSIDENCE DE TOURISME;33 AVENUE WESTER WEMYSS CANNES LA BOCCA, 6400, CANNES;;;O;1
RADISSON BLU RESORT ARC 1950;RÉSIDENCE DE TOURISME;MANOIR SAVOIE, ARC 1950, 73700, BOURG-SAINT-MAURICE;;;O;1
PIERRE ET VACANCES VILLAGES CLUBS NORMANDY GARDEN;RÉSIDENCE DE TOURISME;NORMANDY GARDEN, 14430, BRANVILLE;;;O;1
RÉSIDENCE PIERRE ET VACANCES LES TEMPLES DU SOLEIL;RÉSIDENCE DE TOURISME;Rue du Soleil, 73440, SAINT-MARTIN-DE-BELLEVILLE;;;O;1
PIERRE ET VACANCES PREMIUM ARC 1950;RÉSIDENCE DE TOURISME;LE PRINCE DES CIMES arc 1500, 73700, BOURG-SAINT-MAURICE;;;O;1
PIERRE ET VACANCES RÉSIDENCE LE THABOR;RÉSIDENCE DE TOURISME;Anlage Ange Gardien, Avenue de l'ange Gardien, Basse Corniche, 73450, VALMEINIER;;;O;1
ODALYS RÉSIDENCE LES BERGES DU CANAL;RÉSIDENCE DE TOURISME;VOIE COMMUNALE N° 13, 34500, BÉZIERS;;;O;1
"BELAMBRA CLUB LA GRANDE MOTTE """"PRESQU'ILE DU PONANT""""";RÉSIDENCE DE TOURISME;RUE SAINT LOUIS, 34280, LA GRANDE-MOTTE;;;O;1
EURONAT;RÉSIDENCE DE TOURISME;lieu-dit Dépée, 33590, GRAYAN-ET-L'HÔPITAL;;;O;1
CLUB BELAMBRA BELGODERE 'GOLFE DE LOZARI';RÉSIDENCE DE TOURISME;-, 20226, BELGODERE;;;O;1
RÉSIDENCE PIERRE ET VACANCES SASKIA;RÉSIDENCE DE TOURISME;SASKIA FALAISE  AVORIAZ 1800, 74110, MORZINE;;;O;1
ODALYS LE DOMAINE LE MAS DES VIGNES;RÉSIDENCE DE TOURISME;Route d'Aigues vives, 30420, CALVISSON;;;O;1
RÉSIDENCE PIERRE ET VACANCES - VILLAGE CLUB LES ISSAMBRES;RÉSIDENCE DE TOURISME;Boulevard des Oliviers  Domaine Varazur, 83520, ROQUEBRUNE SUR ARGENS;;;O;1
LES CHALETS SUPER D;RÉSIDENCE DE TOURISME;Super Dévoluy, 5250, SAINT ETIENNE EN DEVOLUY;;;O;2
CLUB BELAMBRA 'PINETO';RÉSIDENCE DE TOURISME;LIDO DE LA MARANA  ROUTE DU CORDON LAGUNAIRE, 20290, BORGO;;;O;2
LE DOMAINE DU GOLF - VILLAGE CENTER;RÉSIDENCE DE TOURISME;1 CHEMIN DE L'AIRE - LIEU DIT AUNAC LE VIEUX, 34690, FABREGUES;;;O;2
ODALYS LES HAUTS DE SALAVAS;RÉSIDENCE DE TOURISME;Route de Barjac, 7150, SALAVAS;;;O;2
PIERRE ET VACANCES LES PARCS DE GRIMAUD;RÉSIDENCE DE TOURISME;SAINT PONS LES MURES, Départementale 559, 83310, GRIMAUD;;;O;2
RÉSIDENCE PIERRE ET VACANCES - CANNES BEACH;RÉSIDENCE DE TOURISME;14 AVENUE PIERRE SEMARD, 6150, CANNES-LA-BOCCA;;;O;2
LE DOMAINE D'ALBRET;RÉSIDENCE DE TOURISME;Lieu-Dit Le Pusocq, 47230, BARBASTE;;;O;2
MMV RESORT & SPA CANNES-MANDELIEU ;RÉSIDENCE DE TOURISME;Avenue gaston de Fontmichel , 6210, MANDELIEU-LA-NAPOULE;;;O;2
ADAGIO PARIS TOUR EIFFEL;RÉSIDENCE DE TOURISME;14 RUE DU THEATRE, 75015, PARIS;;;O;2
RÉSIDENCE GOELIA - LES FLOCONS D'ARGENT ;RÉSIDENCE DE TOURISME;ROUTE DES BARRAGES , 73500, AUSSOIS ;;;O;2
RÉSIDENCE PIERRE ET VACANCES PREMIUM - LES ALPAGES DE CHANTEL;RÉSIDENCE DE TOURISME;ZAC DE CHANTEL ARCS 1800, 73700, BOURG-SAINT-MAURICE;;;O;2
"CLUB BELAMBRA SEIGNOSSE """"LES TUQUETS""""";RÉSIDENCE DE TOURISME;-, 40510, SEIGNOSSE-LE-PENON;;;O;2
RÉSIDENCE MER ET GOLF PORT ARGELÈS;RÉSIDENCE DE TOURISME;D 81, Port Argelès, 66700, ARGELÈS-SUR-MER;;;O;2
MARRIOTT VILLAGE ILE-DE-FRANCE;RÉSIDENCE DE TOURISME;Allée de l'Orme Rond, 77700, BAILLY-ROMAINVILLIERS;;;O;2
CLARION SUITES SENART PARIS SUD;RÉSIDENCE DE TOURISME;12 allée du trait d'union, 77127, LIEUSAINT;;;O;2
RÉSIDENCE LES DEMEURES DU VENTOUX;RÉSIDENCE DE TOURISME;2015 AVENUE MAJORAL JOUVE, 84810, AUBIGNAN;;;O;2
LES JASSES DE CAMARGUE;RÉSIDENCE DE TOURISME;route d'aimargues, 30660, GALLARGUES-LE-MONTUEUX;;;O;2
RESIDENCE LES ORRES;RÉSIDENCE DE TOURISME;RESIDENCE LE BOIS MEAN, 5200, LES ORRES;;;O;2
LES DEMEURES DE LA MASSANE;RÉSIDENCE DE TOURISME;5 IMPASSE EDMOND BRAZES, 66700, ARGELES-SUR-MER;;;O;2
RESIDENCE MMV HAMEAU DES AIRELLES;RÉSIDENCE DE TOURISME;hameau de l’obélisque, 5100, MONTGENEVRE;;;O;2
"CLUB BELAMBRA """" LA BERGERIE""""";RÉSIDENCE DE TOURISME;CHEMIN DE MONTMEUILLE, 6480, LA COLLE SUR LOUP;;;O;2
LES ALPAGES DE VAL CENIS;RÉSIDENCE DE TOURISME;Plan des Champs Mont Cenis, 73480, LANSLEBOURG-MONT-CENIS;;;O;2
LES FERMES DE SAINT-SORLIN;RÉSIDENCE DE TOURISME;Rd 926, 73530, SAINT-SORLIN-D'ARVES;;;O;2
RESORT & SPA LE CHÂTEAU DE CAMIOLE ;RÉSIDENCE DE TOURISME;991 route de fayence , 83440, CALLIAN;;;O;2
RESIDENCE ORCIERES MERLETTE LE PRA PALIER;RÉSIDENCE DE TOURISME;LE PRA PALIER STATION 1850, 5170, ORCIERES;;;O;2
LES COTTAGES DU LAC;RÉSIDENCE DE TOURISME;ROUTE DE LAHITTE, 40160, PARENTIS-EN-BORN;;;O;2
ODALYS RESIDENCES HAMEAUX ET CHALETS DE LA VALLEE D'OR;RÉSIDENCE DE TOURISME;ZAC DES CHARBONNIERES, 73450, VALLOIRE;;;O;2
PIERRE ET VACANCES VILLAGE CLUB LACANAU;RÉSIDENCE DE TOURISME;domaine du golf - route du baganais, 33680, LACANAU-OCÉAN;;;O;2
VILLAGE VACANCES CAP FRANCE LE SALVIGNY;RÉSIDENCE DE TOURISME;LIEU DIT LE SALVIGNY, 74740, SIXT FER A CHEVAL;;;O;2
RÉSIDENCE PIERRE ET VACANCES LES RIVAGES DE COUDOULIÈRE;RÉSIDENCE DE TOURISME;26 AVENUE DU LAC, DOMAINE DE LA COUDOULIèRE, 83140, SIX-FOURS-LES-PLAGES;;;O;2
LES RÉSIDENCES DU HAMEAU;RÉSIDENCE DE TOURISME;LES LONGES, 73130, SAINT-FRANÇOIS-LONGCHAMP;;;O;2
ODALYS SUN NEIGE LES SOURCES DE MANON;RÉSIDENCE DE TOURISME;Lieu-dit Mas de boule, 7150, VALLON-PONT-D'ARC;;;O;2
LE PARC DE VAL JOLY;RÉSIDENCE DE TOURISME;parc départemental de val joly, 59132, EPPE SAUVAGE;;;O;2
METEOR VAL DE LOIRE RESORT;RÉSIDENCE DE TOURISME;115 route de civray de touraine, 37400, AMBROISE;;;O;2
RÉSIDENCE LE VILLAGE DE LESSY ;RÉSIDENCE DE TOURISME;LE CHINAILLON, 74450, LE GRAND-BORNAND;;;O;2
DOMAINE DE L'ESPINET;RÉSIDENCE DE TOURISME;Résidence de l'Espinet, 11500, QUILLAN;;;O;2
ODALYS L'ILE D'OR;RÉSIDENCE DE TOURISME;chemin de l'argentière - Agelonde, 83250, LA LONDE LES MAURES;;;O;2
RÉSIDENCE MAEVA VALESCURE;RÉSIDENCE DE TOURISME;90 ALLéE MUIRFIELD, 83700, SAINT-RAPHAËL;;;O;2
PIERRE ET VACANCES- LES CROZATS - AVORIAZ;RÉSIDENCE DE TOURISME;Quartier les Crozats - AVORIAZ 1800, 74110, MORZINE;;;O;2
RÉSIDENCE LES MONTS DU BOIS D'OR;RÉSIDENCE DE TOURISME;le bois méan 1800, 5200, LES ORRES;;;O;2
RÉSIDENCE PIERRE ET VACANCES L'OURS BLANC;RÉSIDENCE DE TOURISME;Avenue des Jeux, 38750, ALPE D'HUEZ;;;O;2
ODALYS RÉSIDENCE OPEN GOLFE JUAN;RÉSIDENCE DE TOURISME;35 AVENUE GEORGES POMPIDOU, 6220, LE GOLFE JUAN;;;O;2
PIERRE ET VACANCES VILLAGE CLUB LES RIVES DE CANNES MANDELIEU;RÉSIDENCE DE TOURISME;boulevard de la mer, 6210, MANDELIEU-LA-NAPOULE;;;O;2
LES MAISONS DU GOLF D'ARMAGNAC;RÉSIDENCE DE TOURISME;Golf de Guinlet voie communale n°10, 32800, EAUZE;;;O;2
LE CHEVAL BLANC;RÉSIDENCE DE TOURISME;RUE DU SOLEIL, 73400, VAL THORENS;;;O;2
LE HAMEAU DE PRAROUSTAN;RÉSIDENCE DE TOURISME;LES MOLANES, 4400, PRA-LOUP;;;O;2
MAEVA L'ESTAJAN;RÉSIDENCE DE TOURISME;mas de véran, chemin de fourchon, 13200, ARLES;;;O;2
HAMEAU DES AIGUILLES;RÉSIDENCE DE TOURISME;chemin du chatel, 73300, ALBIEZ-MONTROND;;;O;2
MAEVA PLAGNE LAUZE;RÉSIDENCE DE TOURISME;PLAGNE 1800, 73210, MACOT LA PLAGNE;;;O;2
LES CIMES DU VAL D'ALLOS;RÉSIDENCE DE TOURISME;Lieu Dit LA Sestrière, 4260, LA FOUX D'ALLOS;;;O;2
LES MÉLÈZES D'OR;RÉSIDENCE DE TOURISME;LE BOIS MEAN station 1800, 5200, LES ORRES;;;O;2
RÉSIDENCE LES CIMES BLANCHES ;RÉSIDENCE DE TOURISME;L'Averne Les Eucherts, 73700, LA ROSIÈRE;;;O;2
LES CHALETS DU SANCY;RÉSIDENCE DE TOURISME;route du Chambourguet, 63610, SUPER BESSE;;;O;2
PIERRE & VACANCES DOMAINE DU BOIS DE LA GRÉE ;RÉSIDENCE DE TOURISME;ROUTE DE VILLES MAHAUD , 44380, PORNICHET;;;O;2
PRIVILÈGE HÔTELS ET RESORTS LES VALMONTS;RÉSIDENCE DE TOURISME;Chemin des Crueux, 73480, LANSLEBOURG-MONT-CENIS;;;O;2
RÉSIDENCE APPART'CITY TOULOUSE HIPPODROME;RÉSIDENCE DE TOURISME;1 allée Antoine Osète, 31100, TOULOUSE;;;O;2
RÉSIDENCE MAEVA LE  MONT D'ARBOIS;RÉSIDENCE DE TOURISME;117 CHEMIN DE LA ROCAILLE, 74120, MEGÈVE;;;O;2
ODALYS RÉSIDENCE IRATZIA;RÉSIDENCE DE TOURISME;CHEMIN D'ERROMARDIE, 64500, SAINT-JEAN-DE-LUZ;;;O;2
RÉSIDHOME APPARTHOTEL VAL D'EUROPE;RÉSIDENCE DE TOURISME;3 PLACE JEAN MONNET, 77144, MONTEVRAIN;;;O;2
RÉSIDENCE PIERRE ET VACANCES - LE HAMEAU DES ISSAMBRES;RÉSIDENCE DE TOURISME;ROUTE DU COL DU BOUGNON, 83380, LES-ISSAMBRES;;;O;2
LE ROC BELLE FACE;RÉSIDENCE DE TOURISME;Lieudit la Tourche - Arc 1600, 73700, BOURG SAINT MAURICE;;;O;2
LE DOMAINE DE FAYENCE;RÉSIDENCE DE TOURISME;566 Boulevard des Claux, 83440, FAYENCE;;;O;2
RÉSIDENCE GOELIA - LE VILLAGE GOELIA ;RÉSIDENCE DE TOURISME;ROUTE DES MONTS D'AUBRAC LA FALQUE, 12130, SAINT-GENIEZ-D'OLT;;;O;2
RESIDENCE MER & GOLF PIC DU MIDI;RÉSIDENCE DE TOURISME;Boulevard du Taoulet, 65200, LA MONGIE;;;O;2
RÉSIDENCE LE CHAMOIS D'OR;RÉSIDENCE DE TOURISME;RUE DU SOLEIL, 73400, VAL THORENS;;;O;2
RÉSIDENCE LE HAMEAU DU BEAUFORTAIN ;RÉSIDENCE DE TOURISME;ROUTE DU MONT BISANNE, 73620, LES SAISIES;;;O;2
L’ÉCRIN DES NEIGES;RÉSIDENCE DE TOURISME;500 RUE DES CHARDONS BLEUS, 38410, CHAMROUSSE;;;O;2
LA DAME BLANCHE;RÉSIDENCE DE TOURISME;Station 1600, 5290, PUY-SAINT-VINCENT;;;O;2
CGH - L'ORÉE DES CIMES;RÉSIDENCE DE TOURISME;ROUTE DES ESPAGNOLS, 73210, PEISEY-VALLANDRY;;;O;2
LES BALCONS DE VAL CENIS VILLAGE;RÉSIDENCE DE TOURISME;Planchamp, 73480, LANSLEVILLARD;;;O;2
RÉSIDENCE LES BALCONS DU SOLEIL ;RÉSIDENCE DE TOURISME;Route du col d'Allos , 4260, LA FOUX D 'ALLOS ;;;O;2
PIERRE ET VACANCES PREMIUM LES HAUTS BOIS;RÉSIDENCE DE TOURISME;le Biollet, 73210, AIME LA PLAGNE;;;O;2
"ODALYS """"LES ALPAGES DU CORBIER""""";RÉSIDENCE DE TOURISME;Lieu dit Au saut - Villarembert, 73300, LE CORBIER;;;O;2
RÉSIDENCE PIERRE ET VACANCES PREMIUM LES TERRASSES D'EOS;RÉSIDENCE DE TOURISME;Les Terrasses d'Eos, 74300, FLAINE;;;O;2
RÉSIDENCE MAEVA BLEU MARINE;RÉSIDENCE DE TOURISME;RUE PASTEUR, 33680, LACANAU;;;O;2
RÉSIDENCE LES CLOS DE TOURRETTES ;RÉSIDENCE DE TOURISME;129 impasse des grandes terrasses, 83440, TOURRETTES;;;O;2
ODALYS RÉSIDENCE LE FLOCON D'OR;RÉSIDENCE DE TOURISME;ZAC DU SOLEIL, 38860, LES DEUX ALPES;;;O;2
ESPACE 2 VACANCES - CERS;RÉSIDENCE DE TOURISME;RESIDENCE LES HAUTS DE VALMEINIER - ZAC DES ISLETTES, 73450, VALMEINIER;;;O;2
LES RIVES DU LAC;RÉSIDENCE DE TOURISME;640 Route de Pernes, 84450, SAINT-SATURNIN-LÈS-AVIGNON;;;O;2
ODALYS L'OREE DES PISTES;RÉSIDENCE DE TOURISME;st sorlin d'arves, 73530, ST SORLIN D'ARVES;;;O;2
RÉSIDENCE PIERRE ET VACANCES - LES TERRASSES D'AZUR;RÉSIDENCE DE TOURISME;-, 6420, ISOLA;;;O;2
LES CHAUMETTES;RÉSIDENCE DE TOURISME;RESIDENCE LES CHAUMETTES, 5250, SAINT ETIENNE EN DEVOLUY;;;O;2
RÉSIDENCE GOELIA - LES CHALETS DES MARMOTTES ;RÉSIDENCE DE TOURISME;LA CHAL , 73530, SAINT-JEAN-D'ARVES;;;O;2
PARK AND SUITES VILLAGE;RÉSIDENCE DE TOURISME;318 avenue francis perrin, 13790, ROUSSET;;;O;2
GOELIA LES CHALETS DES ECOURTS;RÉSIDENCE DE TOURISME;lieu dit les chombons, 73530, SAINT JEAN D'ARVES;;;O;2
LES RIVES MARINES;RÉSIDENCE DE TOURISME;Rue du Port, 33470, LE TEICH;;;O;2
LE PARC AUX ÉTOILES;RÉSIDENCE DE TOURISME;Station 1600, 5290, PUY-SAINT-VINCENT;;;O;2
PARK AND SUITES VILLAGE;RÉSIDENCE DE TOURISME;1140 AVE DE BORDEAUX, 33127, SAINT JEAN D ILLAC;;;O;2
RÉSIDENCE KER GOH LENN;RÉSIDENCE DE TOURISME;zone plescop, le goh lenn, 56890, PLESCOP;;;O;2
PIERRE ET VACANCES LA RÉSIDENCE DU LAC;RÉSIDENCE DE TOURISME;lac de coulon, 47150, MONFLANQUIN;;;O;2
LES RIVES DE CLUB SAINT BRICE ;RÉSIDENCE DE TOURISME;70 avenue de la libération, 33740, ARÈS;;;O;2
RÉSIDENCE GOELIA - LES 4 VALLÉES ;RÉSIDENCE DE TOURISME;PLAN MOLLARET  MONTGELLAFREY , 73130, SAINT-FRANÇOIS-LONGCHAMP;;;O;2
LE HAMEAU DE BALESTAS;RÉSIDENCE DE TOURISME;germ louron, 65240, GERM;;;O;2
LES JARDINS DE SAINT-BENOÎT;RÉSIDENCE DE TOURISME;ROUTE DE TALAIRAN, 11220, SAINT-LAURENT-DE-LA-CABRERISSE;;;O;2
RÉSIDENCE PIERRE ET VACANCES LA FORÊT;RÉSIDENCE DE TOURISME;route de flaine quartier de la forêt, 74300, FLAINE;;;O;2
LES OCÉANIDES;RÉSIDENCE DE TOURISME;395 ROUTE DE LA PLAGE DE L'ARGENTIèRE, 83250, LA LONDE-LES-MAURES;;;O;2
APPART' VACANCES;RÉSIDENCE DE TOURISME;4 BIS AVENUE DU SERRAT DE L'OURS, 66210, BOLQUERE;;;O;2
LE RELAIS DU PLESSIS;RÉSIDENCE DE TOURISME;route de Thuet, 37120, CHAVEIGNES;;;O;2
CLUB BELAMBRA CAP D'AGDE 'LES LAURIERS ROSES';RÉSIDENCE DE TOURISME;3 AVENUE DE LA BUTTE, 34300, AGDE;;;O;2
RÉSIDENCE PROVENCE COUNTRY CLUB;RÉSIDENCE DE TOURISME;Route de Fontaine de Vaucluse, 84800, L'ISLE-SUR-LA-SORGUE;;;O;2
APPART'CITY;RÉSIDENCE DE TOURISME;16 rue de Champ de la Taillée, 74600, SEYNOD;;;O;2
RÉSIDENCE PIERRE ET VACANCES L'ALBANE;RÉSIDENCE DE TOURISME;RÉSIDENCE PIERRE ET VACANCES L'ALBANE, 5560, VARS;;;O;2
ODALYS RÉSIDENCE LES VERTSMARINES;RÉSIDENCE DE TOURISME;RUE DU CAPITAINE HENRY DE BOURNAZEL, 33123, LE VERDON-SUR-MER;;;O;2
ODALYS LUMIERES DE NEIGE;RÉSIDENCE DE TOURISME;RESIDENCE LUMIERES DE NEIGE, 73450, VALMEINIER;;;O;2
PV LE DOMAINE DU BOIS DE LA GRÉE;RÉSIDENCE DE TOURISME;route de ville Mahaud, 44380, PORNICHET;;;O;2
APPART'VACANCES;RÉSIDENCE DE TOURISME;Marina de Talaris - Avenue de l'Océan, 33680, LACANAU;;;O;3
ODALYS RÉSIDENCE LA CABRE D'OR;RÉSIDENCE DE TOURISME;ALLÉE DU GOLF, 13480, CABRIÈS;;;O;3
"RESIDHOTEL """"LES CHALETS DE LA PORTE DES SAISONS""""";RÉSIDENCE DE TOURISME;Quartier Pierre Aigue, 73300, SAINT SORLIN D'ARVES;;;O;3
GOELIA LE VILLAGE GAULOIS ;RÉSIDENCE DE TOURISME;ZAC DES LONGES , 73130, SAINT-FRANÇOIS-LONGCHAMP;;;O;3
CITADINES LA DÉFENSE PARIS;RÉSIDENCE DE TOURISME;1/8 boulevard de Neuilly, 92400, COURBEVOIE;;;O;3
ALL SUITES APPART HOTEL MERIGNAC;RÉSIDENCE DE TOURISME;27,allée Félix Nadar, 33700, MERIGNAC;;;O;3
CLUB BELAMBRA LES PORTES DE L'OCÉAN;RÉSIDENCE DE TOURISME;route côtière, guidel plages, 56520, GUIDEL;;;O;3
C2A LES TERRASSES D'ISOLA;RÉSIDENCE DE TOURISME;centre station, 6420, ISOLA 2000;;;O;3
ADAGIO TOULOUSE AÉROPORT;RÉSIDENCE DE TOURISME;8, Rue de Caulet, 31300, TOULOUSE;;;O;3
RÉSIDENCE PIERRE ET VACANCES PREMIUM LES ALPAGES DE REBERTY;RÉSIDENCE DE TOURISME;ZAC DE REBERTY 2000, 73440, SAINT-MARTIN-DE-BELLEVILLE;;;O;3
RELAIS SPA PARIS-ROISSY CDG;RÉSIDENCE DE TOURISME;8 ALLEE DU VERGER, 95700, ROISSY EN FRANCE;;;O;3
LES CHALETS DE WENGEN;RÉSIDENCE DE TOURISME;LIEUDIT LES COCHES DESSOUS, 73210, BELLENTRE;;;O;3
RÉSIDENCE LES HAMEAUX DE CAPRA SCORSA;RÉSIDENCE DE TOURISME;lieu-dit Lazari, 20226, BELGODÈRE;;;O;3
RÉSIDENCE PIERRE ET VACANCES MAEVA TOURISME ;RÉSIDENCE DE TOURISME;domaine du golf de pinsolle avenue de fray, 40140, SOUSTONS;;;O;3
RESIDENCE ALL SUITES APPART HOTEL BORDEAUX LAC;RÉSIDENCE DE TOURISME;Rue du professeur jeanneney, 33000, BORDEAUX;;;O;3
LES COTEAUX DE PONT ROYAL EN PROVENCE;RÉSIDENCE DE TOURISME;Domaine de Pont Royal en Provence, 13370, MALLEMORT;;;O;3
LES GRANDS ROCHERS;RÉSIDENCE DE TOURISME;31 route des amis de la nature, 85340, OLONNE-SUR-MER;;;O;3
RÉSIDENCE ADAGIO PORTE DE VERSAILLES;RÉSIDENCE DE TOURISME;16 rue Eliane Jeannin Garreau, 92130, ISSY-LES-MOULINEAUX;;;O;3
RÉSIDENCE GOELIA - LES CHALETS DE LA TOUSSUIRE;RÉSIDENCE DE TOURISME;LA SIMIANAZ , 73300, LA TOUSSUIRE;;;O;3
RÉSIDENCE GOELIA - LE DOMAINE DE CASTELLA ;RÉSIDENCE DE TOURISME;9/11 AVENUE JEAN PAUL , 66120, FONT-ROMEU-ODEILLO-VIA;;;O;3
RÉSIDENCE PRIVILÈGE;RÉSIDENCE DE TOURISME;STATION DE PEYRAGUDES, 65240, GERM;;;O;3
RÉSIDHOME APPARTHOTEL PARC DU MILLENAIRE;RÉSIDENCE DE TOURISME;49 AVENUE DE L'ARCHE, 92400, COURBEVOIE;;;O;3
CYBELE;RÉSIDENCE DE TOURISME;ZAC DU VILLAGE OLYMPIQUE, 73570, BRIDES LES BAINS;;;O;3
JARDIN DE RAMEL;RÉSIDENCE DE TOURISME;Boulevard Amédée Fontan, 31110, BAGNÈRES-DE-LUCHON;;;O;3
HIPARK SERRIS-VAL D'EUROPE;RÉSIDENCE DE TOURISME;18 Cours de l'Elbe, 77700, SERRIS;;;O;3
RESIDENCE PIERRE ET VACANCES LE GREEN BEACH ;RÉSIDENCE DE TOURISME;6 Rue Abbé Lemazurier, 14520, PORT EN BESSIN-HUPPAIN;;;O;3
SARL LES GENTIANES   RESIDENCE LES GENTIANES;RÉSIDENCE DE TOURISME;PUY SAINT VINCENT 1800, 5290, PUY SAINT VINCENT;;;O;3
RÉSIDENCE DES VILLAS D'HOULGATE;RÉSIDENCE DE TOURISME;3 rue Charles Svestres, 14510, HOULGATE;;;O;3
ODALYS LA LICORNE DE HAUTE PROVENCE;RÉSIDENCE DE TOURISME;Chemin des Riayes, 4800, GREOUX LES BAINS;;;O;3
ODALYS GRAND PANORAMA;RÉSIDENCE DE TOURISME;ZAC DES ISLETTES-LD CHAPIET, 73450, VALMEINIER;;;O;3
DOMAINE VAL DE ROLAND;RÉSIDENCE DE TOURISME;3 rue de la lanne, 65120, LUZ ST SAUVEUR;;;O;3
LE HAMEAU DU ROCHER BLANC;RÉSIDENCE DE TOURISME;ROUTE DU TELEPHERIQUE, 5330, SAINT CHAFFREY;;;O;3
LES CHALETS DU PRE DU BERGER;RÉSIDENCE DE TOURISME;RD 913 B La Féclaz, 73000, LES DÉSERTS;;;O;3
ODALYS RÉSIDENCE LE HAMEAU DU MOULIN;RÉSIDENCE DE TOURISME;8 CHEMIN DU GOUNY, 24290, MONTIGNAC;;;O;3
LES BASTIDES DE LASCAUX;RÉSIDENCE DE TOURISME;Lieudit la Béchade, 24290, MONTIGNAC;;;O;3
RÉSIDENCE PIERRE ET VACANCES VILLA MALDAGORA;RÉSIDENCE DE TOURISME;AVENUE FRANCIS PICHERIT, 64500, CIBOURE;;;O;3
RÉSIDENCE MAEVA LES GRANDS PINS;RÉSIDENCE DE TOURISME;LA BAYNASSE, 33121, CARCANS;;;O;3
LES HAUTS DE COMBORCIERE;RÉSIDENCE DE TOURISME;Route des Champions, 73300, LA TOUSSUIRE;;;O;3
RELAIS SPA CHESSY;RÉSIDENCE DE TOURISME;1 rue des Grands Prés, 77700, CHESSY;;;O;3
CELA ORELLE;RÉSIDENCE DE TOURISME;Le Hameau des Eaux d’Orelle      , 73140, ORELLE;;;O;3
RÉSIDENCE PIERRE ET VACANCES - L'ORÉE DU GOLF;RÉSIDENCE DE TOURISME;rue des aunes, 14800, DEAUVILLE;;;O;3
LES JARDINS DU MARAIS;RÉSIDENCE DE TOURISME;74 RUE AMELOT, 75011, PARIS;;;O;3
LES TERRASSES DES EMBIEZ;RÉSIDENCE DE TOURISME;Lieu-dit Le Brusc - Avenue du Mail, 83140, SIX-FOURS-LES-PLAGES;;;O;3
LES PICS D'ARAN;RÉSIDENCE DE TOURISME;31 rue Rémy Comet, 31110, BAGNÈRES DE LUCHON;;;O;3
GRANGE D'ARVIEUX RESIDENCE;RÉSIDENCE DE TOURISME;RESIDENCE LES GRANGES D'ARVIEUX - LA CHALP, 5320, ARVIEUX;;;O;3
RÉSIDENCE SAINT GOUSTAN;RÉSIDENCE DE TOURISME;PLACE DU TREHIC, 44490, LE CROISIC;;;O;3
RÉSIDENCE PERLA D'ISULA;RÉSIDENCE DE TOURISME;Les Marines de Bravone, 20230, LINGUIZZETTA;;;O;3
LES TOITS DU DEVOLUY;RÉSIDENCE DE TOURISME;Station Superdevoluy, 5250, SAINT ETIENNE EN DEVOLUY;;;O;3
RÉSIDENCE L'ÉCRIN D'HUEZ;RÉSIDENCE DE TOURISME;QUARTIER DES BERGERS, 38750, L'ALPE-D'HUEZ;;;O;3
RÉSIDENCE PIERRE ET VACANCES LE DOUCHKA;RÉSIDENCE DE TOURISME;LE DOUCHKA RUE DU DOUCHKA AVORIAZ, 74110, MORZINE;;;O;3
PARK AND SUITES ;RÉSIDENCE DE TOURISME;alle robert deltheil, 17230, MARANS;;;O;3
LE GRAND LODGE;RÉSIDENCE DE TOURISME;Route de Vonne, 74390, CHATEL;;;O;3
LE HAMEAU DES ÉCRINS;RÉSIDENCE DE TOURISME;Les Alberts, 5290, PUY-SAINT-VINCENT;;;O;3
LES PORTES DES CÉVENNES;RÉSIDENCE DE TOURISME;Route de Logrian, 30610, SAUVE;;;O;3
LES JARDINS RENAISSANCE;RÉSIDENCE DE TOURISME;Rue des Fontaines, 37190, AZAY LE RIDEAU;;;O;3
GRAND BLEU   VILLAGE DES ALOÉS;RÉSIDENCE DE TOURISME;Cap Peyrefitte , 66290, CERBERE;;;O;3
GRAND BLEU  LES JARDINS DE NEPTUNE;RÉSIDENCE DE TOURISME;rue du Dr SCHWEITZER, 66750, SAINT CYPRIEN;;;O;3
LE VILLAGE DE LA MER;RÉSIDENCE DE TOURISME;LIEUDIT LE FRADIN, 85440, TALMONT SAINT HILAIRE;;;O;3
RESIDENCE PIERRE & VACANCES LA PINEDE;RÉSIDENCE DE TOURISME;245 Boulevard Alsace Lorraine - Presqu'île de Giens, 83400, HYERES;;;O;3
LE BELVEDERE;RÉSIDENCE DE TOURISME;AVENUE DU VENASQUE, 31110, SAINT MAMET;;;O;3
LES BALCONS DE LA ROSIÈRE;RÉSIDENCE DE TOURISME;Les Eucherts, 73700, MONTVALEZAN;;;O;3
RESIDENCE LES CHALETS DES CIMES;RÉSIDENCE DE TOURISME;"Lieu-dit """"Les Plans du Levant"""", 73300, FONTCOUVERTE LA TOUISSUIRE";;;O;3
ODALYS RÉSIDENCE CLAIRE RIVE;RÉSIDENCE DE TOURISME;LE BALAT GRAND, 46220, PRAYSSAC;;;O;3
RÉSIDENCE DU CHÂTEAU DE SALLES;RÉSIDENCE DE TOURISME;25 Route de Beguey, 33770, SALLES;;;O;3
RÉSIDENCE CAP'MED DE PORT CAMARGUE ;RÉSIDENCE DE TOURISME;55 rue du taillevent, 30240, LE GRAU-DU-ROI;;;O;3
ODALYS RESIDENCE ECRIN DES NEIGES;RÉSIDENCE DE TOURISME;residence les écrins des neiges, 73450, VALMENIER;;;O;3
RÉSIDENCE MAEVA LA MUZELLE;RÉSIDENCE DE TOURISME;3 place de Vénosc, 38860, LES DEUX ALPES;;;O;3
LE HAMEAU DE PEEMOR PEN;RÉSIDENCE DE TOURISME;Lieudit Penfrat, 29160, CROZON-MORGAT;;;O;3
ODALYS ;RÉSIDENCE DE TOURISME;La Croix de la mission, 35540, LE TRONCHET;;;O;3
ODALYS RÉSIDENCE LES CÔTEAUX DE SARLAT;RÉSIDENCE DE TOURISME;CHEMIN DE LA VIGNE DU FOUSSAT, 24200, SARLAT-LA-CANÉDA;;;O;3
LES FERMES DE SAMOËNS;RÉSIDENCE DE TOURISME;Lieu-dit les Beules, 74340, SAMOËNS;;;O;3
LES VILLAS DE BELGODÈRE;RÉSIDENCE DE TOURISME;lieu-dit locari, 20226, BELGODÈRE;;;O;3
LES TERRASSES DE L'OCÉAN;RÉSIDENCE DE TOURISME;Place de la Bastide, 40660, MOLIETS-ET-MAA;;;O;3
RESIDENCE LE HAMEAU DE L'AOUCHET;RÉSIDENCE DE TOURISME;"Lieu-dit """"Le Pousset"""", 40160, PARENTIS EN BORN";;;O;3
RÉSIDENCE MAEVA ANTARES;RÉSIDENCE DE TOURISME;QUARTIER FESTIVAL AVORIAZ 1800, 74110, MORZINE;;;O;3
IROISE ARMORIQUE;RÉSIDENCE DE TOURISME;Rue Armorique, 29280, LOCMARIA PLOUZANE;;;O;3
CLUB BELAMBRA - LES CHENES VERTS;RÉSIDENCE DE TOURISME;3235 ROUTE DE LA CORNICHE, 83700, SAINT-RAPHAEL;;;O;3
RÉSIDENCE  PIERRE ET VACANCES LE BELMONT;RÉSIDENCE DE TOURISME;VILLAGE CHARMETTOGER ARC 1800, 73700, BOURG SAINT MAURICE;;;O;3
PARK & SUITES VILLAGE CANNES MANDELIEU;RÉSIDENCE DE TOURISME;161 RUE YVES BRAYER, 6210, MANDELIEU-LA-NAPOULE;;;O;3
RÉSIDENCE PIERRE ET VACANCES LE CLOS D'EGUISHEIM;RÉSIDENCE DE TOURISME;1 RUE DU 1ER R.E.C, 68420, EGUISHEIM;;;O;3
RÉSIDENCE PIERRE ET VACANCES - LES CALANQUES DES ISSAMBRES;RÉSIDENCE DE TOURISME;BOULEVARD DU MéROU, 83380, LES ISSAMBRES;;;O;3
ODALYS RÉSIDENCE BLEU OCÉAN;RÉSIDENCE DE TOURISME;RUE DE LA BASTIDE, 40660, MOLIETS-ET-MAA;;;O;3
LES CHALETS D'ÉVIAN;RÉSIDENCE DE TOURISME;IMPASSE DU TIR AUX PIGEONS, 74500, ÉVIAN-LES-BAINS;;;O;3
CLUB BELAMBRA GUIDEL - BEG ER LENN LES PORTES DE L'OCÉAN;RÉSIDENCE DE TOURISME;ROUTE COTIÈRE, 56520, GUIDEL;;;O;3
CLUB BELAMBRA RIVIERA BEACH CLUB;RÉSIDENCE DE TOURISME;riviera, 4337 route de giens, 83400, HYÈRES;;;O;3
L'ORÉE DES PISTES;RÉSIDENCE DE TOURISME;superdevoluy, 5250, SAINT-ÉTIENNE-EN-DÉVOLUY;;;O;3
RÉSIDENCE MAEVA L'ESTRAN;RÉSIDENCE DE TOURISME;65 RUE DU PUITS D'ENFER LA PIRONNIERE, 85180, LE CHÂTEAU D'OLONNE;;;O;3
LES JARDINS D'ARVOR;RÉSIDENCE DE TOURISME;3 avenue de la mer, Corniche de la plage, 29950, BÉNODET;;;O;3
CLUB BELAMBRA SOUSTONS PLAGE PIGNADA;RÉSIDENCE DE TOURISME;ALLÉE DU LAC MARIN, 40140, SOUSTONS;;;O;3
RESIDENCE  PIERRE ET VACANCES LE RAMI ET LA MARELLE;RÉSIDENCE DE TOURISME;LES COCHES, 73210, BELLENTRE;;;O;3
CGH - LA REINE DES PRES;RÉSIDENCE DE TOURISME;LA COUR, 74340, SAMOENS;;;O;3
RÉSIDENCE LE CLOS DU ROCHER;RÉSIDENCE DE TOURISME;AVENUE DU CINGLE  - LIEU-DIT ROC CAYRE VéZèRE, 24620, LES EYZIES-DE-TAYAC-SIREUIL;;;O;3
OLIVARIUS APART'HÔTEL;RÉSIDENCE DE TOURISME;6 Avenue Halley, 59650, VILLENEUVE D'ASCQ;;;O;3
RÉSIDENCE LES CLARINES ;RÉSIDENCE DE TOURISME;QUARTIER DES PREYERAND, 73440, LES MENUIRES;;;O;3
RÉSIDENCE PIERRE ET VACANCES - LE CHANT DES OISEAUX;RÉSIDENCE DE TOURISME;CHEMIN DE LA TUILERIE, 14470, COURSEULLES-SUR-MER;;;O;3
DOMAINE DES SOURCES;RÉSIDENCE DE TOURISME;LE GUA DES BRASSES, 34330, LA SALVETAT-SUR-AGOUT;;;O;3
"RÉSIDENCE TOURISME """"LES BALCONS DE LA NESTE""""";RÉSIDENCE DE TOURISME;5 ROUTE DE LANçON, 65240, ARREAU;;;O;3
APPART'CITY;RÉSIDENCE DE TOURISME;18 rue du Maréchal Leclerc, 94410, SAINT MAURICE;;;O;3
LE DOMAINE DES CAZELLES;RÉSIDENCE DE TOURISME;Lieux-dits Bournach et le Pech, 46160, CAJARC;;;O;3
RÉSIDENCE GOELIA - AQUARESORT ;RÉSIDENCE DE TOURISME;1 RUE BERO BISTO , 47600, NÉRAC;;;O;3
ODALYS ROCHEBRUNE;RÉSIDENCE DE TOURISME;-, 5170, ORCIÈRES;;;O;3
APPART'CITY;RÉSIDENCE DE TOURISME;25 avenue Neil Armstrong, 33700, MÉRIGNAC;;;O;3
CITADINES PRESTIGE SAINT GERMAIN DES PRÉS;RÉSIDENCE DE TOURISME;53 ter rue des grands augustins, 75006, PARIS;;;O;3
FRASER SUITES HARMONIE PARIS LA DÉFENSE;RÉSIDENCE DE TOURISME;6 boulevard de Neuilly, 92400, COURBEVOIE;;;O;3
RESIDENCE LES TERRASES DE VERET;RÉSIDENCE DE TOURISME;QUARTIER FLAINE FORET EST, 74300, ARACHE;;;O;3
LES PARASOLS D'ARGENS ;RÉSIDENCE DE TOURISME;1761 avenue de la bouverie, 83520, ROQUEBRUNE SUR ARGENS;;;O;3
LES TERRASSES DE TERMIGNON;RÉSIDENCE DE TOURISME;rue de savoie, 73500, TERMIGNON;;;O;3
LES TERRASSES DE PEYRAGUDES;RÉSIDENCE DE TOURISME;STATION DE PEYRAGUDES-PEYRESOURDE BALESTAS, 65510, GERM;;;O;3
RESIDENCE MER & GOLF TOURMALET;RÉSIDENCE DE TOURISME;Avenue du Tourmalet, 65200, LA MONGIE;;;O;3
QUALITY SUITE BORDEAUX AEROPORT;RÉSIDENCE DE TOURISME;83 AVENUE JF KENNEDY, 33700, MERIGNAC;;;O;3
LE CLOS DES VIGNES;RÉSIDENCE DE TOURISME;18 rue du Merlandou, 24200, BERGERAC;;;O;3
RÉSIDENCE LES BALCONS DU VISO ;RÉSIDENCE DE TOURISME;LE BOURG, 5460, ABRIÈS;;;O;3
C2A RESIDENCE L'ACACIA;RÉSIDENCE DE TOURISME;RUE DE L'UKRAINE, 65100, LOURDES;;;O;3
"RÉSIDENCE """"SUN VALLEY""""";RÉSIDENCE DE TOURISME;PLAGNE SOLEIL, 73210, MACOT LA PLAGNE;;;O;3
ACQUA LINDA;RÉSIDENCE DE TOURISME;lieu-dit l'avillanela, 20230, POGGIO-MEZZANA;;;O;3
LE MAS DE TORREILLES;RÉSIDENCE DE TOURISME;boulevard de la plage, 66440, TORREILLES;;;O;3
LE HAMEAU DES SOURCES;RÉSIDENCE DE TOURISME;Château des Gipières, 26570, MONTBRUN-LES-BAINS;;;O;3
PIERRE ET VACANCES;RÉSIDENCE DE TOURISME;résidence les Mimosas 14 avenue de la rostagne , 6160, JUAN LES PINS;;;O;3
ODALYS HORIZON MORGAT;RÉSIDENCE DE TOURISME;Lieu dit le Penfrat, 29160, CROZON MORGAT;;;O;3
RESIDENCE CAMI REAL;RÉSIDENCE DE TOURISME;Rue du Chemin de Sailhan, 65170, SAINT LARY SOULAN;;;O;3
ODALYS BALNÉO ALADIN;RÉSIDENCE DE TOURISME;11 AVENUE DU GéNéRAL LECLERC, 65110, CAUTERETS;;;O;3
SUITE-HOME PARIS PORTE DE PANTIN;RÉSIDENCE DE TOURISME;25 rue Scandicci, 93500, PANTIN;;;O;3
LES CHALETS DE FLAMBEAU;RÉSIDENCE DE TOURISME;LE PLAN DES CHAMPS, 73480, LANSLEBOURG-MONT-CENIS;;;O;3
RÉSIDENCE LES GRANGES DU SOLEIL ;RÉSIDENCE DE TOURISME;Plagne Soleil, 73210, LA PLAGNE;;;O;3
RESIDENCE MAEVA PORT GUILLAUME;RÉSIDENCE DE TOURISME;Avenue des dunes, 14160, DIVES SUR MER;;;O;3
PARK AND SUITES;RÉSIDENCE DE TOURISME;1 BIS RUE DES CAUSSES, 91940, LES ULIS;;;O;3
DOMAINE DU CHÂTEAU;RÉSIDENCE DE TOURISME;123 RUE DU CLAVIER, 17140, LAGORD;;;O;3
RÉSIDENCE GOELIA - LES COTTAGES DU LAC ;RÉSIDENCE DE TOURISME;LA GRANDE PRADE , 24120, COLY ;;;O;3
RESIDENCE MER ET GOLF SOKO EDER;RÉSIDENCE DE TOURISME;RUE KATTLAIN AGUIRRE, 64500, CIBOURE;;;O;3
GOELIA LA GRANDE PLAGE;RÉSIDENCE DE TOURISME;1 avenue de l'Astre du Marin, 85800, SAINT-GILLES-CROIX-DE-VIE;;;O;3
DOMAINE DE MANON;RÉSIDENCE DE TOURISME;avenue de paris, 83870, SIGNES;;;O;3
SARL ARTS ET VIE RESIDENCES;RÉSIDENCE DE TOURISME;20 ROUTE DE LA VALLEE, 40660, MESSANGES;;;O;3
RÉSIDENCE ARREAU TROIS VALLEES ;RÉSIDENCE DE TOURISME;RUE DE L HAOUES - RÉSIDENCE LES TROIS VALLÉES, 65240, ARREAU;;;O;3
LES BALCONS DE LA VANOISE;RÉSIDENCE DE TOURISME;ZAC DE LA BOUCLE DE L'ARC, 73500, TERMINGNON ;;;O;3
MAEVA HYÈRES PARC;RÉSIDENCE DE TOURISME;5 avenue de la Méditerranée, 83400, HYÈRES;;;O;3
RESIDENCE ALL SUITES APPARTHOTEL LA TESTE;RÉSIDENCE DE TOURISME;LANDES DES DEUX CRASTES, 33260, LA TESTE DE BUCH;;;O;3
APPART'CITY;RÉSIDENCE DE TOURISME;64 rue Gabriel Péri, 78210, SAINT-CYR-L'ÉCOLE;;;O;3
ODALYS MILLE SOLEILS;RÉSIDENCE DE TOURISME;Rue des Cytises , 66120, FONT-ROMEU-ODEILLO-VIA;;;O;3
LES CHALETS EDELWEISS;RÉSIDENCE DE TOURISME;Lieudit la Lovatière, 73210, PLAGNE 1800;;;O;3
ESPACE THERMAL;RÉSIDENCE DE TOURISME;1 BD ALBERT CAMUS BP 156, 40104, DAX CEDEX;;;O;3
LE DOMAINE GOELIA;RÉSIDENCE DE TOURISME;ROUTE DU MOULIN , 40380, CASSEN ;;;O;3
RÉSIDENCE LE CHÂTEAU DE JOUARRES;RÉSIDENCE DE TOURISME;HAMEAU DE JOUARRES, 11700, AZILLE;;;O;3
RESIDHOTEL CAP BLEU;RÉSIDENCE DE TOURISME;quartier les arnettes, lieu-dit carro, boulevard de la vigie, 13500, MARTIGUES;;;O;3
LE DOMAINE DES CENTS LACS;RÉSIDENCE DE TOURISME;Palaus, 65110, CAUTERETS;;;O;3
RESIDENCE QUALITY HOTEL & SUITES;RÉSIDENCE DE TOURISME;27 rue du Chemin Rouge, 44300, NANTES;;;O;3
RESIDENCE KER JULIETTE;RÉSIDENCE DE TOURISME;2 avenue des Bleuets, 44380, PORNICHET;;;O;3
HÔTEL ONLYSUITES;RÉSIDENCE DE TOURISME;9 Allée des vergers, 95700, ROISSY-EN-FRANCE;;;O;3
TERRASSES DE LABRAU;RÉSIDENCE DE TOURISME;QUARTIER DU PONT LABRAU, 4260, LA FOUX D'ALLOS;;;O;3
PARK AND SUITES PRESTIGES;RÉSIDENCE DE TOURISME;111 bd marius vivier merle, 69003, LYON;;;O;3
CITADINES PRESTIGE LES HALLES PARIS;RÉSIDENCE DE TOURISME;4 rue des innocents, 75001, PARIS;;;O;3
L'ECRIN DES SYBELLES;RÉSIDENCE DE TOURISME;LIEUDIT LES PLANS DU LEVANT, 73300, LA TOUSSUIRE;;;O;3
SEJOURS ET AFFAIRES APPARTHOTEL ROISSY VILLAGE;RÉSIDENCE DE TOURISME;4 avenue de Montmorency, 95700, ROISSY EN FRANCE;;;O;3
RÉSIDENCE PIERRE ET VACANCES PREMIUM LES FERMES DU SOLEIL;RÉSIDENCE DE TOURISME;172 rue du Val renand, 74300, LES CARROZ D'ARACHES;;;O;3
RESIDENCE DU PARC - ESPACE 2 VACANCES;RÉSIDENCE DE TOURISME;2 rue Edouard Buffard, 77144, MONTÉVRAIN;;;O;3
ARTS ET VIE RÉSIDENCES MALAUCÈNE;RÉSIDENCE DE TOURISME;BOULEVARD DES REMPARTS, 84340, MALAUCÈNE;;;O;3
RESIDHOME APPARTHOTEL PARIS MASSY;RÉSIDENCE DE TOURISME;7 rue Christophe Colomb, 91300, MASSY;;;O;3
RESIDENCE LES GRANDES FEIGNES;RÉSIDENCE DE TOURISME;88 ROUTE DE VOLOGNE, 88250, LA BRESSE;;;O;3
RESIDÉAL ANTIBES;RÉSIDENCE DE TOURISME;240 Avenue Jules Grec, 6160, ANTIBES;;;O;3
RESIDHOME APPARTHOTEL LE CARRE D'OR ;RÉSIDENCE DE TOURISME;131 IMPASSE DU MANDEMENT, 1280, PREVESSIN MOENS;;;O;3
SPA MARIN DU VAL ANDRÉ;RÉSIDENCE DE TOURISME;43 rue Charles de Gannes, 22370, PLÉNEUF-VAL-ANDRÉ;;;O;3
LE DOMAINE DE L'ARDOISIERE;RÉSIDENCE DE TOURISME;Route de Saint Lary, 65170, VIELLE AURE;;;O;3
ODALYS LES TERASSES DE LA BERGERIE;RÉSIDENCE DE TOURISME;ODALYS LES TERASSES DE LA BERGERIE, 5170, ORCIERES;;;O;3
"RESIDHOTEL """"LES TERRASSES DU LAC""""";RÉSIDENCE DE TOURISME;Route de l'horloge, 74500, EVIAN;;;O;3
RÉSIDENCE CALA BIANCA;RÉSIDENCE DE TOURISME;lido de la marana, 20290, BORGO;;;O;3
ODALYS RÉSIDENCE LE REFUGE DU GOLF;RÉSIDENCE DE TOURISME;LIEU-DIT LES GéRATS, 74300, FLAINE;;;O;3
RÉSIDENCE LE HAMEAU DU PUY;RÉSIDENCE DE TOURISME;superdevoluy, 5250, SAINT-ÉTIENNE-EN-DÉVOLUY;;;O;3
RÉSIDENCE ADAGIO ACCESS GERZAT;RÉSIDENCE DE TOURISME;Route de Vichy, 63360, GERZAT;;;O;3
RÉSIDENCE ONDEALE;RÉSIDENCE DE TOURISME;route du chambourguet, 63610, SUPER-BESSE;;;O;3
RÉSIDENCE LA TURRA ;RÉSIDENCE DE TOURISME;310 Rue du Cheval Blanc - Valfréjus, 73500, MODANE;;;O;3
ODALYS RÉSIDENCE DU PORT;RÉSIDENCE DE TOURISME;PLACE DU PORT, 33990, HOURTIN;;;O;3
RÉSIDENCE LE DOMAINE D'ENSÉRUNE;RÉSIDENCE DE TOURISME;promenade de l'ancien stade, 34440, COLOMBIERS;;;O;3
RESIDENCE LES VALMONTS;RÉSIDENCE DE TOURISME;472 rue de la Leysse, 73000, CHAMBÉRY;;;O;3
RÉSIDENCE LES FERMES DE SAINTE FOY;RÉSIDENCE DE TOURISME;ZAC DE BONCONSIEL, 73640, SAINTE-FOY-TARENTAISE;;;O;3
ODALYS RÉSIDENCE THALASSA;RÉSIDENCE DE TOURISME;24 RUE DE LA CITé DES PINS , 85180, LES SABLES-D'OLONNE;;;O;3
PIERRE ET VACANCES LES TERRASSES D ARCANGUES;RÉSIDENCE DE TOURISME;LES TERRASSES D ARCANGUES, 64200, ARCANGUES;;;O;3
RESIDENCE DE LA PLAGE;RÉSIDENCE DE TOURISME;1 rue du phare, 80550, RESIDENCE PIERRE ET VACANCES PREMIUM LE CROTOY;;;O;3
RÉSIDENCE LE CERVIN;RÉSIDENCE DE TOURISME;LA PLAGNE SOLEIL, 73210, LA PLAGNE;;;O;3
RESIDENCE LE VAL D'AZUR;RÉSIDENCE DE TOURISME;5 AVENUS SAINT BERNARD, 6470, VALBERG;;;O;3
RÉSIDENCE CHATEAU DU MEE;RÉSIDENCE DE TOURISME;571 avenue Jean Monnet, 77350, LE MÉE SUR SEINE;;;O;3
RÉSIDENCE LES CRISTALLINES;RÉSIDENCE DE TOURISME;ZAC de Merlette 2 , 5170, ORCIÈRES;;;O;3
PIERRE ET VACANCES RÉSIDENCE LES CHALETS DE VALORIA;RÉSIDENCE DE TOURISME;Les Charbonnières, 73450, VALLOIRE;;;O;3
RÉSIDENCE PIERRE ET VACANCES LES BERGERS;RÉSIDENCE DE TOURISME;CHEMIN DE FONT MORELLE, 38750, ALPE D'HUEZ;;;O;3
RÉSIDENCE ODALYS LES GREENS DU BASSIN ;RÉSIDENCE DE TOURISME;ROUTE DE SANGUINET, GOLF DE GUJAN-MESTRAS, 33470, GUJAN-MESTRAS;;;O;3
ODALYS RÉSIDENCE L'OURS BLEU;RÉSIDENCE DE TOURISME;lieu-dit LE PLAN de l'ENVERS, 74660, VALLORCINE;;;O;3
"CLUB BELAMBRA BATZ-SUR-MER """"LES SALINES""""";RÉSIDENCE DE TOURISME;37 rue du Croisic, 44740, BATZ-SUR-MER;;;O;3
PIERRE ET VACANCES LE MONT SOLEIL;RÉSIDENCE DE TOURISME;Plagne Soleil, 73210, MACOT LA PLAGNE;;;O;3
PIERRE & VACANCES PREMIUM AVORIAZ L'AMARA;RÉSIDENCE DE TOURISME;Quartier de l'Amara - Avoriaz 1800, 74110, MORZINE;;;O;3
LE HAMEAU DE LA VÉZÈRE;RÉSIDENCE DE TOURISME;LE CôTEAU DE LA TERRASSE, Lieu-Dit LES FROMENTALS, 24260, LE BUGUE;;;O;3
PARK AND SUITES VILLAGE MONTEVRAIN;RÉSIDENCE DE TOURISME;12 RUE DE LA SOCIETE DES NATIONS, 77144, MONTEVRAIN;;;O;3
PARK AND SUITES ELEGANCE VILLEJUIF;RÉSIDENCE DE TOURISME;1 mail Simone de Beauvoir, 94800, VILLEJUIF;;;O;3
RÉSIDENCE LES CALANQUES;RÉSIDENCE DE TOURISME;Route des Sanguinaires, 20000, AJACCIO;;;O;3
COULEURS SOLEIL RÉSIDENCES;RÉSIDENCE DE TOURISME;17 avenue Maréchal Joffre, 6160, JUAN LES PINS;;;O;3
LES HAMEAUX DES LACS;RÉSIDENCE DE TOURISME;Bas de Loisirs, 82230, MONCLAR-DE-QUERCY;;;O;3
GOÉLIA LE DOMAINE DU MOULIN BLANC ;RÉSIDENCE DE TOURISME;CHEMIN DU MOULIN , 84220, BEAUMETTES;;;O;3
RÉSIDENCE GOELIA - LE DOMAINE DES OYATS ;RÉSIDENCE DE TOURISME;938 AVENUE DU DOCTEUR JOUSSEMET , 85560, LONGEVILLE-SUR-MER;;;O;3
VILLAGE VIGNEC;RÉSIDENCE DE TOURISME;Rue Principale, 65170, VIGNEC;;;O;3
RÉSIDENCE LE BIRDIE;RÉSIDENCE DE TOURISME;1 chemin des coves, 74210, GIEZ;;;O;3
APPART'CITY MARSEILLE;RÉSIDENCE DE TOURISME;118/120 rue de Ruffi, 13003, MARSEILLE;;;O;3
CHALET ALTITUDE 2000;RÉSIDENCE DE TOURISME;ARC 2000, 73700, BOURG SAINT MAURICE;;;O;3
LE GRAND LARGE;RÉSIDENCE DE TOURISME;1 rue dalbarade, 64200, BIARRITZ;;;O;3
LE PIC DE L'OURS;RÉSIDENCE DE TOURISME;55 Avenue Emmanuel Brousse, 66120, FONT-ROMEU-ODEILLO-VIA;;;O;3
MER & GOLF ILBARRITZ;RÉSIDENCE DE TOURISME;avenue de la roseraie, 64210, BICLART;;;O;3
RESIDENCE PIERRE ET VACANCES PREMIUM LES CRETS;RÉSIDENCE DE TOURISME;route du CHÂTELET, 73550, MERIBEL;;;O;3
RÉSIDENCE LES MAZETS DU VENTOUX;RÉSIDENCE DE TOURISME;Chemin rural dit de ronin et dit de saint-Raphaël, 84340, MALAUCÈNE;;;O;3
PRIVILÈGE HÔTELS RESORTS DOMAINE DE VAL QUEVEN;RÉSIDENCE DE TOURISME;Lieu-dit Kerrousseau, 56530, QUEVEN;;;O;3
ODALYS OLYMPE;RÉSIDENCE DE TOURISME;670, 1ère avenue, 6600, ANTIBES;;;O;3
"ODALYS """"LE CHATEAU DE PRÊTREVILLE""""";RÉSIDENCE DE TOURISME;Quartier de Prêtreville, 14600, GONNEVILLE SUR HONFLEUR;;;O;3
LES JARDINS DE BALNEA;RÉSIDENCE DE TOURISME;3 CHEMIN DE RIOUTOR, 65510, LOUDENVIELLE;;;O;3
LE MOULIN DES CORDELIERS;RÉSIDENCE DE TOURISME;1 RUE DES PONTS, 37600, LOCHES;;;O;3
RESIDHOME APPART'HOTEL SEINE SAINT GERMAIN;RÉSIDENCE DE TOURISME;2 AVENUE EIFFEL, 78420, CARRIERES SUR SEINE;;;O;3
GOÉLIA LE VILLAGE AZUR ;RÉSIDENCE DE TOURISME;545 BIS ROUTE DE LA BOUVERIE , 83480, PUGET-SUR-ARGENS ;;;O;3
LE CLOS DES FONTANEILLES;RÉSIDENCE DE TOURISME;Lieudit les Clos - Chemin Départemental 32, 66210, LES ANGLES;;;O;3
PARK AND SUITE ELEGANCE;RÉSIDENCE DE TOURISME;3 chemin de la plaine, 31700, CORNEBARIEU;;;O;3
CORSICA LES TERRASSES DE LOZARI;RÉSIDENCE DE TOURISME;ROUTE DE PALASCA, 20226, BELGODERE;;;O;3
PIERRE ET VACANCES LES NÉRÉÏDES;RÉSIDENCE DE TOURISME;Résidence Andromède, Belle Plagne, 73210, LA PLAGNE;;;O;3
RÉSIDENCE U PAESOLU;RÉSIDENCE DE TOURISME;pinarello, 20124, ZONZA;;;O;3
CLUB BELAMBRA LES PORTES DE LA DORDOGNE;RÉSIDENCE DE TOURISME;route départementale 673, 46500, ALVIGNAC;;;O;3
LES CHALETS DU GALIBIER I;RÉSIDENCE DE TOURISME;Route du Galibier - Moulin Benjamin, 73450, VALLOIRE;;;O;3
LE DOMAINE DE BERTHAUME;RÉSIDENCE DE TOURISME;Boulevard de la mer, Plage du Trez Hir, 29217, PLOUGONVELIN;;;O;3
RESIDHOME APPARTHOTEL TOLOSA;RÉSIDENCE DE TOURISME;279 avenue de Grande Bretagne, 31300, TOULOUSE;;;O;3
RÉSIDENCE LES CHALETS DE L'ADONIS;RÉSIDENCE DE TOURISME;Route de Val Thorens, les balcons des bruyères , 73440, LES MENUIRES;;;O;3
ADAGIO CITY APARTHOTEL KLEBER LA DÉFENSE;RÉSIDENCE DE TOURISME;73 avenue Gambetta, 92400, COURBEVOIE;;;O;3
"CLUB BELAMBRA """"LE DOMAINE DU GOLF""""";RÉSIDENCE DE TOURISME;ROUTE DES MORTINS - SAINT HILAIRE SAINT FLORENT, 49400, SAUMUR;;;O;3
RÉSIDENCE CASA D'ORINAJU;RÉSIDENCE DE TOURISME;plaine d'oletta, 20232, OLETTA;;;O;3
HIPARK NICE;RÉSIDENCE DE TOURISME;22 boulevard du Général Louis Delfino, 6300, NICE;;;O;3
"RESIDHOTEL """"LES FLOCONS DU SOLEIL""""";RÉSIDENCE DE TOURISME;La Joue du Loup, 5250, AGNIÈRES-EN-DÉVOLUY;;;O;3
OLIVARIUS APART'HOTEL;RÉSIDENCE DE TOURISME;34 BOULEVARD DU PORT, 95000, CERGY;;;O;3
RÉSIDENCE ÉTOILE DES CIMES;RÉSIDENCE DE TOURISME;ZAC DE BONCONSEIL, QUARTIER DE LA BATAILLETTE, 73640, SAINTE-FOY-TARENTAISE;;;O;3
CÔTÉ GREEN;RÉSIDENCE DE TOURISME;1213 ALLéE DES THERMES, 34990, JUVIGNAC;;;O;3
RESIDENCE LES CHALETS DES EVETTES;RÉSIDENCE DE TOURISME;"Lieu-dit """"ZECON"""", 73590, FLUMET";;;O;3
CLUB BELAMBRA LOU CASTEL ;RÉSIDENCE DE TOURISME;casteljau, 7460, CASTELJAU;;;O;3
 RÉSIDENCE GOELIA - LES DEMEURES DU LAC ;RÉSIDENCE DE TOURISME;LIEU DIT MAYNEOU ROUTE DE MONT DE MARSAN, 47700, CASTELJALOUX ;;;O;3
RÉSIDENCE GOELIA - LE ROND POINT DES PISTES ;RÉSIDENCE DE TOURISME;ZAC DES LONGES , 73130, SAINT-FRANÇOIS-LONGCHAMP;;;O;3
LE CHALET DU MONT VALLON SPA RESORT;RÉSIDENCE DE TOURISME;quartier les bruyères, 73440, SAINT-MARTIN-DE-BELLEVILLE;;;O;3
LES TERRASSES DE PENTREZ PLAGE;RÉSIDENCE DE TOURISME;rue d'ys, 29550, PENTREZ ST NIC;;;O;3
LES GENTIANES;RÉSIDENCE DE TOURISME;Lieu dit Côte de Belette , 38650, GRESSE EN VERCORS;;;O;3
RÉSIDENCE PIERRE ET VACANCES PREMIUM PORT PRESTIGE;RÉSIDENCE DE TOURISME;1 AVENUE FRéDéRIC MISTRAL, 6600, ANTIBES;;;O;3
LES BALCONS DE VAL CENIS;RÉSIDENCE DE TOURISME;TERRES GRASSES, 73480, LANSLEVILLARD;;;O;3
ARTS ET VIE RÉSIDENCE;RÉSIDENCE DE TOURISME;LA CIME DES PRéS CHABERT, 5220, LE MONÊTIER-LES-BAINS;;;O;3
LES HAUTS DE PEYRAGUDES;RÉSIDENCE DE TOURISME;STATION DE PEYRAGUDES, 65240, GERM;;;O;3
RÉSIDENCE LA BELLE ÉPOQUE;RÉSIDENCE DE TOURISME;Rue Marcel Holleville , 80350, MERS-LES-BAINS;;;O;3
RÉSIDENCE DU GOLF;RÉSIDENCE DE TOURISME;Rue Jouy d'Arnaud, 66750, SAINT-CYPRIEN;;;O;3
RÉSIDENCE PIERRE ET VACANCES - LE HAMEAU DE LA PINÈDE;RÉSIDENCE DE TOURISME;129 Boulevard Alsace Lorraine, 83400, HYÈRES;;;O;3
CITADINES PLACE D'ITALIE PARIS;RÉSIDENCE DE TOURISME;18 Place d'Italie, 75013, PARIS;;;O;3
DOMAINE MÉLODY;RÉSIDENCE DE TOURISME;Route du Village, 20221, SANTA-MARIA-POGGIO;;;O;3
PORT MARINE;RÉSIDENCE DE TOURISME;5 Avenue Georges Pompidou, 83120, SAINTE-MAXIME;;;O;3
RÉSIDENCE LES BALCONS D'AIX;RÉSIDENCE DE TOURISME;LES BALCONS DAIX, 73230, LES DÉSERTS;;;O;3
LES CHALETS DU GALIBIER II;RÉSIDENCE DE TOURISME;Route du Galibier - Moulin Benjamin, 73450, VALLOIRE;;;O;3
RESIDENCE LISA MARIA;RÉSIDENCE DE TOURISME;Favone, 20145, SARI SOLENZARA;;;O;3
RÉSIDENCE LE CENTAURE ;RÉSIDENCE DE TOURISME;FLAINE FORUM, 74300, FLAINE;;;O;3
ODALYS RÉSIDENCE LE HAMEAU DU LAC;RÉSIDENCE DE TOURISME;LA PEYRADE, 12390, RIGNAC;;;O;3
SÉJOURS ET AFFAIRES APPARTHOTELS SAINT GENIS;RÉSIDENCE DE TOURISME;73 rue Blaise Pascal, 1630, SAINT-GENIS-POUILLY;;;O;3
RESIDENCE PLEIN SUD MVACANCES;RÉSIDENCE DE TOURISME;L'Adrech de Chauvet . Quartier de l'Aiguille, 4260, LA FOUX D'ALLOS;;;O;3
PARK AND SUITES ELEGANCE LYON CITE INTERNATIONALE;RÉSIDENCE DE TOURISME;157 GRANDE RUE DE SAINT CLAIR, 69300, CALUIRE-ET-CUIRE;;;O;3
LES JARDINS DE L'OYAT;RÉSIDENCE DE TOURISME;5 AVENUE MAURICE MARTIN, 40200, MIMIZAN;;;O;3
PARK AND SUITES ELEGANCE GRENOBLE;RÉSIDENCE DE TOURISME;25 avenue Doyen Louis Weil, 38000, GRENOBLE;;;O;3
DOMAINE DES MONEDIÈRES;RÉSIDENCE DE TOURISME;DOMAINE DES MONEDIèRES, 19800, MEYRIGNAC-L'ÉGLIS;;;O;3
RÉSIDENCE LE SPLENDID;RÉSIDENCE DE TOURISME;2 avenue des bains, 38580, ALLEVARD;;;O;3
PARK AND SUITES VILLAGE;RÉSIDENCE DE TOURISME;BOULEVARD DE LERY, 83140, SIX FOURS LES PLAGES;;;O;3
RÉSIDENCE LES TERRASSES DU GOLF;RÉSIDENCE DE TOURISME;47 Boulevard de la Mer, 64600, ANGLET;;;O;3
RÉSIDENCE GOELIA - LES BALCONS D'ANAÏS ;RÉSIDENCE DE TOURISME;ROUTE DES TERRES, 73500, LA NORMA;;;O;3
LES ALPAGES DE CHAMPAGNY;RÉSIDENCE DE TOURISME;ZAC LA PIAT, 73350, CHAMPAGNY EN VANOISE;;;O;3
APPART'CITY;RÉSIDENCE DE TOURISME;36 rue Général Larminat, 33000, BORDEAUX;;;O;3
LES BALCONS DE SIRIUS;RÉSIDENCE DE TOURISME;Zone de Chérine, 5600, RISOUL;;;O;3
ADAGIO ACCESS PARIS QUAI D'IVRY;RÉSIDENCE DE TOURISME;50 Boulevard de Brandebourg, 94200, IVRY SUR SEINE;;;O;3
RÉSIDENCE LE DOMAINE DU PHARE;RÉSIDENCE DE TOURISME;21 RUE AUSONE, 33123, LE VERDON-SUR-MER;;;O;3
GOÉLIA LE MAS DES ARÈNES ;RÉSIDENCE DE TOURISME;IMPASSE DES ARèNES , 13890, MOURIÈS;;;O;3
RESIDENCE MAEVA LES RIVES DE LA SEUGNE;RÉSIDENCE DE TOURISME;ZAC DU VAL DE SEUGNE, 17500, JONZAC;;;O;3
ARTS ET VIE RÉSIDENCE DE SAMOËNS ;RÉSIDENCE DE TOURISME;339 ROUTE DU GRAND MASSIF, 74340, SAMOËNS;;;O;3
RESIDENCE PIERRE ET VACANCES LE PARC ARRADOY;RÉSIDENCE DE TOURISME;LE PARC ARRADOY , 64220, UHART CIZE;;;O;3
PARK AND SUITES PRESTIGE TOULOUSE AÉROPORT;RÉSIDENCE DE TOURISME;10 Place de la Révolution, 31700, BLAGNAC;;;O;3
ODALYS RÉSIDENCE FLEUR DE SEL;RÉSIDENCE DE TOURISME;ROUTE DE LA FALAISE, 56520, GUIDEL;;;O;3
LE VILLAGE DES LAPONS;RÉSIDENCE DE TOURISME;Chemin de l'Echellier, 73620, LES SAISIES-HAUTELUCE;;;O;3
PARK AND SUITES;RÉSIDENCE DE TOURISME;RUE GRANDES VARENNES, 21121, AHUY;;;O;3
LE BONHEUR DES PISTES;RÉSIDENCE DE TOURISME;les près de l'aumône, 73480, LANSLEVILLARD;;;O;3
CAP GREEN;RÉSIDENCE DE TOURISME;17 Avenue du Golf - Sables d'Or les Pins, 22240, FREHEL;;;O;3
SA LE BOSQUET;RÉSIDENCE DE TOURISME;121 CHEMIN DE L ESCOURCHE- BP 131, 83150, BANDOL;;;O;3
 LE CRISTAL DE L'ALPE;RÉSIDENCE DE TOURISME;RUE DU POUTAT, 38750, ALPE D'HUEZ;;;O;3
ODALYS CITY FERNEY GENÈVE;RÉSIDENCE DE TOURISME;13 CHEMIN DU LEVANT, 1210, FERNEY-VOLTAIRE;;;O;3
APPART'CITY;RÉSIDENCE DE TOURISME;1 route départementale 195 - La Mare Mazarin, 78114, MAGNY-LES-HAMEAUX;;;O;3
PARK AND SUITES ELEGANCE SAINT NAZAIRE;RÉSIDENCE DE TOURISME;47 Boulevard de la Libération, 44600, SAINT NAZAIRE;;;O;3
LES HAMEAUX DE MIEL;RÉSIDENCE DE TOURISME;miel, 19190, BEYNAT;;;O;3
RESIDENCE PIERRE ET VACANCES LE PHARE DE TRESCADEC;RÉSIDENCE DE TOURISME;RUE JEAN JACQUES ROUSSEAU, 29770, AUDIERNE;;;O;3
APPART'HOTEL PRIVILÈGE GUILLAUMET;RÉSIDENCE DE TOURISME;36 grande rue saint michel, 31400, TOULOUSE;;;O;3
RÉSIDENCE MAEVA  LA PERRIERE;RÉSIDENCE DE TOURISME;768 ROUTE DE LA PISCINE, 74220, LA CLUSAZ;;;O;3
LES CHALETS DU THABOR;RÉSIDENCE DE TOURISME;181 RUE DES BETTETS, 73500, VALFRÉJUS;;;O;3
VICTORIA GARDEN;RÉSIDENCE DE TOURISME;13 avenue du Maréchal Foch, 65100, LOURDES;;;O;3
RÉSIDENCE PIERRE ET VACANCES PREMIUM LES CHALETS DU FORUM;RÉSIDENCE DE TOURISME;1 RUE DU PLANTRET, 73120, COURCHEVEL;;;O;3
APPART'CITY;RÉSIDENCE DE TOURISME;9bis quai Conti, 78430, LOUVECIENNES;;;O;3
RESIDENCE PIERRE ET VACANCES CAP AZUR;RÉSIDENCE DE TOURISME;93 ave de la pointe, 29170, FOUESNANT;;;O;3
LE HAMEAU DE VALLOIRE;RÉSIDENCE DE TOURISME;LIEUDIT LA CURIA, 73450, VALLOIRE;;;O;3
ODALYS RÉSIDENCE LE DOMAINE DES ROIS;RÉSIDENCE DE TOURISME;12 FAUBOURG SAINT PIERRE, 68750, BERGHEIM;;;O;3
RÉSIDENCE MAEVA - LE HAMEAU DU GOLF;RÉSIDENCE DE TOURISME;AVENUE SCALBY-NEWBY, 44210, PORNIC;;;O;3
ODALYS RÉSIDENCE BEAU SOLEIL;RÉSIDENCE DE TOURISME;CHEMIN DE LA FALAISE, 11100, NARBONNE;;;O;3
MER ET GOLF EUGENIE  ;RÉSIDENCE DE TOURISME;54, 56 RUE DE MADRID, 64200, BIARRITZ;;;O;3
RÉSIDENCE GOELIA ROYAL CAP;RÉSIDENCE DE TOURISME;304 boulevard éric tabarly, 6270, VILLENEUVE LOUBET;;;O;3
LA MARQUISIÉ;RÉSIDENCE DE TOURISME;Lieu-dit La Girardié, 81340, TRÉBAS;;;O;3
RÉSIDENCE ADONIS LES HAUTS DE HONFLEUR;RÉSIDENCE DE TOURISME;AVENUE LE JUMEL, Route Départementale 579A, 14600, EQUEMAUVILLE;;;O;3
RESIDENCE L'AIGLE BLEU;RÉSIDENCE DE TOURISME;3, rue Roger Froger, 5100, BRIANCON;;;O;3
RÉSIDENCE LE TRIANON;RÉSIDENCE DE TOURISME;161 boulevard de La Plage, 33120, ARCACHON;;;O;3
RÉSIDENCE BELLEVUE;RÉSIDENCE DE TOURISME;LE NANT, 73130, SAINT-FRANÇOIS-LONGCHAMP;;;O;3
APPART'CITY;RÉSIDENCE DE TOURISME;190 rue Jean Rostand, 31670, LABEGE;;;O;3
RESIDENCE MAEVA LA DAILLE ;RÉSIDENCE DE TOURISME;Maeva la daille , 73150, VAL D'ISERE ;;;O;3
CLUB BELAMBRA LE CASTEL SAINTE-ANNE;RÉSIDENCE DE TOURISME;rue des calculots, 22730, TRÉGASTEL;;;O;3
RÉSIDENCE MAEVA LE PÉDROU ;RÉSIDENCE DE TOURISME;20 rue du docteur Capelle, 66120, FONT-ROMEU-ODEILLO-VIA;;;O;3
LES TERRASSES DU LAC;RÉSIDENCE DE TOURISME;400 Promenade de l'Etang, 40200, AUREILHAN;;;O;3
LE HAMEAU DU BORSAT;RÉSIDENCE DE TOURISME;QUARTIER DU LAITELET, 73320, TIGNES;;;O;3
APPART'CITY;RÉSIDENCE DE TOURISME;219 avenue Descartes, 93150, LE BLANC MESNIL;;;O;3
LE DOMAINE DE L'OCEAN;RÉSIDENCE DE TOURISME;CHEMIN DE LA BRIDELAIS, 44250, ST BREVIN L'OCEAN;;;O;3
APPART'VACANCES;RÉSIDENCE DE TOURISME;52 avenue des Fontaines, 86270, LA ROCHE-POSAY;;;O;3
ADAGIO CITY APARTHOTEL PARC LA DÉFENSE;RÉSIDENCE DE TOURISME;1 rue des Lilas d'Espagne, 92400, COURBEVOIE;;;O;3
RESIDÉAL PREMIUM CANNES;RÉSIDENCE DE TOURISME;11 RUE DU MEDECIN BERTRAND LEPINE, 6400, CANNES;;;O;3
RÉSIDENCE MAEVA LE MONTANA;RÉSIDENCE DE TOURISME;ROUTE DU TOURMALET, 65200, LA MONGIE;;;O;3
ODALYS RÉSIDENCE LE SOLEIL D'AURE;RÉSIDENCE DE TOURISME;RUE DES COUDèRES, 65170, SAINT-LARY-SOULAN;;;O;3
ADAGIO TOULOUSE PARTHÉNON;RÉSIDENCE DE TOURISME;86 allée Jean Jaurès, 31000, TOULOUSE;;;O;3
APPART'CITY;RÉSIDENCE DE TOURISME;3 avenue Simon Vouet, 78560, LE PORT MARLY;;;O;3
APPART'CITY LE MANS CENTRE;RÉSIDENCE DE TOURISME;34 boulevard Robert Jarry, 72000, LE MANS;;;O;3
RÉSIDENCE ODALYS PRA SAINTE-MARIE;RÉSIDENCE DE TOURISME;LIEU DIT SAINTE-MARIE, 5560, VARS;;;O;3
RÉSIDENCE GOELIA - AGUYLENE ;RÉSIDENCE DE TOURISME;RUE DE LA GARDIOLE , 34280, CARNON ;;;O;3
CITADINES GENÈVE FERNEY-VOLTAIRE;RÉSIDENCE DE TOURISME;34 rue de Genève, 1210, FERNEY-VOLTAIRE;;;O;3
LES CHALETS DU LAC DE LA VINGEANNE;RÉSIDENCE DE TOURISME;-, 52250, LONGEAU-PERCEY;;;O;3
RÉSIDENCE LES AGAPANTHES DE L'ESTÉREL;RÉSIDENCE DE TOURISME;108 avenue Maurice Chevalier, 6150, CANNES-LA-BOCCA;;;O;3
LE CRYSTAL;RÉSIDENCE DE TOURISME;1 AVENUE DE PASSAU, 6800, CAGNES SUR MER;;;O;3
RÉSIDENCE PIERRE ET VACANCES LES COTEAUX ET LA MER;RÉSIDENCE DE TOURISME;16 Route des roches blanches, 29100, DOUARNENEZ;;;O;3
RÉSIDENCE MAEVA CENTRE;RÉSIDENCE DE TOURISME;14 QUAI DES MARANS, 17000, LA ROCHELLE;;;O;3
APPART CITY;RÉSIDENCE DE TOURISME;3 rue du chaudron, 87000, LIMOGES;;;O;3
RÉSIDENCE GOELIA DU GOLF;RÉSIDENCE DE TOURISME;20 AVENUE DES FRANCAIS LIBRES , 29660, CARANTEC ;;;O;3
RÉSIDENCE LE TÉLÉMARK ;RÉSIDENCE DE TOURISME;Lieu-dit Les Côtes, 73320, TIGNES;;;O;3
PARK AND SUITES;RÉSIDENCE DE TOURISME;7 bis rue de l'hôtellerie, 44470, CARQUEFOU;;;O;3
ODALYS RÉSIDENCE LA FERME DE DEAUVILLE;RÉSIDENCE DE TOURISME;15 AVENUE DE LA VALLée, 14800, SAINT-ARNOULT;;;O;3
LES CHALETS DE JOUVENCE;RÉSIDENCE DE TOURISME;Route des servages, 74300, LES CARROZ D'ARACHES;;;O;3
SÉJOURS ET AFFAIRES APPARTHOTEL LILLE EUROPE;RÉSIDENCE DE TOURISME;271 Avenue Willy Brandt, 59777, LILLE;;;O;3
LE CHATEAU DES MAGNANS;RÉSIDENCE DE TOURISME;Route de Restefond , 4850, JAUSIERS;;;O;3
ODALYS RÉSIDENCE LES HAUTS DE BALARUC;RÉSIDENCE DE TOURISME;3 IMPASSE DES FAUVETTES, 34540, BALARUC-LES-BAINS;;;O;3
LA GINABELLE;RÉSIDENCE DE TOURISME;29 PASSAGE DU CREPON, 74400, CHAMONIX;;;O;3
RÉSIDENCE LA COMBE ;RÉSIDENCE DE TOURISME;23 route de la buidonnière, 73500, AUSSOIS;;;O;3
RESIDENCE PIERRE ET VACANCES CAP MARINE;RÉSIDENCE DE TOURISME;rue men meur, 29730, LE GUILVINEC;;;O;3
LES BALCONS DU SOLEIL;RÉSIDENCE DE TOURISME;LE MOUARET PRE VILLOT, 73130, SAINT FRANCOIS LONGCHAMPS;;;O;3
RESIDHOME APPARTHOTEL PARIS GUYANCOURT;RÉSIDENCE DE TOURISME;6 boulevard du Château, 78280, GUYANCOURT;;;O;3
LES CARRELETS;RÉSIDENCE DE TOURISME;111 Avenue de la Grande Côte, 17420, SAINT PALAIS SUR MER;;;O;3
APPART'CITY;RÉSIDENCE DE TOURISME;190 route de Villemoustaussou, 11000, CARCASSONNE;;;O;3
LE DOMAINE DE BOURGEAC;RÉSIDENCE DE TOURISME;Lieudit Bourgeac , 13520, LE PARADOU;;;O;3
CITADINES ANTIGONE MONTPELLIER;RÉSIDENCE DE TOURISME;588 boulevard d'Antigone, 34000, MONTPELLIER;;;O;3
RESIDHOME APPARTHOTEL LES BERGES DE LA LOIRE;RÉSIDENCE DE TOURISME;3 ALLEE JACQUES BERQUE, 44000, NANTES;;;O;3
RÉSIDENCE PIERRE ET VACANCES LE HAMEAU DU LAC ;RÉSIDENCE DE TOURISME;Lac de Marciac, 32230, MARCIAC;;;O;3
RESIDENCE PIERRE ET VACANCES HAGUNA BIARRITZ;RÉSIDENCE DE TOURISME;17 avenue de la Reine Victoria, 64200, BIARRITZ;;;O;3
ADAGIO MARSEILLE CENTRE REPUBLIQUE;RÉSIDENCE DE TOURISME;30 RUE JEAN TRINQUET, 13002, MARSEILLE;;;O;3
ADAGIO CITY APARTHOTEL;RÉSIDENCE DE TOURISME;35 COURS MICHELET, 92060, PARIS LA DEFENSE;;;O;3
RESIDENCE PIERRE ET VACANCES L'ARCHIPEL;RÉSIDENCE DE TOURISME;64 bd Thalassa, 22700, PERROS GUIREC;;;O;3
RÉSIDENCE GOELIA - LA PALMERAIE;RÉSIDENCE DE TOURISME;295 RUE DE LA PLAGE  QUARTIER DE LA GARENNE , 17190, SAINT-GEORGES-D'OLÉRON;;;O;3
LES CHALETS DU BELVÉDÈRE;RÉSIDENCE DE TOURISME;Boulevard du Cambre d'Aze, 66120, FONT-ROMEU-ODEILLO-VIA;;;O;3
APPART'CITY;RÉSIDENCE DE TOURISME;29 boulevard Berthelot, 34000, MONTPELLIER;;;O;3
ODALYS RÉSIDENCE LE ROYAL;RÉSIDENCE DE TOURISME;21 RUE DU GOLF, 68580, MOOSLARGUE;;;O;3
ADAGIO MONTROUGE;RÉSIDENCE DE TOURISME;96 rue Gabriel Péri, 92120, MONTROUGE;;;O;3
RÉSIDENCE PIERRE ET VACANCES - LES RIVAGES DU PARC;RÉSIDENCE DE TOURISME;71 Allée Louis Moreno, 6500, MENTON;;;O;3
APPART'CITY;RÉSIDENCE DE TOURISME;19 rue Berthe Morisot, 59000, LILLE;;;O;3
ANTARES;RÉSIDENCE DE TOURISME;Zone de Chérine , 5600, RISOUL;;;O;3
RÉSIDENCE PIERRE ET VACANCES - ÉLECTRA AVORIAZ;RÉSIDENCE DE TOURISME;QUARTIER LES CROZATS, 74110, MORZINE;;;O;3
LES SABLES VIGNIERS;RÉSIDENCE DE TOURISME;5 allée du Pirate Lazor, 17190, SAINT-GEORGES-D'OLÉRON;;;O;3
RÉSIDENCE LE CHEVAL BLANC  ;RÉSIDENCE DE TOURISME;120 rue des Bettets, 73500, VALFRÉJUS;;;O;3
RÉSIDENCE HÔTELIÈRE DU GOLF;RÉSIDENCE DE TOURISME;PLACE WILLIAM SHARP, 64500, CIBOURE;;;O;3
ODALYS CITY BIOPARC;RÉSIDENCE DE TOURISME;60 AVENUE ROCKEFELLER, 69008, LYON;;;O;3
CERISE MAISONS LAFFITE;RÉSIDENCE DE TOURISME;10 RUE DE PARIS, 78600, MAISONS LAFFITTE;;;O;3
SEJOURS ET AFFAIRES APPARTHOTEL CLAIRMARAIS;RÉSIDENCE DE TOURISME;25 rue Edouard Mignot, 51100, REIMS;;;O;3
LA CIME DES ARCS ;RÉSIDENCE DE TOURISME;place basse Arcs 2000, 73700, BOURG SAINT MAURICE ;;;O;3
LE DOMAINE DE GLÉNAN;RÉSIDENCE DE TOURISME;41 avenue de glénan, 29170, FOUESNANT;;;O;3
RESIDENCE PIERRE ET VACANCES LE TIKAL;RÉSIDENCE DE TOURISME;Rue du Soleil, 73440, SAINT-MARTIN-DE-BELLEVILLE;;;O;3
CERISE CARCASSONNE;RÉSIDENCE DE TOURISME;1 RUE DARIUS MILHAUD, 11000, CARCASSONNE;;;O;3
RÉSIDENCE ALPINA;RÉSIDENCE DE TOURISME;voie du berger, 6660, AURON;;;O;3
SGS LE CLARIDGE CHAMPS ELYSEES;RÉSIDENCE DE TOURISME;74 AVENUE DES CHAMPS ELYSEES, 75008, PARIS;;;O;3
LE PRAT DE LIS;RÉSIDENCE DE TOURISME;Route de Mont-Louis, 66210, LES ANGLES;;;O;3
RESIDENCE LES ALLÉES DU GREEN;RÉSIDENCE DE TOURISME;route de combertault, 21200, BEAUNE - LEVERNOIS;;;O;3
RESIDENCE LES BAINS D'AVENE;RÉSIDENCE DE TOURISME;LIEU DIT BEAU DESERT CHEMIN DPAL 8, 34260, AVENE;;;O;3
RÉSIDENCE APPART'CITY LYON LA PART-DIEU VILLETTE;RÉSIDENCE DE TOURISME;6 avenue Lacassagne, 69003, LYON;;;O;3
RÉSIDENCE PIERRE ET VACANCES LES BALCONS DE BELLEVARDE;RÉSIDENCE DE TOURISME;la daille, 73150, VAL-D'ISÈRE;;;O;3
RESIDEHOME APPARTHOTEL ARCACHON PLAZZA;RÉSIDENCE DE TOURISME;49, avenue Lamartine, 33120, ARCACHON;;;O;3
PARK & SUITES VILLAGE BOIS D'ARCY;RÉSIDENCE DE TOURISME;2A rue Georges Melies, 78390, BOIS D'ARCY;;;O;3
RÉSIDENCE LES GRANDS PINS;RÉSIDENCE DE TOURISME;CHEMIN DE BABAOU, 4800, GRÉOUX-LES-BAINS;;;O;3
LE MAS DES FLAMANTS;RÉSIDENCE DE TOURISME;60 CHEMIN DE TROUCHE, 30220, AIGUES-MORTES;;;O;3
RÉSIDENCE PIERRE & VACANCES LES DUNES DU MÉDOC;RÉSIDENCE DE TOURISME;67 boulevard Marsan de Montbrun, 33780, SOULAC-SUR-MER;;;O;3
ADAGIO NANTES CENTRE;RÉSIDENCE DE TOURISME;19 Allée du Commandant CHARCOT, 44000, NANTES;;;O;3
CITADINES BASTILLE MARAIS PARIS;RÉSIDENCE DE TOURISME;37 BD RICHARD LENOIR, 75011, PARIS;;;O;3
LES MARQUISES;RÉSIDENCE DE TOURISME;9 impasse brinjot, 65100, ASPIN EN LAVEDAN;;;O;3
SÉJOURS ET AFFAIRES APPARTHOTEL PARK AVENUE;RÉSIDENCE DE TOURISME;2 rue Marie Madeleine Fourcade, 69007, LYON;;;O;3
"RESIDELIA """"LES GORGES DE LA TRUYERE""""";RÉSIDENCE DE TOURISME;7, Route de Villecomtal, 12140, ENTRAYGUES SUR TRUYERE;;;O;3
ADAGIO BORDEAUX GAMBETTA;RÉSIDENCE DE TOURISME;40 RUE EDMOND MICHELET, 33000, BORDEAUX;;;O;3
LES FERMES EMIGUY;RÉSIDENCE DE TOURISME;RUE DU FRONT DE NEIGE - LIEU-DIT LES CLOS, 74260, LES GETS;;;O;3
ODALYS RÉSIDENCE EDENARC;RÉSIDENCE DE TOURISME;LIEU-DIT CHANTEL, 73700, LES ARCS;;;O;3
SÉJOURS ET AFFAIRES APPARTHOTEL RIVE GAUCHE;RÉSIDENCE DE TOURISME;20 COURS DU DANUBE, 77700, SERRIS;;;O;3
RESIDHOME APPARTHOTEL OCCITANIA;RÉSIDENCE DE TOURISME;93 avenue de Lombez, 31300, TOULOUSE;;;O;3
HIPARK GRENOBLE;RÉSIDENCE DE TOURISME;6 RUE AUGUSTE GENIN, 38000, GRENOBLE;;;O;3
LES CONSULS DE MER;RÉSIDENCE DE TOURISME;455 Avenue professeur étienne antonelli, 34000, MONTPELLIER;;;O;3
CITADINES JAS DE BOUFFAN AIX;RÉSIDENCE DE TOURISME;4 AVENUE ACHILLE EMPERAIRE, 13090, AIX EN PROVENCE;;;O;3
RESIDENCE MAEVA LES EMBRUNS;RÉSIDENCE DE TOURISME;17 RUE DE GHEEST, 14800, DEAUVILLE;;;O;3
RÉSIDENCE LE LEVANT;RÉSIDENCE DE TOURISME;5 Avenue des Thermes, 64250, CAMBO-LES-BAINS;;;O;3
PRIVILÈGE RESORT L'OUSTAU DE SORGUE;RÉSIDENCE DE TOURISME;345 route de Fontaine de Vaucluse, 84800, L'ISLE-SUR-LA-SORGUE;;;O;3
ADAGIO ACCESS NANTES VIARME;RÉSIDENCE DE TOURISME;42 RUE RUSSEIL, 44000, NANTES;;;O;3
RESIDHOME APPARTHOTEL ASNIÈRES;RÉSIDENCE DE TOURISME;1 rue Eugénie Eboué, 92600, ASNIÈRES-SUR-SEINE;;;O;3
RESIDENCE MAEVA LA RIVIERE;RÉSIDENCE DE TOURISME;187 PROMENADE MARIE PARADIS, 74400, CHAMONIX;;;O;3
RESIDENCE MAEVA EGUZKI;RÉSIDENCE DE TOURISME;13, Avenue André Ithurralde, 64500, ST JEAN DE LUZ;;;O;3
PARK AND SUITES AIX LA DURANNE;RÉSIDENCE DE TOURISME;300 AVENUE DU GRAND VALLAT, 13290, LES MILLES;;;O;3
GRAND BLEU LES SEGALIERES;RÉSIDENCE DE TOURISME;route de cajarc, 46500, GRAMAT;;;O;3
LE GRAND TETRAS;RÉSIDENCE DE TOURISME;LD LES BEULES, 74340, SAMOËNS;;;O;3
CGH LE NEVADA ;RÉSIDENCE DE TOURISME;VAL CLARET CENTRE, 73320, TIGNES;;;O;3
PARK AND SUITES PRESTIGE PARIS GRANDE BIBLIOTHÈQUE;RÉSIDENCE DE TOURISME;70 avenue de France, 75013, PARIS;;;O;3
RESIDHOME APPARTHOTEL PARIS ÉVRY;RÉSIDENCE DE TOURISME;1 rue Ambroise Croizat, 91000, ÉVRY;;;O;3
LE CHALET DES ECRINS;RÉSIDENCE DE TOURISME;LE CHALET DES ECRINS, 5170, ORCIÈRES;;;O;3
APPART'CITY;RÉSIDENCE DE TOURISME;18 bis route de Turin, 6300, NICE;;;O;3
PERTAMINA VILLAGE;RÉSIDENCE DE TOURISME;route nationale 198, 20169, BONIFACIO;;;O;3
VILLAGE CENTER GESTION LE MAS DES CIGALES;RÉSIDENCE DE TOURISME;384 rue du romarin, 34160, CASTRIES;;;O;3
ODALYS RÉSIDENCE LA PRIMAVERA;RÉSIDENCE DE TOURISME;9 AVENUE D'OUTRE MER, 34300, AGDE;;;O;3
PRESTIGE DU GOLFE;RÉSIDENCE DE TOURISME;3 Avenue Passeur Challiès, 34300, AGDE;;;O;3
RÉSIDENCE MAEVA BLEUE OCÉANE;RÉSIDENCE DE TOURISME;5 chaussée des Bernaches, 56340, CARNAC;;;O;3
RESIDHOME APPARTHOTEL CASERNE DE BONNE ;RÉSIDENCE DE TOURISME;21 rue Lazare Carnot, 38100, GRENOBLE;;;O;3
ODALYS RESIDENCE L OURS BLANC;RÉSIDENCE DE TOURISME;ZAC des islettes lieu dit chapiet, 73450, VALMENIER;;;O;3
RESIDENCE ECO LE RUITOR;RÉSIDENCE DE TOURISME;La bataillette Sainte foy Tarentaise, 73640, SAINTE FOY TARENTAISE;;;O;3
LES ROCHES DOUVRES;RÉSIDENCE DE TOURISME;5 rue de l'ancienne Faiencerie - Lieudit le Clos de la Fontaine, 35800, SAINT BRIAC;;;O;3
RÉSIDENCE LES HAMEAUX DE MONTRÉAL;RÉSIDENCE DE TOURISME;Lieu Dit Saint Orens, 32250, MONTRÉAL;;;O;3
APPART'CITY LILLE EURALILLE ;RÉSIDENCE DE TOURISME;30 les Jardins de l'Europe, Place Vauban, 59110, LA MADELEINE;;;O;3
ADAGIO ACCESS MARSEILLE SAINT CHARLES;RÉSIDENCE DE TOURISME;23 RUE HONNORAT, 13003, MARSEILLE;;;O;3
APPART'CITY;RÉSIDENCE DE TOURISME;12 rue Jacob Courant, 78300, POISSY;;;O;3
PIERRE ET VACANCES LES RAVINES;RÉSIDENCE DE TOURISME;BP 48 ROUTE ALBERT GACON, 73550, MERIBEL;;;O;3
LYON LUMIÈRE;RÉSIDENCE DE TOURISME;81-85 COURS ALBERT THOMAS, 69003, LYON;;;O;3
RÉSIDENCE PIERRE ET VACANCES PREMIUM - L’ÉCRIN DES NEIGES;RÉSIDENCE DE TOURISME;LE VAL CLARET, 73320, TIGNES;;;O;3
PARK AND SUITES ÉLÉGANCE GRAND M MONTPELLIER;RÉSIDENCE DE TOURISME;105 RUE GILLES MARTINET, PLACE FLANDRES DUNKERQUE, 34070, MONTPELLIER;;;O;3
PRIVILEGE HÔTELS & RESORTS LES CHALETS DE CELINE;RÉSIDENCE DE TOURISME;Rue Chef Lieu, 73620, HAUTELUCE;;;O;3
CITADINES BASTILLE GARE DE LYON PARIS;RÉSIDENCE DE TOURISME;14-18 RUE DE CHALIGNY, 75012, PARIS;;;O;3
ADAGIO ACCESS GRENOBLE ;RÉSIDENCE DE TOURISME;41 RUE MAURICE DODERO, 38000, GRENOBLE;;;O;3
RESIDHOME APPARTHOTEL BURES LA GUYONNERIE;RÉSIDENCE DE TOURISME;1A rue de la Guyonnerie, 91440, BURES-SUR-YVETTE;;;O;3
MAMA SHELTER LYON;RÉSIDENCE DE TOURISME;13 Rue Domer, 69007, LYON;;;O;3
RÉSIDENCE MAEVA LE MORIOND;RÉSIDENCE DE TOURISME;Courchevel 1650, 73120, SAINT-BON;;;O;3
RÉSIDENCE GOELIA - LA VOILE D'OR ;RÉSIDENCE DE TOURISME;RUE DU VIEUX MOULIN , 56780, ÎLE-AUX-MOINES;;;O;3
CITADINES PRESQU'ÎLE LYON;RÉSIDENCE DE TOURISME;2 rue Thomassin, 69002, LYON;;;O;3
LES MAZETS DE GAUJAC;RÉSIDENCE DE TOURISME;Quartier Précabrian, 30330, GAUJAC;;;O;3
TOPOTEL RÉSIDENCE ARCHIPEL;RÉSIDENCE DE TOURISME;27 Rue de la Huguenotte, 17000, LA ROCHELLE;;;O;3
RÉSIDENCE ASTORIA ;RÉSIDENCE DE TOURISME;1350  avenue du Midi, 47000, AGEN;;;O;3
PARK AND SUITES ELEGANCE LYON GERLAND;RÉSIDENCE DE TOURISME;175 avenue Jean Jaurès, 69007, LYON;;;O;3
ADAGIO ACCESS CLAMART;RÉSIDENCE DE TOURISME;426 avenue du Général de Gaulle, 92140, CLAMART;;;O;3
RÉSIDENCE MAEVA LES TAMARIS;RÉSIDENCE DE TOURISME;11 boulevard aristide briand, 14360, TROUVILLE SUR MER;;;O;3
CITADINES MERIADECK BORDEAUX;RÉSIDENCE DE TOURISME;25 RUE JEAN FLEURET, 33000, BORDEAUX;;;O;3
LES HAUTS DE LA HOULE;RÉSIDENCE DE TOURISME;Rue du Commandant Charcot, 35260, CANCALE;;;O;3
LES LODGES DE PIERRES;RÉSIDENCE DE TOURISME;LIEU-DIT CHAPIET, 73450, VALMEINIER;;;O;3
PAESE SERENU;RÉSIDENCE DE TOURISME;voie d'arena route de marina, 20137, PORTO-VECCHIO;;;O;3
PARK AND SUITES COMFORT TOURNEFEUILLE;RÉSIDENCE DE TOURISME;16 rue Paul Valery, 31170, TOURNEFEUILLE;;;O;3
ADAGIO ANNECY CENTRE;RÉSIDENCE DE TOURISME;2 place Marie Curie, 74000, ANNECY;;;O;3
APPART'CITY;RÉSIDENCE DE TOURISME;2 impasse du Sanitat, 44100, NANTES;;;O;3
GOÉLIA LES PORTES D'ÉTRETAT ;RÉSIDENCE DE TOURISME;PLACE DE LA MAIRIE , 76400, MANIQUERVILLE ;;;O;3
RÉSIDENCE REINE MARINE;RÉSIDENCE DE TOURISME;67 AVENUE KENNEDY, 35400, SAINT-MALO;;;O;3
RÉSIDENCE PIERRE ET VACANCES LE PALAIS DES GOUVERNEURS;RÉSIDENCE DE TOURISME;9 rue des gouverneurs, 17410, SAINT-MARTIN-DE-RÉ;;;O;3
PV CP RESIDENCES EXPLOITATION;RÉSIDENCE DE TOURISME;Le Fort de la Rade, 17123, ILE D'AIX;;;O;3
ODALYS LE VALLON DU ROY;RÉSIDENCE DE TOURISME;ancien chemin de Toulon, 83110, SANARY-SUR-MER;;;O;3
RESIDHOME APPARTHOTEL METZ LORRAINE;RÉSIDENCE DE TOURISME;10  RUE LAFAYETTE, 57000, METZ;;;O;3
RÉSIDENCE DU TÉLÉPHÉRIQUE;RÉSIDENCE DE TOURISME;2819 ROUTE DES ARDOISIÈRES, 74110, MORZINE;;;O;4
APPART'CITY LANNION;RÉSIDENCE DE TOURISME;7 avenue du Général de Gaulle, 22300, LANNION;;;O;4
ODALYS RÉSIDENCE VALENTIN PLAGE;RÉSIDENCE DE TOURISME;14 ROUTE DE SAINTE NUDEC, 44740, BATZ-SUR-MER;;;O;4
RÉSIDENCE MAEVA LE PHARE ;RÉSIDENCE DE TOURISME;Avenue des Phares, 62520, LE TOUQUET;;;O;4
L'HORIZON BLANC;RÉSIDENCE DE TOURISME;La joue du Loup, 5250, AGNIÈRES-EN-DÉVOLUY;;;O;4
LE FONTAINEBLEAU;RÉSIDENCE DE TOURISME;196 AVENUE DE STALINGRAD, 94550, CHEVILLY-LARUE;;;O;4
AT HOME APPART HOTEL;RÉSIDENCE DE TOURISME;7 RUE DU PONT MONTAUDRAN, 31000, TOULOUSE;;;O;4
ADAGIO ACCESS POITIERS;RÉSIDENCE DE TOURISME;23 BOULEVARD DU GRAND CERF, 86000, POITIERS;;;O;4
BELLE PLAGNE - LES GÉMEAUX - MAEVA;RÉSIDENCE DE TOURISME;BELLE PLAGNE, 73210, MACOT LA PLAGNE;;;O;4
LES GRANDS AX;RÉSIDENCE DE TOURISME;Camp du Granou, 9110, AX-LES-THERMES;;;O;4
RESIDENCE MAEVA LES PLATANES;RÉSIDENCE DE TOURISME;1 Chemin du Préconil, 83120, SAINTE-MAXIME;;;O;4
RÉSIDENCE ADAGIO ACCESS ASNIÈRES;RÉSIDENCE DE TOURISME;16 rue des Fréres Chausson, 92600, ASNIÈRES-SUR-SEINE;;;O;4
RÉSIDENCE LES BALCONS DU CANIGOU;RÉSIDENCE DE TOURISME;4 AVENUE DU DOCTEUR JALIBERT, 66820, VERNET-LES-BAINS;;;O;4
PARK AND SUITES ÉLÉGANCE ROSNY-SOUS-BOIS;RÉSIDENCE DE TOURISME;7 RUE D'AURION, 93110, ROSNY-SOUS-BOIS;;;O;4
LE BUET;RÉSIDENCE DE TOURISME;LES ESSERTS, 74440, MORILLON;;;O;4
LES CHALETS D'AUROUZE;RÉSIDENCE DE TOURISME;la joue du Loup, 5250, AGNIÈRES-EN-DÉVOLUY;;;O;4
MAEVA PROMENADE DES BAINS;RÉSIDENCE DE TOURISME;109 AVENUE DES CHèVREFEUILLES, 83700, SAINT-RAPHAËL;;;O;4
LA CLOSERIE;RÉSIDENCE DE TOURISME;avenue Jean Tassy, 30430, BARJAC;;;O;4
RÉSIDENCE GOELIA - LE GRAND BLEU;RÉSIDENCE DE TOURISME;avenue de la grande plage, 66420, LE BARCARÈS;;;O;4
LES BALCONS D'AX;RÉSIDENCE DE TOURISME;BONASCRE, 9110, AX-LES-THERMES;;;O;4
LES VILLAS DE LA BAIE;RÉSIDENCE DE TOURISME;40 RUE DE LA BASSEE, 80550, LE CROTOY;;;O;4
RESIDENCE MAEVA LA BAIE;RÉSIDENCE DE TOURISME;32 avenue des Lilas, 44500, LA BAULE-ESCOUBLAC;;;O;4
ADAGIO CITY APARTHOTEL CAEN CENTRE;RÉSIDENCE DE TOURISME;1 quai Eugène Meslin, 14000, CAEN;;;O;4
APPART'CITY;RÉSIDENCE DE TOURISME;16 rue du 28 février 1943, 44600, SAINT NAZAIRE;;;O;4
RESIDHOME APPARTHOTEL MONCEAU;RÉSIDENCE DE TOURISME;3 place de la Renaissance, 92270, BOIS-COLOMBES;;;O;4
MAEVA LE BRITANIA;RÉSIDENCE DE TOURISME;La Tania, 73125, LA TANIA;;;O;4
RÉSIDENCE MAEVA LES SABLES BLANCS;RÉSIDENCE DE TOURISME;48 RUE DES PROFESSEURS CURIE, 29100, DOUARNENEZ;;;O;4
RÉSIDENCE MAEVA LES MOUFLONS 1500;RÉSIDENCE DE TOURISME;le praz de lys, 74440, TANINGES;;;O;4
VILLA MARIALE;RÉSIDENCE DE TOURISME;15 avenue du Paradis, 65100, LOURDES;;;O;4
PARK AND SUITES ELEGANCE TOURS;RÉSIDENCE DE TOURISME;12 RUE PAUL NIZAN, 37200, TOURS;;;O;4
RESDENCE ALL SUITES APPART HOTEL PAU;RÉSIDENCE DE TOURISME;4 RUE DES TIREDOUS, 64000, PAU;;;O;4
RÉSIDENCE SIERRA;RÉSIDENCE DE TOURISME;141 Avenue des Hauts de Canet, 66140, CANET-EN-ROUSSILLON;;;O;4
RÉSIDENCE LES VOILES BLANCHES;RÉSIDENCE DE TOURISME;route du port, 20145, SARI-SOLENZARA;;;O;4
BALCON DE L'YSE;RÉSIDENCE DE TOURISME;rue des astes, 65120, LUZ-SAINT-SAUVEUR;;;O;4
LE PARC VÉLUSINE;RÉSIDENCE DE TOURISME;67 AVENUE DE NICE, 6160, ANTIBES;;;O;4
LE PALATIN;RÉSIDENCE DE TOURISME;le fressinet d'aval, 5340, PELVOUX;;;O;4
CITADINES KLEBER STRASBOURG;RÉSIDENCE DE TOURISME;50-54 rue du jeu des enfants, 67000, STRASBOURG;;;O;4
RÉSIDENCE MAEVA TY MAT;RÉSIDENCE DE TOURISME;33 RUE GEORGE V, 35400, SAINT-MALO;;;O;4
ODALYS LES CHALETS DE L'ARVAN II;RÉSIDENCE DE TOURISME;Le Crou, 73530, SAINT SORLIN D'ARVES;;;O;4
APPART'CITY;RÉSIDENCE DE TOURISME;1 rue du Général de Chabrillan, 26200, MONTELIMAR;;;O;4
BUSINESS PARK HOTEL;RÉSIDENCE DE TOURISME;185 avenue du mont-blanc, 1710, THOIRY;;;O;4
CITADINES CITY CENTRE GRENOBLE;RÉSIDENCE DE TOURISME;9 rue de Strasbourg, 38000, GRENOBLE;;;O;4
RÉSIDENCE PIERRE ET VACANCES CAP MORGAT;RÉSIDENCE DE TOURISME;RUE DE RULIANEC , 29160, CROZON;;;O;4
RÉSIDHOTEL LA TOUR DE MARE;RÉSIDENCE DE TOURISME;566 VIA AURELIA, 83600, FRÉJUS;;;O;4
ODALYS RÉSIDENCE LORDA;RÉSIDENCE DE TOURISME;18 ESPLANADE DU PARADIS, 65100, LOURDES;;;O;4
APPART'CITY RENNES OUEST;RÉSIDENCE DE TOURISME;7 rue Pierre Joseph Colin, 35000, RENNES;;;O;4
LES JARDINS DE LOURDES;RÉSIDENCE DE TOURISME;8 Chemin de l'Arrouza, 65100, LOURDES;;;O;4
RESIDENCE AJACCIO AMIRAUTÉ;RÉSIDENCE DE TOURISME;20 boulevard Georges POMPIDOU, 20090, AJACCIO;;;O;4
RÉSIDENCE MAÉVA LES BALCONS DU SOLEIL;RÉSIDENCE DE TOURISME;16 rue du docteur Capelle, 66120, FONT-ROMEU-ODEILLO-VIA;;;O;4
RÉSIDENCE LES TERRASSES DE LA TOUSSUIRE;RÉSIDENCE DE TOURISME;Les Bottières, 73300, SAINT-PANCRACE;;;O;4
ODALYS RÉSIDENCE LE VILLAGE;RÉSIDENCE DE TOURISME;PLACE DE L'éGLISE, 73590, NOTRE-DAME-DE-BELLECOMBE;;;O;4
CAP WEST SAINT-MICHEL-SUR-ORGE;RÉSIDENCE DE TOURISME;3 bis rue d'Alembert - ZA Noue Rousseau, 91240, SAINT-MICHEL-SUR-ORGE;;;O;4
HIPPOTEL;RÉSIDENCE DE TOURISME;Avenue de la dune aux loups, 62520, LE TOUQUET;;;O;4
ASPEN;RÉSIDENCE DE TOURISME;Plagne Villages, 73210, LA PLAGNE;;;O;4
QUALITY SUITES EXCELLIOR;RÉSIDENCE DE TOURISME;179 PROMENADE DES ANGLAIS, 6200, NICE;;;O;4
RESIDENCE DU CHATEAU;RÉSIDENCE DE TOURISME;1684 Avenue Albert Einstein, 34000, MONTPELLIER;;;O;4
LES TROIS GLACIERS;RÉSIDENCE DE TOURISME;LIEUDIT REPLAT, 73210, MONTCHAVIN - BELLENTRE;;;O;4
KYRIAD PRESTIGE SAINT-NAZAIRE;RÉSIDENCE DE TOURISME;11 avenue Barbara, 44570, TRIGNAC;;;O;4
MAEVA LA CROIX MARGOT;RÉSIDENCE DE TOURISME;270 CHEMIN DE LA CROIX MARGOT, 38250, VILLARD-DE-LANS;;;O;4
RÉSIDENCE PIERRE ET VACANCES  LES BELLES RIVES;RÉSIDENCE DE TOURISME;Le Pressentour, 19400, ARGENTAT;;;O;4
RÉSIDENCE MAEVA LA BAIE DES SABLES;RÉSIDENCE DE TOURISME;28 Cours Blossac, 85100, LES SABLES-D'OLONNE;;;O;4
RÉSIDENCE MAEVA LES JARDINS DE LA MADRAGDE;RÉSIDENCE DE TOURISME;73 AVENUE DES SERGENTS, 34300, AGDE;;;O;4
RÉSIDENCE MAEVA - LES CIGALES DE MER;RÉSIDENCE DE TOURISME;CENTRE COMMERCIAL DE PORT ROYAL, 30240, LE GRAU-DU-ROI;;;O;4
RESIDENCE MAEVA LA JETEE DES MARINS;RÉSIDENCE DE TOURISME;398 BOULEVARD DE LA PLAGE, 33120, ARCACHON;;;O;4
RESIDENCE PARK AND SUITES NANTES ATLANTIS;RÉSIDENCE DE TOURISME;2 RUE VICTOR SCHOELCHER, 44800, SAINT-HERBLAIN;;;O;4
APPART'CITY;RÉSIDENCE DE TOURISME;16/18. rue du Vercors, 29200, BREST;;;O;4
RÉSIDENCE BALCON DES NEIGES ;RÉSIDENCE DE TOURISME;entre les rieux, 73530, SAINT-SORLIN-D'ARVES;;;O;4
RÉSIDENCE LES CHALETS D'ANGELE ;RÉSIDENCE DE TOURISME;Route de la Bechigne, 74390, CHATEL;;;O;4
NICE FLEURS;RÉSIDENCE DE TOURISME;17 avenue des fleurs, 6000, NICE;;;O;4
LE VERMONT ;RÉSIDENCE DE TOURISME;ZAC DES ISLETTTES, LES HAUTS DE VALMEINIER, 73450, VALMEINIER;;;O;4
RÉSIDENCE L'ENCLOS DE L'AQUEDUC ;RÉSIDENCE DE TOURISME;AVENUE DES ROMARINS, 34160, CASTRIES;;;O;4
ADAGIO ACCESS NÎMES;RÉSIDENCE DE TOURISME;5 allée du boissy d'anglas, 30000, NÎMES;;;O;4
MAÉVA LES JARDINS OMBRAGÉS;RÉSIDENCE DE TOURISME;rue de la siagne prolongée, 6210, MANDELIEU-LA-NAPOULE;;;O;4
CITEA NIMES;RÉSIDENCE DE TOURISME;5 ALLEE DU BOISSY D'ANGLAS, 30000, NIMES;;;O;4
APPART'CITY;RÉSIDENCE DE TOURISME;2211 chemin de saint-claude, 6600, ANTIBES;;;O;4
RÉSIDENCE GOELIA - LE RELAIS DES PISTES ;RÉSIDENCE DE TOURISME;LIEU DIT LE REPLAT , 73300, ALBIEZ-MONTROND;;;O;4
RÉSIDHOTEL GALERIE TATRY;RÉSIDENCE DE TOURISME;174 COURS DU MEDOC, 33300, BORDEAUX;;;O;4
RÉSIDENCE PIERRE ET VACANCES PREMIUM - LE DOMAINE DE CRAMPHORE;RÉSIDENCE DE TOURISME;74 Boulevard DE L'ATLANTIQUE, 44510, LE-POULIGUEN;;;O;4
APPPART'CITY RENNES SAINT GRÉGOIRE;RÉSIDENCE DE TOURISME;5 allée Marie Berhaut, 35000, RENNES;;;O;4
RESIDHOTEL LAMARTINE;RÉSIDENCE DE TOURISME;11 AVENUE VICTOR HUGO, 69160, TASSIN-LA-DEMI-LUNE;;;O;4
CERISE NANTES ATLANTIS;RÉSIDENCE DE TOURISME;12 rue de la Johardière, 44800, SAINT-HERBLAIN;;;O;4
ADAGIO ACCESS BESANÇON;RÉSIDENCE DE TOURISME;11 AVENUE LOUISE MICHEL, 25000, BESANÇON;;;O;4
LES BLANCHES PROVENCALES;RÉSIDENCE DE TOURISME;Station de Chabanon, 4140, SELONNET;;;O;4
ADAGIO CITY AIX CENTRE;RÉSIDENCE DE TOURISME;3/5 Rue des Chartreux, 13100, AIX-EN-PROVENCE;;;O;4
PARK AND SUITES ELEGANCE NANTES CARRE BOUFFAY;RÉSIDENCE DE TOURISME;4 RUE DES PETITES ECURIES , 44000, NANTES;;;O;4
LE GRAND CHALET DES PISTES;RÉSIDENCE DE TOURISME;LE ROND POINT DES PISTES, 73550, MERIBEL LES ALLUES;;;O;4
PARK & SUITES PRESTIGE CANNES CROISETTE;RÉSIDENCE DE TOURISME;12 Rue Latour Maubourg, 6400, CANNES;;;O;4
CGH - LA FERME DU VAL CLARET;RÉSIDENCE DE TOURISME;ROUTE DE LA GRANDE MOTTE, 73320, TIGNES;;;O;4
DOMAINE DU PONT AVEN;RÉSIDENCE DE TOURISME;2 rue saint guénolé, 29930, PONT-AVEN;;;O;4
HIPARK MARSEILLE;RÉSIDENCE DE TOURISME;21 CHEMIN DE L'ARMÉE D'AFRIQUE, 13005, MARSEILLE;;;O;4
APPART'CITY CLICHY;RÉSIDENCE DE TOURISME;4 rue Palloy, 92110, CLICHY-LA-GARENNE;;;O;4
PIERRE ET VACANCES LE QUARTZ;RÉSIDENCE DE TOURISME;Residence Andromède Belle Plagne, 73210, MACOT LA PLAGNE;;;O;4
LES BASTIDES DES CHAUMETTES;RÉSIDENCE DE TOURISME;Chemin des Chaumettes, 83440, MONTAUROUX;;;O;4
RESIDENCE LES THERMES;RÉSIDENCE DE TOURISME;4 cours de VERDUN, BP7, 40101, DAX CEDEX;;;O;4
LE VILLAGE CANCALAIS;RÉSIDENCE DE TOURISME;RUE DU CORSAIRE, 35260, CANCALE;;;O;4
DOMAINE DE RIVA BELLA;RÉSIDENCE DE TOURISME;route de riva bella, 20270, ALÉRIA;;;O;4
ODALYS LUNE D'ARGENT;RÉSIDENCE DE TOURISME;725 route du gouet, 74120, MEGÈVE;;;O;4
APPART'CITY;RÉSIDENCE DE TOURISME;1ter rue Claude Bloch, 14000, CAEN;;;O;4
LA CROISIÈRE;RÉSIDENCE DE TOURISME;4 rue LAVIGNE, 64600, ANGLET;;;O;4
RÉSIDENCE GOÉLIA - LES JARDINS DE PHOEBUS;RÉSIDENCE DE TOURISME;BOULEVARD  PLANASSE , 11430, GRUISSAN;;;O;4
RÉSIDENCE ALBATROS;RÉSIDENCE DE TOURISME;1101 Avenue Evêché de Maguelone, 34250, PALAVAS LES FLOTS;;;O;4
RÉSIDENCE LA RÉSERVE;RÉSIDENCE DE TOURISME;1 Avenue du Jura, 1210, FERNEY-VOLTAIRE;;;O;4
CITADINES MONTMARTRE PARIS;RÉSIDENCE DE TOURISME;16 avenue rachel, 75018, PARIS;;;O;4
PARK AND SUITES;RÉSIDENCE DE TOURISME;10 Avenue André Marie Ampère, 31770, COLOMIERS;;;O;4
RESIDENCE LE LIDO;RÉSIDENCE DE TOURISME;132/136, avenue de Nice, 6800, CAGNES-SUR-MER;;;O;4
SEVEN URBAN SUITES;RÉSIDENCE DE TOURISME;10 rue KONRAD ADENAUER, 44200, NANTES;;;O;4
GOELIA RÉSIDENCE SUN CITY ;RÉSIDENCE DE TOURISME;70/72 AVENUE DU PONT JUVENAL , 34000, MONTPELLIER ;;;O;4
SÉJOURS ET AFFAIRES APPARTHOTEL PARK LANE;RÉSIDENCE DE TOURISME;43 rue du sergent michel berthet, 69009, LYON;;;O;4
MAMA SHELTER MARSEILLE;RÉSIDENCE DE TOURISME;64 RUE DE LA LOUBIERE, 13006, MARSEILLE;;;O;4
APPART'CITY;RÉSIDENCE DE TOURISME;52 boulevard de l'Evasion, 95800, CERGY LE HAUT;;;O;4
RESIDENCE CENTRAL PARK;RÉSIDENCE DE TOURISME;Val d'Allos 1800, 4260, LA FOUX D'ALLOS;;;O;4
RÉSIDENCE GREEN SIDE;RÉSIDENCE DE TOURISME;45 rue Henri Poincaré, Sophia antipolis, 6410, BIOT;;;O;4
ADAGIO ACCESS ORLÉANS;RÉSIDENCE DE TOURISME;3 rue Jean François Deniau, 45000, ORLÉANS;;;O;4
LE DOMAINE DU GOLF;RÉSIDENCE DE TOURISME;4 Allée du Golf, 68770, AMMERSCHWIHR;;;O;4
TENEO SUITES APPARTHOTEL - BORDEAUX MERIGNAC AEROPORT;RÉSIDENCE DE TOURISME;1 IMPASSE RUDOLF DIESEL, 33700, MERIGNAC;;;O;4
CITADINES WILSON TOULOUSE;RÉSIDENCE DE TOURISME;8 BOULEVARD DE STRASBOURG, 31000, TOULOUSE;;;O;4
MARMOTEL;RÉSIDENCE DE TOURISME;PRALOUP, 4400, UVERNET-FOURS;;;O;4
APPART'CITY;RÉSIDENCE DE TOURISME;18 boulevard du Général de Gaulle, 11100, NARBONNE;;;O;4
VICTORIA GARDEN;RÉSIDENCE DE TOURISME;Arène Cros Baie des Anges, 13600, LA CIOTAT;;;O;4
LA CLOSERIE DEAUVILLE;RÉSIDENCE DE TOURISME;156 AVENUE DE LA RÉPUBLIQUE, 14800, DEAUVILLE;;;O;4
RÉSIDENCE MAEVA KER AVEL;RÉSIDENCE DE TOURISME;98 BIS  RUE DU PORT DE PÊCHE, 56170, QUIBERON;;;O;4
LES CHALETS DE PUY SAINT VINCENT;RÉSIDENCE DE TOURISME;station 1600 - clôt péouilloux, 5290, PUY-SAINT-VINCENT;;;O;4
PRALOGNAN EXPLOITATION;RÉSIDENCE DE TOURISME;472 rue de la Leysse, 73000, CHAMBÉRY;;;O;4
SÉJOURS ET AFFAIRES APPARTHOTEL VILLA CAMILLA;RÉSIDENCE DE TOURISME;185 boulevard Saint Jean Baptiste de la Salle, 35000, RENNES;;;O;4
ADAGIO ACCESS PETITE FRANCE;RÉSIDENCE DE TOURISME;27 RUE DE WASSELONNE, 67000, STRASBOURG;;;O;4
PIERRE ET VACANCES LE CHRISTIANA;RÉSIDENCE DE TOURISME;La tania, 73125, LA TANIA;;;O;4
LES CHALETS DE LA FONTAINE DU ROI;RÉSIDENCE DE TOURISME;LA CHAL, 73530, SAINT JEAN D'ARVES;;;O;4
VILLA BELLAGIO BUSSY SAINT GEORGE ;RÉSIDENCE DE TOURISME;39 BOULEVARD DE LAGNY , 77600, BUSSY-SAINT-GEORGES;;;O;4
CITADINES CASTELLANE MARSEILLE;RÉSIDENCE DE TOURISME;60 rue du Rouet , 13006, MARSEILLE;;;O;4
RESID'ARTEL;RÉSIDENCE DE TOURISME;zac du castellet, 14 rue jules horowitz, 13115, SAINT-PAUL-LÈS-DURANCE;;;O;4
RESIDENCE SAINT ESTEVE;RÉSIDENCE DE TOURISME;chemin de pareyraou, 13600, LA CIOTAT;;;O;4
APPART'CITY;RÉSIDENCE DE TOURISME;84 rue Gutenberg, 85000, LA ROCHE-SUR-YON;;;O;4
APPART'CITY;RÉSIDENCE DE TOURISME;70 avenue de Cognac, 16000, ANGOULEME;;;O;4
APPART'CITY NIORT;RÉSIDENCE DE TOURISME;13 avenue de Paris, 79000, NIORT;;;O;4
ALL SUITES APPARTHOTEL;RÉSIDENCE DE TOURISME;AVENUE DE L'UNIVERSITE, 59140, DUNKERQUE;;;O;4
"RESIDHOTEL """"AZUREA""""";RÉSIDENCE DE TOURISME;159 avenue du petit port, 73100, AIX-LES-BAINS;;;O;4
VILLA BELLAGIO VILLEJUIF;RÉSIDENCE DE TOURISME;95 AVENUE DU PRESIDENT SALVADOR ALLENDE , 94800, VILLEJUIF;;;O;4
ODALYS CITY LE CLOS CHARTREUSE;RÉSIDENCE DE TOURISME;42 ROUTE DE GALICE, 13080, AIX-EN-PROVENCE;;;O;4
ADAGIO ACCESS STRASBOURG ILLKIRCH;RÉSIDENCE DE TOURISME;106 AVENUE DE STRASBOURG, 67400, ILLKIRCH;;;O;4
WARWICK REINE ASTRID;RÉSIDENCE DE TOURISME;24/26 Boulevard des Belges, 69006, LYON;;;O;4
LE MOULIN DE VERNÈGUES;RÉSIDENCE DE TOURISME;DOMAINE et golf DE PONT ROYAL, 13370, MALLEMORT;;;O;4
ADAGIO ;RÉSIDENCE DE TOURISME;43 RUE CAUMARTIN, 75009, PARIS;;;O;4
LE DOMAINE DE L'OLIVERAIE;RÉSIDENCE DE TOURISME;Les Tuilières - Route d'Orange, 26110, NYONS;;;O;4
MANOIR DU HILGUY;RÉSIDENCE DE TOURISME;Manoir du Hilguy, 29710, PLOGASTEL-SAINT-GERMAIN;;;O;4
RESIDENCE PIERRE ET VACANCES ACONIT;RÉSIDENCE DE TOURISME;Quartier Les Bruyères, 73440, LES MENUIRES;;;O;4
RESIDHOME APPARTHOTEL PARIS OPÉRA;RÉSIDENCE DE TOURISME;30 RUE JOUBERT, 75009, PARIS;;;O;4
CITADINES TOURS EIFFEL PARIS;RÉSIDENCE DE TOURISME;132 BD DE GRENELLE, 75015, PARIS;;;O;4
1ÈRE AVENUE VAL SENART;RÉSIDENCE DE TOURISME;8 rue des 2 Communes, 91480, QUINCY-SOUS-SENART;;;O;4
CHALET VAL2400;RÉSIDENCE DE TOURISME;QUARTIER DES BALCONS, 73440, VAL THORENS;;;O;4
ADAGIO GRENOBLE BERTHELOT;RÉSIDENCE DE TOURISME;13-15 avenue Marcellin Berthelot, 38100, GRENOBLE;;;O;4
PARK AND SUITES;RÉSIDENCE DE TOURISME;21/23 ALLEE DES FRËNES, 38240, MEYLAN;;;O;4
THALACAP ÎLE-DE-RÉ;RÉSIDENCE DE TOURISME;17 AVENUE D'ANTIOCHE, 17590, ARS-EN-RÉ;;;O;4
RÉSIDENCE THE CATALOGNE;RÉSIDENCE DE TOURISME;9 avenue d'espagne, 66120, FONT-ROMEU-ODEILLO-VIA;;;O;4
L'AROLLAIE;RÉSIDENCE DE TOURISME;Plan Peisey, 73210, PEISEY VALLANDRY;;;O;4
LES JARDINS DE MASSANE;RÉSIDENCE DE TOURISME;DOMAINE DE MASSANE, 34670, BAILLARGUES;;;O;4
RÉSIDENCE PIERRE ET VACANCES PREMIUM VILLA GARDENIA;RÉSIDENCE DE TOURISME;28 rue jean Mermoz, 14800, DEAUVILLE;;;O;4
RÉSIDENCE DE TOURISME LES PLEÏADES;RÉSIDENCE DE TOURISME;Flaine Forêt, 74300, FLAINE;;;O;4
RÉSIDENCE LE HAMEAU DE PIERRE BLANCHE ;RÉSIDENCE DE TOURISME;Allée des Diligences, 74310, LES HOUCHES;;;O;4
DOMAINE DE LA PRADE ;RÉSIDENCE DE TOURISME;Route des lacs, 40660, MESSANGES;;;O;4
PV CP RÉSIDENCE EXPLOITATION;RÉSIDENCE DE TOURISME;Résidence MAEVA les Citronniers 17 rue Partouneaux , 6500, MENTON;;;O;4
"RÉSIDHOTEL """"LES HAUTS DE LA LAUZIÈRE""""";RÉSIDENCE DE TOURISME;La Joue du Loup, 5250, AGNIÈRES-EN-DÉVOLUY;;;O;4
PARK AND SUITES;RÉSIDENCE DE TOURISME;1 RUE MARTHOUREY, 42270, ST PRIEST EN JAREZ;;;O;4
DOMAINE SAINTE MARGUERITE;RÉSIDENCE DE TOURISME;37 avenue de Cavaro, 44380, PORNICHET;;;O;4
PARK AND SUITES MILLÉNAIRE;RÉSIDENCE DE TOURISME;418 rue du Mas de Verchant, 34007, MONTPELLIER;;;O;4
LES FERMES DE SAINT GERVAIS;RÉSIDENCE DE TOURISME;864 Route du Parc - Lieudit la Pierre, 74170, SAINT GERVAIS LES BAINS;;;O;4
RÉSIDENCE ANGLET BIARRITZ PARME;RÉSIDENCE DE TOURISME;28 ROUTE DE MAIGNON, 64600, ANGLET;;;O;4
RÉSIDENCE LA COMBE D'OR;RÉSIDENCE DE TOURISME;LE BOIS MEAN 1800, 5200, LES ORRES;;;O;4
CITADINES TROCADERO PARIS;RÉSIDENCE DE TOURISME;29 BIS RUE SAINT DIDIER, 75016, PARIS;;;O;4
ODALYS CITY LES FLORIDIANES;RÉSIDENCE DE TOURISME;24 BOULEVARD ALBERT CHARRIER, 13080, AIX-EN-PROVENCE;;;O;4
RÉSIDENCE CLUB ARINELLA;RÉSIDENCE DE TOURISME;Route du bord de mer, 20260, LUMIO;;;O;4
LES HAMEAUX DE POMETTE;RÉSIDENCE DE TOURISME;POMETTE, 46250, MARMINIAC;;;O;4
LES CHALETS DU GYPSE;RÉSIDENCE DE TOURISME;ZAC DES PLACES, 73440, SAINT-MARTIN-DE-BELLEVILLE;;;O;4
CITADINES PRADOT CHANOT MARSEILLE;RÉSIDENCE DE TOURISME;9-11 boulevard de louvain, 13008, MARSEILLE;;;O;4
RESIDENCE PARK AND SUITES DIVONNES LES BAINS;RÉSIDENCE DE TOURISME;522 AVENUE MARCEL ANTHONIOZ, 1220, DIVONNES LES BAINS;;;O;4
PARK AND SUITES ELEGANCE GAILLARD;RÉSIDENCE DE TOURISME;102 rue Genève, 74240, GAILLARD;;;O;4
RÉSIDENCE SEA SIDE PARK;RÉSIDENCE DE TOURISME;2686 Route départementale 6007, 6270, VILLENEUVE-LOUBET;;;O;4
APPART'CITY;RÉSIDENCE DE TOURISME;6 rue Poncet, 26000, VALENCE;;;O;4
CIITADINES PART DIEU LYON;RÉSIDENCE DE TOURISME;91-95 rue Moncey, 69003, LYON;;;O;4
PARK AND SUITES PRESTIGES LES LOGES BLANCHES;RÉSIDENCE DE TOURISME;500 Route de la Plaine, 74120, MEGÈVE;;;O;4
VIA MAGISTRALE;RÉSIDENCE DE TOURISME;5C Boulevard du Président Wilson, 67000, STRASBOURG;;;O;4
PARK WILSON AIRPORT;RÉSIDENCE DE TOURISME;1 boulevard jean auguste ingres, 31770, COLOMIERS;;;O;4
VEGA;RÉSIDENCE DE TOURISME;Zone de Chérine, 5600, RISOUL;;;O;4
QUALITY SUITES LYON CONFLUENCE;RÉSIDENCE DE TOURISME;50 cours Charlemagne, 69002, LYON;;;O;4
CLUB BELAMBRA LES VANS;RÉSIDENCE DE TOURISME;chambonas, 7140, CHAMBONAS;;;O;4
PARK AND SUITES ELEGANCE LA CIOTAT;RÉSIDENCE DE TOURISME;57, Passage Jean d'Huart, 13600, LA CIOTAT;;;O;4
PARK AND SUITES VILLAGE SAINT SIMON;RÉSIDENCE DE TOURISME;6 impasse de las brugues, 31100, TOULOUSE;;;O;4
PARK AND SUITES;RÉSIDENCE DE TOURISME;13 RUE DE LA JOHARDIERE, 44800, SAINT HERBLAIN;;;O;4
CELA ALENYA;RÉSIDENCE DE TOURISME;LIEU DIT LAS MOTAS, 66200, ALENYA;;;O;4
RESIDHOTEL LYON PART DIEU;RÉSIDENCE DE TOURISME;79 BOULEVARD VIVIER MERLE, 69003, LYON;;;O;4
SEJOURS ET AFFAIRES APPARTHOTEL MOULIN NEUF;RÉSIDENCE DE TOURISME;Chemin du champ de pruniers , 4100, MANOSQUE;;;O;4
RÉSIDENCE APPART' CITY CANNES MANDELIEU;RÉSIDENCE DE TOURISME;180 chemin de l'Olivet, 6210, MANDELIEU-LA-NAPOULE;;;O;4
NEMEA TOULOUSE SAINT MARTIN;RÉSIDENCE DE TOURISME;4 rue Alain Fournier, 31300, TOULOUSE;;;O;4
ADAGIO ACCESS BÂLE SAINT LOUIS;RÉSIDENCE DE TOURISME;92 AVENUE DE BÂLE, 68300, SAINT LOUIS;;;O;4
QUALITY SUITES LES IMPRESSIONNISTES PONTOISE ;RÉSIDENCE DE TOURISME;55 CHEMIN DE LA CHAPELLE SAINT-ANTOINE, 95300, ENNERY;;;O;4
RESIDHOME APPARTHOTEL SAINT CHARLES;RÉSIDENCE DE TOURISME;10 boulevard Charles Nédelec, 13001, MARSEILLE;;;O;4
VICTORIA GARDEN;RÉSIDENCE DE TOURISME;127 cours de la Somme, 33800, BORDEAUX;;;O;4
ADAGIO ACCESS SAINT DENIS PLEYEL;RÉSIDENCE DE TOURISME;10 RUE DU DOCTEUR FINOT, 93200, SAINT DENIS;;;O;4
RESIDHOME APPARTHOTEL NANCY LORRAINE;RÉSIDENCE DE TOURISME;9 boulevard de la Mothe, 54000, NANCY;;;O;4
RÉSIDENCE LES VALLÉES LABELLEMONTAGNE;RÉSIDENCE DE TOURISME;31 rue Paul Claudel, 88250, LA BRESSE;;;O;4
LOCA THERMES;RÉSIDENCE DE TOURISME;Les Terrasses de Borda 28 rue des Lazaristes BP 277, 40106, DAX CÉDEX;;;O;4
APPART'CITY;RÉSIDENCE DE TOURISME;1 allée Antoine de Bourbon, 64320, IDRON;;;O;4
LE CRISTAL D'ARGENTIÈRE;RÉSIDENCE DE TOURISME;Rue Charlet Straton, 74400, ARGENTIÈRE;;;O;4
REVERDI VILLAGE CLUB DU SOLEIL ;RÉSIDENCE DE TOURISME;le Plan de la tour, 83120, SAINTE-MAXIME;;;O;4
RÉSIDENCE L'OXALYS;RÉSIDENCE DE TOURISME;Entrée de station,  Montagnettes, 73400, VAL THORENS;;;O;4
APPART'CITY ORLÉANS;RÉSIDENCE DE TOURISME;4 rue de Lahire, 45100, ORLÉANS;;;O;4
ODALYS RÉSIDENCE LES BELLES ROCHES;RÉSIDENCE DE TOURISME;PLACE DE L'éGLISE, 73590, NOTRE-DAME-DE-BELLECOMBE;;;O;4
SEJOURS ET AFFAIRES APPARTHOTEL PARK REPUBLIQUE;RÉSIDENCE DE TOURISME;117 AVENUE DE LA REPUBLIQUE, 63100, CLERMONT FERRAND;;;O;4
VILLAGE DE CONSTANT;RÉSIDENCE DE TOURISME;LD CONSTANT, 24510, SAINT FELIX DE VILLADEIX;;;O;4
VILLAGE MONTANA - MONTANA GRANIER ;RÉSIDENCE DE TOURISME;LES ALMES, 73320, TIGNES;;;O;4
RÉSIDENCE LES CHALETS DE FLORENCE;RÉSIDENCE DE TOURISME;835 RUE DU CHEVAL BLANC VALFREJUS, 73500, MODANE;;;O;4
RÉSIDENCE MAEVA LE GAYPAETE;RÉSIDENCE DE TOURISME;PLACE DU SLALOM, 73440, VAL THORENS;;;O;4
LE ROND POINT DES PISTES;RÉSIDENCE DE TOURISME;VAL CLARET, 73320, TIGNES;;;O;4
RÉSIDENCE DUGUESCLIN;RÉSIDENCE DE TOURISME;66 RUE DE BREST, 22100, DINAN;;;O;4
CGH - LE COEUR D'OR;RÉSIDENCE DE TOURISME;Avenue du Stade - Lieu dit LA CROUSAZ, 73700, BOURG ST MAURICE;;;O;4
L'ADRET;RÉSIDENCE DE TOURISME;Allée des Petits Plans, 5330, SAINT-CHAFFREY;;;O;4
RÉSIDENCE DES THERMES;RÉSIDENCE DE TOURISME;24-26 PLACE DES THERMES, 65200, BAGNÈRES-DE-BIGORRE;;;O;4
RÉSIDENCE MAEVA LA CORNICHE DE LA PLAGE;RÉSIDENCE DE TOURISME;La Corniche de la Plage, 29950, BÉNODET;;;O;4
CGH - LE LODGE HEMERA;RÉSIDENCE DE TOURISME;LA ROSEIRE BOURG, 73700, LA ROSIÈRE;;;O;4
L'ECRIN DES NEIGES;RÉSIDENCE DE TOURISME;ZAC des Claux Allée Hubert Aicardi, 5560, VARS;;;O;4
RÉSIDENCE APPART'CITY;RÉSIDENCE DE TOURISME;11 rue Molsheim, 67000, STRASBOURG;;;O;4
LE DOMAINE DU MONT;RÉSIDENCE DE TOURISME;ROUTE DE LA BAIE L'HOPITAL, 35610, ROZ-SUR-COUESNON;;;O;4
VICTORIA GARDEN;RÉSIDENCE DE TOURISME;5 rue Ronsard, 64000, PAU;;;O;4
APPART'CITY LYON VILLEURBANNE;RÉSIDENCE DE TOURISME;314 cours Emilie Zola, 69100, VILLEURBANNE;;;O;4
ODALYS LES HAUTS DE LA PRINCIPAUTÉ;RÉSIDENCE DE TOURISME;31 boulevard du général leclerc, 6240, BEAUSOLEIL;;;O;4
RÉSIDENCE EZA VISTA ;RÉSIDENCE DE TOURISME;244 AVENUE DE VERDUN, 6360, EZE;;;O;4
ADAGIO ACCESS TOURS;RÉSIDENCE DE TOURISME;41 RUE EDOUARD VAILLANT , 37000, TOURS;;;O;4
RÉSIDENCE ADAGIO ACCESS LA VILLETTE  ;RÉSIDENCE DE TOURISME;28 Bis Avenue Corentin Cariou, 75019, PARIS;;;O;4
DOMAINE DE LA PETITE ISLE;RÉSIDENCE DE TOURISME;871 route d'Apt, 84800, L'ISLE-SUR-LA-SORGUE;;;O;4
PARK AND SUITES;RÉSIDENCE DE TOURISME;1 impasse descartes zac de la couperigne, 13127, VITROLLES;;;O;4
RÉSIDENCE MAEVA LES PALMIERS;RÉSIDENCE DE TOURISME;52 bis avenue de Fabron, 6200, NICE;;;O;4
SÉJOURS ET AFFAIRES APPARTHOTEL LE MAGISTÈRE;RÉSIDENCE DE TOURISME;100 avenue du Marechal de Lattre de Tassigny, 94000, CRETEIL;;;O;4
 VILLAGE D'OC;RÉSIDENCE DE TOURISME;D28 ROUTE DE BESSAN, 34500, BEZIERS;;;O;4
RÉSIDENCE PYRÉNÉES ZÉNITH;RÉSIDENCE DE TOURISME;11 rue des mercaths, 65120, LUZ-SAINT-SAUVEUR;;;O;4
ETERLE VILLAGE;RÉSIDENCE DE TOURISME;LIEU-DIT SOUCASTET, 65120, LUZ-SAINT-SAUVEUR;;;O;4
SEJOURS ET AFFAIRES APPARTHOTEL ATRIUM;RÉSIDENCE DE TOURISME;20 RUE DE RENNES, 49100, ANGERS;;;O;4
LE NEVEZ;RÉSIDENCE DE TOURISME;184 impasse de bonnard, 74170, LES CONTAMINES-MONTJOIE;;;O;4
GOÉLIA RÉSIDENCE DU PORT ;RÉSIDENCE DE TOURISME;RUE DE LA PRADE  PORT LEUCATE , 11370, LEUCATE ;;;O;4
RESIDHOTEL GRAND AVIGNON;RÉSIDENCE DE TOURISME;220 CHEMIN DE LA BANASTIÈRE, 84270, VEDENE;;;O;4
RÉSIDENCE M VACANCES LE VIRGINIA ;RÉSIDENCE DE TOURISME;10 traverse DUPONT, 6130, GRASSE;;;O;4
RÉSIDENCE CERISE STRASBOURG ;RÉSIDENCE DE TOURISME;5 rue Job, 67100, STRASBOURG;;;O;4
RÉSIDELIA AN DOUAR;RÉSIDENCE DE TOURISME;40, rue Jean-Jacques Rousseau, 29770, AUDIERNE;;;O;4
PARK AND SUITES ELEGANCE VANNES;RÉSIDENCE DE TOURISME;rue Alfred Kastler, 56000, VANNES;;;O;4
RÉSIDENCE LES ÎLES BRITANNIQUES;RÉSIDENCE DE TOURISME;11 QUAI GAMBETTA, 63150, LA BOURBOULE;;;O;4
CAP WEST PELLOUAILLES-LES-VIGNES;RÉSIDENCE DE TOURISME;1 rue Maison-Neuve, 49112, PELLOUAILLES-LES-VIGNES;;;O;4
SEJOURS ET AFFAIRES APPARTHOTEL LES RIVES DU LEMAN;RÉSIDENCE DE TOURISME;125 AVENUE DE LA BELLE FERME, 1170, GEX;;;O;4
RÉSIDENCE LE SAINT CLAIR;RÉSIDENCE DE TOURISME;4 impasse de la misaire, 34300, CAP D'AGDE;;;O;4
CHALET DE L'OURS;RÉSIDENCE DE TOURISME;ARC 2000, 73700, BOURG SAINT MAURICE;;;O;4
RÉSIDENCE GOELIA - LA GRANDE CORDÉE ;RÉSIDENCE DE TOURISME;LIEU DIT LA COTE  149 ROUTE DU VERNAY , 74920, COMBLOUX ;;;O;4
ADAGIO PARIS MONTMARTRE;RÉSIDENCE DE TOURISME;10 Place Charles Dullin, 75018, PARIS;;;O;4
ADAGIO ACCESS TOULOUSE JOLIMONT;RÉSIDENCE DE TOURISME;11 Avenue Léon Blum, 31500, TOULOUSE;;;O;4
ODALYS RÉSIDENCE LES GREENS DE BÉNODET;RÉSIDENCE DE TOURISME;GOLF DE L'ODET, ROUTE DE GUENODOU, 29950, BÉNODET;;;O;4
NEMEA APPART'HOTEL;RÉSIDENCE DE TOURISME;13, rue Albert Lebrun, 54000, NANCY;;;O;4
CITADINES PORTE DE VERSAILLES PARIS ;RÉSIDENCE DE TOURISME;94 rue de didot, 75014, PARIS;;;O;4
ODALYS ILLIXON;RÉSIDENCE DE TOURISME;14 allée d'etigny, 31110, LUCHON;;;O;4
RÉSIDENCE HOTELIÈRE DE SARAN;RÉSIDENCE DE TOURISME;99 impasse des moulins, 45770, SARAN;;;O;4
LES AROLLES;RÉSIDENCE DE TOURISME;Le Neyret d'en Haut - 488 rue du Mont Joly, 74170, SAINT GERVAIS LES BAINS;;;O;4
MONTANA SOLEIL;RÉSIDENCE DE TOURISME;Saint Martin de Belleville, 73400, VAL THORENS;;;O;4
QUALITY SUITES ET SPA ;RÉSIDENCE DE TOURISME;960 avenue de l'Europe, 33260, LA TESTE DE BUCH;;;O;4
RÉSIDENCE MAEVA - LES TERRASSES DU PARC;RÉSIDENCE DE TOURISME;546 ALLEE DES JARDINS, 34280, LA GRANDE-MOTTE;;;O;4
ODALYS LA CLARÉE;RÉSIDENCE DE TOURISME;RUE DES CHOSEAUX, 73450, VALLOIRE;;;O;4
LES CHALETS D'AX;RÉSIDENCE DE TOURISME;CHEMIN D'AOUREDU RN 20, 9110, AX-LES-THERMES;;;O;4
RÉSIDENCE PIERRE ET VACANCES LE SEQUOIA;RÉSIDENCE DE TOURISME;22 Avenue du Serrat de l'Ours, 66210, BOLQUÈRE;;;O;4
RÉSIDENCE LE PATIO SAINT-ANTOINE - CORESOR;RÉSIDENCE DE TOURISME;289 bis rue du faubourg saint-antoine, 75011, PARIS;;;O;4
CAP  WEST BRUZ;RÉSIDENCE DE TOURISME;Rue Charles Coudé, 35170, BRUZ;;;O;4
ADAGIO ACCESS TOULOUSE ST CYPRIEN;RÉSIDENCE DE TOURISME;37 ter avenue Etienne Billières, 31300, TOULOUSE;;;O;4
APPART'CITY;RÉSIDENCE DE TOURISME;46 boulevard Pasteur, 63000, CLERMONT FERRAND;;;O;4
LES CHALETS DE L'ADET;RÉSIDENCE DE TOURISME;Lieu-dit Pla d'Adet, 65170, SAINT-LARY-SOULAN;;;O;4
CITY RÉSIDENCE BORDEAUX CENTRE;RÉSIDENCE DE TOURISME;14 bis Place Paul Avisseau , 33300, BORDEAUX;;;O;4
RÉSIDENCE LES JARDINS DU LAC ;RÉSIDENCE DE TOURISME;728 allée de christus, 40990, SAINT-PAUL-LÈS-DAX;;;O;5
GOLDSTAR RESORT ET SUITES;RÉSIDENCE DE TOURISME;45 rue Maréchal Joffre, 6000, NICE;;;O;5
LES GRANDES ALPES;RÉSIDENCE DE TOURISME;516 route des Grandes Alpes, 74220, LA CLUSAZ;;;O;5
OLMUCIO;RÉSIDENCE DE TOURISME;LA TESTA, 20144, SAINTE LUCIE DE PORTO VECCHIO;;;O;5
RÉSIDENCE VIA MARE;RÉSIDENCE DE TOURISME;Lieu dit Foce Bacca, 20144, SAINTE-LUCIE-DE-PORTO-VECCHIO;;;O;5
LA GARDETTE;RÉSIDENCE DE TOURISME;Grande Rue, 5230, CHORGES;;;O;5
DENEB;RÉSIDENCE DE TOURISME;Zone de Chérine , 5600, RISOUL;;;O;5
PARK AND SUITES GRENOBLE INOVALLÉE;RÉSIDENCE DE TOURISME;75 RUE BLAISE PASCAL, 38330, MONTBONNOT-SAINT-MARTIN;;;O;5
ADAGIO CITY APARTHOTEL PARIS VINCENNES;RÉSIDENCE DE TOURISME;42 AVENUE DE PARIS, 94300, VINCENNES;;;O;5
RESIDENCE  LES BERGERS;RÉSIDENCE DE TOURISME;PRA-LOUP, 4400, UVERNET-FOURS;;;O;5
CERISE VALENCE;RÉSIDENCE DE TOURISME;Rue Claude Bernard, 26000, VALENCE;;;O;5
RÉSIDENCE ARCHIPEL;RÉSIDENCE DE TOURISME;9 rue de la cheminée, grand-fond, 97434, SAINT-GILLES-LES-BAINS;;;O;5
LA RESERVE ;RÉSIDENCE DE TOURISME;1 AV GAETAN DE BERNOVILLE, 64500, SAINT JEAN DE LUZ;;;O;5
ODALYS LE PELVOUX;RÉSIDENCE DE TOURISME;Plagne centre, 73210, LA PLAGNE;;;O;5
LE CLOS SAINT HILAIRE;RÉSIDENCE DE TOURISME;RD 19, 65170, SAINT-LARY-SOULAN;;;O;5
CGH - LES CHALETS DES DOLINES;RÉSIDENCE DE TOURISME;HAMEAU DE L'OBELISQUE, 5100, MONTGENEVRE;;;O;5
RÉSIDENCE AEREL;RÉSIDENCE DE TOURISME;4 rue Dieudonné Costes, 31700, BLAGNAC;;;O;5
APPART'CITY;RÉSIDENCE DE TOURISME;20 rue de la Chocolaterie, 41000, BLOIS;;;O;5
L'OREE DES CIMES;RÉSIDENCE DE TOURISME;Avenue de Mont-Louis, 66210, LES ANGLES;;;O;5
CITADINES PROMENADE NICE;RÉSIDENCE DE TOURISME;3-5 boulevard grosso, 6000, NICE;;;O;5
LE HAMEAU DES RENNES;RÉSIDENCE DE TOURISME;Route du Col - Lieu dit Fontbonne, 5560, VARS;;;O;5
REINGAM-PARK ;RÉSIDENCE DE TOURISME;CHEMIN GENTY, 62600, BERCK-SUR-MER;;;O;5
RÉSIDENCE SAN MARTINU;RÉSIDENCE DE TOURISME;route de pinarello, 20144, SAINTE-LUCIE-DE-PORTO-VECCHIO;;;O;5
LES LOGES DU PARK;RÉSIDENCE DE TOURISME;RUE JEAN LOUIS VICTOR BIAS BP 525, 73100, AIX LES BAINS;;;O;5
CHALET ALTITUDE;RÉSIDENCE DE TOURISME;QUARTIER DES BALCONS, 73400, VAL THORENS;;;O;5
APPART'CITY;RÉSIDENCE DE TOURISME;6 rue de Locronan, 29000, QUIMPER;;;O;5
RÉSIDENCE L'OLIVIER;RÉSIDENCE DE TOURISME;291 AVENUE DU COLOMBIER, 4800, GRÉOUX-LES-BAINS;;;O;5
LES DOMAINES DU VAL;RÉSIDENCE DE TOURISME;CHEMIN DU VAL, 80132, GRAND-LAVIERS;;;O;5
TENEO APPARTHOTEL - BORDEAUX BÈGLES;RÉSIDENCE DE TOURISME;256 avenue Maréchal Leclerc, 33130, BÈGLES;;;O;5
RÉSIDENCE LE MISTRAL;RÉSIDENCE DE TOURISME;291 AVENUE DU COLOMBIER, 4800, GRÉOUX-LES-BAINS;;;O;5
CAP WEST SAUTRON;RÉSIDENCE DE TOURISME;7 Route de Brimberne, 44880, SAUTRON;;;O;5
APPART'CITY;RÉSIDENCE DE TOURISME;2 rue Emile Masson, 44000, NANTES;;;O;5
ADAGIO CITY - ST ETIENNE CENTRE;RÉSIDENCE DE TOURISME;15 rue gambetta, 42000, ST ETIENNE;;;O;5
LES HAUTS D'ORLEGUI;RÉSIDENCE DE TOURISME;1 Allée du Makila, 64200, BASSUSSARRY;;;O;5
ADONIS LA BAULE;RÉSIDENCE DE TOURISME;53 avenue Marechal Franchet d'Esperey, 44500, LA BAULE-ESCOUBLAC;;;O;5
CITADINES OPÉRA-GRANDS BOULEVARDS PARIS;RÉSIDENCE DE TOURISME;18 rue Favart, 75002, PARIS;;;O;5
APPART'CITY;RÉSIDENCE DE TOURISME;9 rue du Maréchal Joffre, 64000, PAU;;;O;5
APPART'CITY;RÉSIDENCE DE TOURISME;364 Allée de l'Amerique Latine, 30900, NIMES;;;O;5
RÉSIDENCE DU DOMAINE DES ORMES;RÉSIDENCE DE TOURISME;LES ORMES, 35120, EPINIAC;;;O;5
RESIDENCE SANTA GIULIA PALACE;RÉSIDENCE DE TOURISME;BAIE DE SANTA GIULIA, 20537, PORTO VECCHIO;;;O;5
RÉSIDENCE ZÉNITUDE LES HAUTS DU CHAZAL;RÉSIDENCE DE TOURISME;26 rue Professeur Paul Milleret, 25000, BESANÇON;;;O;5
RESIDENCE ROC E MARE;RÉSIDENCE DE TOURISME;LA SPELUNCA, 20130, CARGESE;;;O;5
PARK AND SUITES CONFORT ANNEMASSE;RÉSIDENCE DE TOURISME;17 rue marc courriard, 74100, ANNEMASSE;;;O;5
RÉSIDENCE LE HAMEAU DU KASHMIR;RÉSIDENCE DE TOURISME;Entrée Station, Les Montagnettes, 73400, VAL THORENS;;;O;5
LES HAUTS DU GEVAUDAN;RÉSIDENCE DE TOURISME;Vimenet, 48100, MONTRODAT;;;O;5
RÉSIDENCE LES AMANDIERS;RÉSIDENCE DE TOURISME;256 AVENUE DU COLOMBIER, 4800, GRÉOUX-LES-BAINS;;;O;5
ADAGIO ACCESS PERPIGNAN;RÉSIDENCE DE TOURISME;2 ESPACE MéDITERRANéE AVENUE GéNéRAL LECLERC , 66000, PERPIGNAN;;;O;5
PRIVILEGE APPART-HOTEL CLEMENT ADER;RÉSIDENCE DE TOURISME;23 rue bayard, 31000, TOULOUSE;;;O;5
CELA CONSTELLATION TOULOUSE;RÉSIDENCE DE TOURISME;158-160 rue Dominique Clos, 31300, TOULOUSE;;;O;5
APPART'CITY;RÉSIDENCE DE TOURISME;23 rue Victor Hugo, 71100, CHALON-SUR-SAONE;;;O;5
LA FERME DES BARMONTS;RÉSIDENCE DE TOURISME;19 rue Ambroise Croizat, 94800, VILLEJUIF;;;O;5
CITADINES PRESTIGE OPERA VENDÔME PARIS;RÉSIDENCE DE TOURISME;2 RUE EDOUARD VII, 75009, PARIS;;;O;5
LA CLOSERAIE;RÉSIDENCE DE TOURISME;31 avenue de la gare, 65100, LOURDES;;;O;5
ODALYS RÉSIDENCE GREEN PANORAMA;RÉSIDENCE DE TOURISME;32 AVENUE DU PRéSIDENT RENé COTY, 14390, VARAVILLE;;;O;5
LES COLLINES IDUKI;RÉSIDENCE DE TOURISME;pont de port, 64240, LA BASTIDE CLAIRENCE;;;O;5
RÉSIDENCE AU COEUR DES OURS;RÉSIDENCE DE TOURISME;4 Route de Champamé, 38860, DEUX ALPES;;;O;5
APPART'CITY;RÉSIDENCE DE TOURISME;23 rue Fénélon, 76600, LE HAVRE;;;O;5
LES BALCONS DES AIGUILLES;RÉSIDENCE DE TOURISME;LA SIMIANAZ, 73300, LA TOUSSUIRE;;;O;5
LES ESSARTS;RÉSIDENCE DE TOURISME;Place du Toron, 73480, LANSLEVILLARD;;;O;5
LES BALCONS D'ANAITE;RÉSIDENCE DE TOURISME;50 rue de l'Aiguille Verte, 74310, LES HOUCHES;;;O;5
SEJOURS ET AFFAIRES APPARTHOTEL LE CLOS BEAUMOIS;RÉSIDENCE DE TOURISME;22/24 rue du Clos Beaumois, 14000, CAEN;;;O;5
RÉSIDENCE THERMALE CHOUSSY;RÉSIDENCE DE TOURISME;place de la Victoire, BP 88, 63150, LA BOURBOULE;;;O;5
RÉSIDENCE AMARENA;RÉSIDENCE DE TOURISME;RUE DU 19 MARS, 40990, SAINT-PAUL-LÈS-DAX;;;O;5
LE FONTENAY;RÉSIDENCE DE TOURISME;160 CHEMIN DU FONTENAY   , 74480, PASSY;;;O;5
TENEO APPARTHOTEL - TALENCE ARTHENA;RÉSIDENCE DE TOURISME;281 cours de la Libération, 33400, TALENCE;;;O;5
APPART'CITY;RÉSIDENCE DE TOURISME;157 avenue Jean Jaurès, 75019, PARIS;;;O;5
RÉSIDENCE MARE E MONTE ;RÉSIDENCE DE TOURISME;Lieu-Dit Paniccia, 20145, SARI-SOLENZARA;;;O;5
SARL LES RESIDENCES COTE SUD  PEYPIN;RÉSIDENCE DE TOURISME;D8- 695 Avenue Elie GARRO   , 13124, PEYPIN;;;O;5
LES CHALETS DE LA RAMOURE;RÉSIDENCE DE TOURISME;45 Rue du 8 septembre, 73500, MODANE;;;O;5
LES JARDINS DE BARBOTAN;RÉSIDENCE DE TOURISME;12 avenue HENRI IV, 32150, BARBOTAN-LES-THERMES;;;O;5
COMFORT SUITES LYON EST EUREXPO;RÉSIDENCE DE TOURISME;17 rue de la Cordière, 69800, SAINT-PRIEST;;;O;5
RÉSIDENCE SUITE-HOME;RÉSIDENCE DE TOURISME;184 Route de Calas, 13320, BOUC-BEL-AIR;;;O;5
RÉSIDENCE BLUE MARINE;RÉSIDENCE DE TOURISME;ROUTE DE BONIFACIO GOLFE DE SANTA GIULIA, 20137, PORTO-VECCHIO;;;O;5
CLUB BELAMBRA LYON 'VILLEMANZY';RÉSIDENCE DE TOURISME;21 MONTÉE SAINT-SÉBASTIEN, 69001, LYON;;;O;5
RÉSIDENCE DE DIANE;RÉSIDENCE DE TOURISME;3 route de saint-simon, 31100, TOULOUSE;;;O;5
MOTEL LES PINS;RÉSIDENCE DE TOURISME;Route de Porto, 20260, CALVI;;;O;5
RESIDHOME APPARTHOTEL GERGOVIA;RÉSIDENCE DE TOURISME;125 AVENUE DE LA RéPUBLIQUE, 63100, CLERMONT-FERRAND;;;O;5
PRIVILEGE HÔTELS & RESORTS L'ESCALE MARINE;RÉSIDENCE DE TOURISME;36 AVENUE AMERIGO VESPUCCI, 17000, LA ROCHELLE;;;O;5
MONTANA PLEIN SUD;RÉSIDENCE DE TOURISME;rue du soleil, 73440, VAL THORENS ;;;O;5
ODALYS RESIDENCES LES ROCHES FLEURIES;RÉSIDENCE DE TOURISME;RUE DU ROCHER SAINT PIERRE, 73450, VALLOIRE;;;O;5
RESIDENCE DE TOURISME LES COLLINES DE SAINTE FEREOLE;RÉSIDENCE DE TOURISME;Place du 14 juillet (siège social), 19100, BRIVE-LA-GAILLARDE;;;O;5
CITY RÉSIDENCES TERMALIA;RÉSIDENCE DE TOURISME;rue du Casino, 65130, CAPVERN;;;O;5
RÉSIDENCE JEAN SÉBASTIEN BACH;RÉSIDENCE DE TOURISME;6 BOULEVARD JEAN SéBASTIEN BACH , 67000, STRASBOURG;;;O;5
LES TERRASSES DE RONDINARA;RÉSIDENCE DE TOURISME;Route de la plage, Rondinara, 20169, BONIFACIO;;;O;5
RÉSIDENCE LE BOIS DE LON;RÉSIDENCE DE TOURISME;Boulevard du Mourcairol, 34240, LAMALOU-LES-BAINS;;;O;5
RESIDENCE U VENIQUI;RÉSIDENCE DE TOURISME;favone, 20135, CONCA;;;O;5
RESIDHOME APPARTHOTEL DU THÉATRE;RÉSIDENCE DE TOURISME;90 boulevard Harpignies, 59300, VALENCIENNES;;;O;5
SEJOURS & AFFAIRES APPARTHOTEL PARIS VITRY;RÉSIDENCE DE TOURISME;108 boulevard de Stalingrad, 94400, VITRY SUR SEINE;;;O;5
LODGES DES ALPAGES;RÉSIDENCE DE TOURISME;la plagne soleil, 73210, LA PLAGNE;;;O;5
ADAGIO ACCESS BORDEAUX;RÉSIDENCE DE TOURISME;1 BIS RUE JEAN RENAUD DANDICOLLE, 33000, BORDEAUX;;;O;5
RESIDENCE LES MYRTILLES;RÉSIDENCE DE TOURISME;COURS FONTANA ROSSA, 5560, VARS;;;O;5
RÉSIDENTIAL;RÉSIDENCE DE TOURISME;211 avenue Marie Curie, 74166, ST JULIEN EN GENEVOIS CX;;;O;5
LES BALCONS DE BELLE PLAGNE - CHALET 3;RÉSIDENCE DE TOURISME;Belle Plagne, 73210, MÂCOT-LA-PLAGNE;;;O;5
LES BALCONS DE BELLE PLAGNE - CHALET 2;RÉSIDENCE DE TOURISME;Belle Plagne, 73210, MÂCOT-LA-PLAGNE;;;O;5
SEVEN URBAN SUITES - APPARTEA;RÉSIDENCE DE TOURISME;1 Rue Vandel, 13008, MARSEILLE;;;O;5
SÉJOURS & AFFAIRES APPARTHOTEL PARIS MALAKOFF;RÉSIDENCE DE TOURISME;120 boulevard gabriel péri, 92240, MALAKOFF;;;O;5
MAEVA LE CASTEL NORMAND;RÉSIDENCE DE TOURISME;54 R DU GEN LECLERC, 14800, DEAUVILLE;;;O;5
CITADINES CROISETTE CANNES;RÉSIDENCE DE TOURISME;1 rue le Poussin, 6400, CANNES;;;O;5
RÉSIDENCE LA LICORNE;RÉSIDENCE DE TOURISME;BELLE PLAGNE 2050 MACOT, 73210, LA PLAGNE;;;O;5
RESIDHOME APPARTHOTEL REIMS CENTRE;RÉSIDENCE DE TOURISME;6 rue de courcelles, 51100, REIMS;;;O;5
LE CATALAN;RÉSIDENCE DE TOURISME;PROMENADE DES PINS, 66500, MOLITG-LES-BAINS;;;O;5
CAP WEST PORNIC 2;RÉSIDENCE DE TOURISME;14 rue du Traité de Paris, 44210, PORNIC;;;O;5
PARK AND SUITES CONFORT TOULOUSE L'HERS;RÉSIDENCE DE TOURISME;38 avenue de l'hers, 31500, TOULOUSE;;;O;5
RESIDENCE DES SOURCES;RÉSIDENCE DE TOURISME;Bois de Coulanges, 57360, AMNEVILLE;;;O;5
PRIVILEGE HÔTELS & RESORTS L'ESTUAIRE;RÉSIDENCE DE TOURISME;21 rue de l' Ausone, 33123, LE VERDON SUR MER;;;O;5
CHALET ALPINA;RÉSIDENCE DE TOURISME;ROUTE DE LA GRANDE MOTTE, 73320, TIGNES;;;O;5
RÉSIDENCE ÉTOILE DES NEIGES;RÉSIDENCE DE TOURISME;Station le Corbier, 73300, VILLAREMBERT;;;O;5
RÉSIDENCE MIRADOUR;RÉSIDENCE DE TOURISME;avenue MILLES LACROIX, 40100, DAX;;;O;5
RÉSIDENCE EDEN;RÉSIDENCE DE TOURISME;Plateau des Esserts, 74440, MORILLON;;;O;5
RESIDHOTEL MULHOUSE CENTRE ;RÉSIDENCE DE TOURISME;49 RUE DE LA SINNE, 68200, MULHOUSE;;;O;5
RÉSIDENCE DE TOURISME LA ROCHE POSAY;RÉSIDENCE DE TOURISME;16 RUE DU PARADIS, 86270, LA ROCHE-POSAY;;;O;5
LA CLOSERIE CABOURG - CÔTÉ CASINO;RÉSIDENCE DE TOURISME;11 AVENUE JEAN MERMOZ, 14390, CABOURG;;;O;5
RESIDHOTEL GRENETTE;RÉSIDENCE DE TOURISME;12 rue de Palanka, 38000, GRENOBLE;;;O;5
ODALYS RÉSIDENCE LE DÔME DES ROUSSES;RÉSIDENCE DE TOURISME;8 PLACE DE LA FARE, 38114, VAUJANY;;;O;5
ADAGIO ACCESS VANVES PORTE DE CHÂTILLON;RÉSIDENCE DE TOURISME;5 rue Aristide Briand, 92170, VANVES;;;O;5
LES MARINES D'HELIOS;RÉSIDENCE DE TOURISME;7 RUE GEORGES BRASSENS, 34340, MARSEILLAN;;;O;5
LE PARC RIVE GAUCHE;RÉSIDENCE DE TOURISME;rue de la Grange aux Grains, 3700, BELLERIVE-SUR-ALLIER;;;O;5
RÉSIDENCE DES THERMES;RÉSIDENCE DE TOURISME;55 avenue des Fontaines, 86270, LA ROCHE-POSAY;;;O;5
RÉSIDENCE LE CLOT LA CHALP;RÉSIDENCE DE TOURISME;LE CLOT LA CHALP, 5350, MOLINES-EN-QUEYRAS - 05350;;;O;5
PRIVILODGES LE ROYAL;RÉSIDENCE DE TOURISME;9 RUE ROYALE, 74000, ANNECY;;;O;5
RÉSIDENCE LE RIVAGE;RÉSIDENCE DE TOURISME;778 AVENUE DE LA MER, 6210, MANDELIEU-LA-NAPOULE;;;O;5
APPART'CITY NANTES VIARME;RÉSIDENCE DE TOURISME;3 rue Frédureau, 44000, NANTES;;;O;5
RESIDHOTEL CENTRAL GARE;RÉSIDENCE DE TOURISME;8 PLACE DE LA GARE, 38000, GRENOBLE;;;O;5
RÉSIDENCE LE CLOS ;RÉSIDENCE DE TOURISME;5 rue de Grandelle, 50170, BEAUVOIR;;;O;5
RÉSIDENCE LE GRAND TÉTRAS;RÉSIDENCE DE TOURISME;Promenade Paul Salette, 9110, AX-LES-THERMES;;;O;5
PARK AND SUITES CONFORT ;RÉSIDENCE DE TOURISME;18 boulevard Georges Andrier, 74200, THONON-LES-BAINS;;;O;5
PARK AND SUITES;RÉSIDENCE DE TOURISME;18 BOULEVARD GEORGES ANDRIER, 74200, THONON-LES-BAINS;;;O;5
LES BALCONS DU RECOIN;RÉSIDENCE DE TOURISME;Rue des Gentianes - Recoin 1650, 38410, CHAMROUSSE;;;O;5
MANOA VACANCES;RÉSIDENCE DE TOURISME;15 COTE DE RAVAT , 24200, SARLAT-LA-CANÉDA;;;O;5
RÉSIDENCE DOLCE FRÉGATE;RÉSIDENCE DE TOURISME;ROUTE DE BANDOL, 83270, SAINT-CYR-SUR-MER;;;O;5
PARK AND SUITES ÉLÉGANCE LE CANNET;RÉSIDENCE DE TOURISME;5 RUE DE CANNES, 6110, LE CANNET;;;O;5
BIARRITZ OCEAN;RÉSIDENCE DE TOURISME;10 RUE SAINT ETIENNE ANDOIN, 64200, BIARRITZ;;;O;5
LES BALCONS DE VAL THORENS - CHALET 6;RÉSIDENCE DE TOURISME;rue des Balcons, 73440, SAINT-MARTIN-DE-BELLEVILLE;;;O;5
VILLAGE MONTANA VANNIER;RÉSIDENCE DE TOURISME;les almes, 73320, TIGNES;;;O;5
RÉSIDENCE THYRRENÉA;RÉSIDENCE DE TOURISME;Les Marines de Bravone, 20230, LINGUIZZETTA;;;O;5
ADAGIO STRASBOURG PLACE KLEBER;RÉSIDENCE DE TOURISME;4 - 6 RUE DE LA HAUTE MONTée, 67000, STRASBOURG;;;O;5
RÉSIDHOTEL CANNES FESTIVAL;RÉSIDENCE DE TOURISME;107 AVENUE FRANCIS TONNER, 6150, CANNES LA BOCCA;;;O;5
ADAGIO CITY APARTHOTEL HAUSSMANN;RÉSIDENCE DE TOURISME;131 BOULEVARD HAUSSMANN, 75008, PARIS;;;O;5
RÉSIDENCE LES MOUFLONS 2;RÉSIDENCE DE TOURISME;le praz de lys, 74440, TANINGES;;;O;5
RÉSIDENCE LE CRITÉRIUM  ;RÉSIDENCE DE TOURISME;le plan des champs, 73480, LANSLEBOURG-MONT-CENIS;;;O;5
RÉSIDENCE LE MASSENA;RÉSIDENCE DE TOURISME;1 AVENUE DE LYON, 6400, CANNES;;;O;5
RESIDENCE LE MEDITERRANEE;RÉSIDENCE DE TOURISME;1 avenue Paul Doumer, 83700, SAINT RAPHAEL;;;O;5
BEST WESTERN GRAND MASSIF;RÉSIDENCE DE TOURISME;LE CATON, 74440, MORILLON;;;O;5
LES RIVES DU LAC;RÉSIDENCE DE TOURISME;22 AVENUE DE LA PLAGE, 33680, LACANAU;;;O;5
RÉSIDENCE LES THERMES- LE METROPOLE;RÉSIDENCE DE TOURISME;4 B Rue des Thermes, 70300, LUXEUIL-LES-BAINS;;;O;5
RESIDENCE JOUBELLES;RÉSIDENCE DE TOURISME;station de reallon, 5160, REALLON;;;O;5
CLUB ALPINA;RÉSIDENCE DE TOURISME;Les hauts du Crey, 73350, CHAMPAGNY-EN-VANOISE;;;O;5
RELAIS DU SALAGOU;RÉSIDENCE DE TOURISME;8 rue des terrasses SALELLES DU BOSC, 34700, LE BOSC;;;O;5
LA CLOSERIE HONFLEUR;RÉSIDENCE DE TOURISME;COURS JEAN DE VIENNE ROND POINT DU PORT, 14600, HONFLEUR;;;O;5
MOTEL LES ALIZÉS;RÉSIDENCE DE TOURISME;Lotissement Castellaccio, 20220, MONTICELLO;;;O;5
CAP WEST PORNICHET 2 ;RÉSIDENCE DE TOURISME;24 avenue du Gulf Stream, 44380, PORNICHET;;;O;5
RÉSIDENCE L'ORÉE DES NEIGES ;RÉSIDENCE DE TOURISME;ZAC DES MICHAILLES, 73210, PEISEY-VALLANDRY;;;O;5
LES PAVILLONS DU ROOY;RÉSIDENCE DE TOURISME;AVENUE GRANER, 64270, SALIES DE BEARN;;;O;5
RÉSIDENCE DE BOUGAINVILLE;RÉSIDENCE DE TOURISME;avenue Marcel Dassault, 17300, ROCHEFORT;;;O;5
RÉSIDENCE BELLE PLAGE;RÉSIDENCE DE TOURISME;41 bis rue Anatole France, 85360, LA TRANCHE-SUR-MER;;;O;5
LA POMMERAIE;RÉSIDENCE DE TOURISME;la pommeraie, 35170, BRUZ;;;O;5
MONTANA VALBEL;RÉSIDENCE DE TOURISME;rue du soleil, 73440, VAL THORENS;;;O;5
SUITE AFFAIRE;RÉSIDENCE DE TOURISME;8/10 RUE DE LA RAMPE- 35/37 AVENUE GEORGES CLEMANCEAU, 6400, CANNES;;;O;5
GOELIA GOLF SIDE ;RÉSIDENCE DE TOURISME;AVENUE DE ROUMANILLE , 6410, BIOT ;;;O;5
RÉSIDENCE MAEVA LE LEVANT;RÉSIDENCE DE TOURISME;ALLÉE DU LEVANT, 34280, LA-GRANDE-MOTTE;;;O;5
RESIDENCE VASCA D'ORO;RÉSIDENCE DE TOURISME;BOCCA D'ORO, 20137, PORTO VECCHIO;;;O;5
LA COUR DU BAILLI;RÉSIDENCE DE TOURISME;57 GRAND RUE , 68750, BERGHEIM;;;O;5
RESIDENCE LE QUAI DES PRINCES;RÉSIDENCE DE TOURISME;PORT DE CAP D'AIL, 6320, CAP D'AIL;;;O;5
DOMAINE DE L'EILEN;RÉSIDENCE DE TOURISME;CHEMIN DES COLLIERES, 83240, CAVALAIRE SUR MER;;;O;5
PARK AND SUITES;RÉSIDENCE DE TOURISME;4 rue du Sergent Michel Berthet, 69009, LYON;;;O;5
PARK AND SUITES;RÉSIDENCE DE TOURISME;51 BIS RUE DE SAINT CYR, 69009, LYON;;;O;5
RESIDENCE ROYAL ANTIBES;RÉSIDENCE DE TOURISME;16 BOULEVARD MARECHAL LECLERC, 6600, ANTIBES;;;O;5
RÉSIDENCE DE LA PLAGE;RÉSIDENCE DE TOURISME;36, promenade clémenceau, 85100, LES SABLES D OLONNE;;;O;5
RESIDENCE LES BALCONS DU SANCY;RÉSIDENCE DE TOURISME;Le bourg, 63113, PICHERANDE;;;O;5
RÉSIDENCE LES CASTORS;RÉSIDENCE DE TOURISME;ROUTE DE PIETRAMAGGIORE, 20260, CALVI;;;O;5
RÉSIDENCE DE TOURISME LE CHAMP D'EYSSON;RÉSIDENCE DE TOURISME;485 Chemin CHAMBAROT Quartier Les Chaumettes, 83440, MONTAUROUX;;;O;5
VILLA BELLAGIO VITRY SUR SEINE ;RÉSIDENCE DE TOURISME;1 AVENUE EUGèNE PELLETAN , 94400, VITRY-SUR-SEINE;;;O;5
RÉSIDENCE CLARION SUITES GENEVA EXCELLIOR;RÉSIDENCE DE TOURISME;120 chemin de la chaux, 74140, VEIGY-FONCENEX;;;O;5
CHALET RÉSIDENCE LA RENARDIÈRE ;RÉSIDENCE DE TOURISME;93 chemin des Forestiers, 74340, SAMOËNS;;;O;5
ODALYS RÉSIDENCE LE NEPTUNE;RÉSIDENCE DE TOURISME;2 BOULEVARD DE LA DOUANE, 11560, SAINT-PIERRE-LA-MER;;;O;5
DOMAINE DU GOLF SAINT-CLAIR;RÉSIDENCE DE TOURISME;LE PELOU, ROUTE DU GOLF , 7430, SAINT-CLAIR;;;O;5
LE CALIFORNIA MOTEL;RÉSIDENCE DE TOURISME;Riniccio, 20118, SAGONE;;;O;5
RÉSIDENCE GOLFO DI SOGNIO;RÉSIDENCE DE TOURISME;route des stagnoli, 20137, PORTO-VECCHIO;;;O;5
A BARCELLA;RÉSIDENCE DE TOURISME;ROUTE DE LA MARINE, 20150, PORTO;;;O;5
TROPIC APPART'HÔTEL;RÉSIDENCE DE TOURISME;102 avenue de bourbon, 97434, SAINT-GILLES-LES-BAINS;;;O;5
HÔTEL RÉSIDENCE LES MEDES;RÉSIDENCE DE TOURISME;2 RUE DE LA DOUANE, 83400, HYERES ILE DE PORQUEROLLES;;;O;5
MOTEL TA KLADIA;RÉSIDENCE DE TOURISME;PLAGE DU PERO, 20130, CARGESE;;;O;5
RÉSIDENCE SUITE HOME APT;RÉSIDENCE DE TOURISME;517, Voie Domitienne, 84400, APT;;;O;5
LE LOGIS DU CHÂTEAU;RÉSIDENCE DE TOURISME;LES HAUTS DE VAISON , 84110, VAISON-LA-ROMAINE;;;O;5
DOMAINE DE GAVAUDUN;RÉSIDENCE DE TOURISME;Lieu-dit Vezou, 47150, GAVAUDUN;;;O;5
KYRIAD ORANGE;RÉSIDENCE DE TOURISME;86 AVENUE DE L'ARC DE TRIOMPHE, 84100, ORANGE;;;O;5
SUITE AFFAIRE;RÉSIDENCE DE TOURISME;4 rue de la Coutellerie, 13002, MARSEILLE;;;O;5
RÉSIDENCE TRAMARICCIA;RÉSIDENCE DE TOURISME;ROUTE D'AJACCIO, 20260, CALVI;;;O;5
LES BALCONS PLATINIUM;RÉSIDENCE DE TOURISME;RUE DES BALCONS, 73400, VAL THORENS;;;O;5
LES VILLAS;RÉSIDENCE DE TOURISME;MORA DELL'ONDA, 20137, LECCI;;;O;5
RÉSIDENCE DE TOURISME LES ACANTHES;RÉSIDENCE DE TOURISME;900 Allée de Christus  , 40990, SAINT-PAUL-LÈS-DAX;;;O;5
RESIDENCE LE CLOS D'AUSSOIS;RÉSIDENCE DE TOURISME;15 RUE DE PLAN CHAMP, 73500, AUSSOIS;;;O;5
LES TOITS DE SANTA GIULIA;RÉSIDENCE DE TOURISME;bocca del oro, 20137, PORTO-VECCHIO;;;O;5
LES LOGES DU PARC;RÉSIDENCE DE TOURISME;10 place de la République, 86270, LA ROCHE-POSAY;;;O;5
SARL SUNNY SIDE;RÉSIDENCE DE TOURISME;119 impasse du bouxerand, 88400, XONRUPT-LONGEMER;;;O;5
LES CHALETS D'ARRENS AVVA;RÉSIDENCE DE TOURISME;28 Route d'Azun, 65400, ARRENS-MARSOUS;;;O;5
LES COTTAGES DU SALEYS;RÉSIDENCE DE TOURISME;chemin Labarthe, 64270, SALIES-DE-BÉARN;;;O;5
RÉSIDENCE GOELIA - CHÂTEAU RICARD;RÉSIDENCE DE TOURISME;7 RUE HYGONNET , 12130, SAINT-GENIEZ-D'OLT;;;O;5
ODALYS RÉSIDENCE MONTAIGU;RÉSIDENCE DE TOURISME;AVENUE DE LA MARNE, 14390, CABOURG;;;O;5
CGH - LE JHANA;RÉSIDENCE DE TOURISME;Le Val Claret Centre, 73320, TIGNES;;;O;5
LES GRANGES D'EN HAUT;RÉSIDENCE DE TOURISME;Route de la Cote des Chavants, 74310, LES HOUCHES;;;O;5
LES DEMEURES TORRELLANES;RÉSIDENCE DE TOURISME;RD 40, 66200, LATOUR-BAS-ELNE;;;O;5
MAORA VILLAGE;RÉSIDENCE DE TOURISME;route de santa manza, 20169, BONIFACIO;;;O;5
RÉSIDENCE LA PINÈDE;RÉSIDENCE DE TOURISME;2 CARRER DEL PIGOT, 66110, AMÉLIE-LES-BAINS-PALALDA;;;O;5
RÉSIDENCE LE CLOS DES VENDANGES;RÉSIDENCE DE TOURISME;chemin de poggiole, 20230, SAN-NICOLAO;;;O;5
CASA DEL TORRENTE;RÉSIDENCE DE TOURISME;ROUTE D ' EVISA, 20150, PORTO - OTA;;;O;5
RÉSIDENCE LE VALIER;RÉSIDENCE DE TOURISME;Guzet Neige, 9140, USTOU;;;O;5
LE PRINCE DES ÉCRINS;RÉSIDENCE DE TOURISME;RUE DU SOLEIL, 38860, DEUX ALPES;;;O;5
RÉSIDENCE LES SPORTS;RÉSIDENCE DE TOURISME;6 rue Plan Champ, 73500, AUSSOIS;;;O;5
RESIDENCE CABANACCIA;RÉSIDENCE DE TOURISME;RESIDENCE CABANACCIA, 20147, SERRIERA;;;O;5
ODALYS VAL DE JADE;RÉSIDENCE DE TOURISME;avenue victor hugo, 31110, LUCHON;;;O;5
LES CHALETS CLUB MED DE VALMOREL ;RÉSIDENCE DE TOURISME;HAMEAU DU BOIS DE LA CROIX , 73260, LES AVANCHERS-VALMOREL;;;O;5
RÉSIDENCE ACQUA DOLCE;RÉSIDENCE DE TOURISME;Pisciatello, 20117, ECCICA-SUARELLA;;;O;5
RÉSIDENCE LES PALMIERS DE PALOMBAGGIA;RÉSIDENCE DE TOURISME;Route de Palombaggia, 20137, PORTO-VECCHIO;;;O;5
LES DÔMES;RÉSIDENCE DE TOURISME;groires, 63790, MUROL;;;O;5
RESIDENCE ROYAL BEARN;RÉSIDENCE DE TOURISME;3 RUE DU MARECHAL LECLERC, 64270, SALIES DE BEARN;;;O;5
CHALET LE REFUGE;RÉSIDENCE DE TOURISME;la rosiere, 73700, MONTVALEZAN;;;O;5
CITADINES BUFFA NICE;RÉSIDENCE DE TOURISME;21 rue Meyerbeer, 6000, NICE;;;O;5
RÉSIDENCE DES 3 CÉSARS;RÉSIDENCE DE TOURISME;ALLÉE DES THERMES, 9140, AULUS-LES-BAINS;;;O;5
RESORT RÉSIDENCE;RÉSIDENCE DE TOURISME;1 allée Fleur de Sel, 56340, CARNAC;;;O;5
PAUSEOME APPARTHOTEL;RÉSIDENCE DE TOURISME;avenue de la côte de nacre, 14000, CAEN;;;O;5
RÉSIDENCE LE SURF DES NEIGES ;RÉSIDENCE DE TOURISME;rue de l'irarde, 38860, LES DEUX ALPES;;;O;5
RÉSIDENCE ADRÉCHAS;RÉSIDENCE DE TOURISME;Route de la Via Ferrata, La Colmiane, 6420, VALDEBLORE;;;O;5
LOU CASTELET;RÉSIDENCE DE TOURISME;Route Départementale N° 1, 6510, CARROS;;;O;5
CITADINES AUSTERLITZ PARIS;RÉSIDENCE DE TOURISME;27 RUE ESQUIROL, 75013, PARIS;;;O;5
ADAGIO ACCESS NOGENT SUR MARNE;RÉSIDENCE DE TOURISME;18 RUE NAZARE - QUAI DU PORT, 94130, NOGENT SUR MARNE;;;O;5
SAINT AVIT LOISIRS;RÉSIDENCE DE TOURISME;Gabernat, 24260, SAINT AVIT DE VILIARD;;;O;5
TEMPORÉSIDENCE CATHÉDRALE;RÉSIDENCE DE TOURISME;9 rue Sabaterie , 64100, BAYONNE ;;;O;5
RESIDENCE ARIA MARINA;RÉSIDENCE DE TOURISME;LIEU DIT CUPARCHIATA, 20110, PROPRIANO;;;O;5
RESIDENCE LE PARC DES AIRELLES;RÉSIDENCE DE TOURISME;Zac du Bois de Méan, 5200, LES ORRES;;;O;5
CHALET DES NEIGES - PLEIN SUD;RÉSIDENCE DE TOURISME;rue de la boucle, 73400, VAL THORENS;;;O;5
COSTA D'ORU;RÉSIDENCE DE TOURISME;TETTOLA, 20217, SAINT FLORENT;;;O;5
RÉSIDENCE L'ABBAYE DU CAP;RÉSIDENCE DE TOURISME;1 avenue du chevalier d'alphonse, 34300, LE-CAP-D'AGDE;;;O;5
COMFORT SUITES DEAUVILLE SUD;RÉSIDENCE DE TOURISME;2 RUE DE LA MARE DE TOUQUES, 14800, SAINT ARNOULT;;;O;5
RESIDENCE NEIGE ET GOLF;RÉSIDENCE DE TOURISME;ROUTE D'ITALIE, 5100, MONTGENEVRE;;;O;5
RÉSIDENCE LE VERY;RÉSIDENCE DE TOURISME;541 avenue des Jeux olypiques Col des Saisies, 73620, HAUTELUCE;;;O;5
FORME-HÔTEL;RÉSIDENCE DE TOURISME;185 RUE CHARLES LINDBERGH FREJORGUES OUEST, 34130, MAUGUIO;;;O;5
RÉSIDENCE DE TOURISME LE MERILYS;RÉSIDENCE DE TOURISME;Le rond point des pistes, 73550, MERIBEL;;;O;5
COMFORT LE MAS DE L'ETOILE;RÉSIDENCE DE TOURISME;RN 396 PONT DE L'ETOILE, 13400, AUBAGNE;;;O;5
VILLA MARINE;RÉSIDENCE DE TOURISME;106 route des Lacs, 33780, SOULAC SUR MER;;;O;5
L'EMPIRE PARIS;RÉSIDENCE DE TOURISME;48 RUE DE L'ARBRE SEC, 75001, PARIS;;;O;5
CHALET LE SABAUDIA;RÉSIDENCE DE TOURISME;440 route du front de neige, 74260, LES GETS;;;O;5
RÉSIDENCE DE TOURISME PAVIDDONU;RÉSIDENCE DE TOURISME;Lieu dit Pavellone Route de Palombaggia, 20137, PORTO-VECCHIO;;;O;5
LE JARDIN MAURESQUE;RÉSIDENCE DE TOURISME;120 cours Desbiey, 33120, ARCACHON;;;O;5
LA MAISON DES VIGNES;RÉSIDENCE DE TOURISME;Domaine d'Heurtebise, 17500, JONZAC;;;O;5
RÉSIDENCE HÔTELIÈRE DU HAVRE;RÉSIDENCE DE TOURISME;19 cours de la République, 76600, LE HAVRE;;;O;5
RÉSIDENCE DES MOUSQUETAIRES;RÉSIDENCE DE TOURISME;RUE DE LA TOUR, 32150, BARBOTAN;;;O;5
RÉSIDENCE DES BAINS DE CASTELJALOUX;RÉSIDENCE DE TOURISME;La Bartère, 47700, CASTELJALOUX;;;O;5
AQUARELLE'S VILLAS;RÉSIDENCE DE TOURISME;domaine de Nogent 1, 97115, SAINTE-ROSE;;;O;5
RÉSIDENCE LES ACANTHES;RÉSIDENCE DE TOURISME;13 avenue des Écureuils, 40150, SOORTS-HOSSEGOR;;;O;5
RÉSIDENCE VILLAGE CRÉOLE;RÉSIDENCE DE TOURISME;Pointe du Bout, 97229, LES TROIS-ILETS;;;O;5
RÉSIDENCE LE CHEVAL BLANC ;RÉSIDENCE DE TOURISME;1 PLACE DES ARÈNES, 30900, NÎMES;;;O;5
RÉSIDENCE HACIENDA;RÉSIDENCE DE TOURISME;Boulevard Pierre Pasquini, boîte postale 109, 20220, L'ÎLE-ROUSSE;;;O;5
CHALETS DU SOLEIL - JULIETTA;RÉSIDENCE DE TOURISME;Quartier Reberty - LES MENUIRES, 73440, SAINT MARTIN DE BELLEVILLE;;;O;5
MOTEL LE VIEUX MOULIN ;RÉSIDENCE DE TOURISME;route de monticello, 20220, L'ÎLE-ROUSSE;;;O;5
RÉSIDENCE LE BELLEVUE;RÉSIDENCE DE TOURISME;89 avenue Henry Chéron, 14000, CAEN;;;O;5
SARL RESIDENCE SAINT JOSEPH;RÉSIDENCE DE TOURISME;CHEMIN DES NOELLES - LA FONTAINE AUX BRETONS, 44210, PORNIC;;;O;5
RESIDENCE IZARPEAN;RÉSIDENCE DE TOURISME;CHEMIN OYHAMBURUA, 64210, BIDART;;;O;5
RÉSIDENCE SAINT ANDREOL;RÉSIDENCE DE TOURISME;DOMAINE DE SAINT ENDREOL ROUTE DE BAGNOL EN FORET, 83920, LA MOTTE EN PROVENCE;;;O;5
S.E.B FIUM DEL CAVO;RÉSIDENCE DE TOURISME;RESIDENCE FIUM DEL CAVO, 20144, SAINTE LUCIE DE PORTO VECCHIO;;;O;5
SARL LES CONTREBANDIERS   LA FLECHE D'OR;RÉSIDENCE DE TOURISME;973 ROUTE DE VONNES, 74390, CHATEL;;;O;5
DOCK OUEST RESIDENCE;RÉSIDENCE DE TOURISME;39, Rue des Docks, 69009, LYON;;;O;5
MONTANA LES AIRELLES;RÉSIDENCE DE TOURISME;LES ALMES, 73320, TIGNES LE LAC;;;O;5
CLARION HOTEL CHATEAU BELMONT;RÉSIDENCE DE TOURISME;57 rue groison, 37100, TOURS;;;O;5
RESIDENCE DU SOLEIL;RÉSIDENCE DE TOURISME;7 RUE LOUIS POMES - BP 127, 65100, LOURDES;;;O;5
RESIDENCE L'AIGLON DE MORZINE;RÉSIDENCE DE TOURISME;481 route de la Plagne, 74110, MORZINE;;;O;5
TILLEUL PLAZA RÉSIDENCE;RÉSIDENCE DE TOURISME;1 Rue des VOSGES Place du Tilleul, 88400, GERARDMER;;;O;5
AZURÈVA PIAU ENGALY;RÉSIDENCE DE TOURISME;Piau Engaly, 65170, ARAGNOUET;;;O;5
LES TERRASSES DE SCALEGIU;RÉSIDENCE DE TOURISME;ROUTE DE PORRA, 20137, PORTO-VECCHIO;;;O;5
RESIDENCE ELLADA;RÉSIDENCE DE TOURISME;ROUTE DE LA PLAGE DU PERO, 20130, CARGÈSE;;;O;5
LE MAS DE VALRUGUES;RÉSIDENCE DE TOURISME;chemin canto cigalo, 13210, SAINT-RÉMY-DE-PROVENCE;;;O;5
MARINA DI A TESTA;RÉSIDENCE DE TOURISME;RÉSIDENCE DE TOURISME MARINA DI A TESTA, 20144, SAINTE-LUCIE-DE-PORTO-VECCHIO;;;O;5
RESIDENCE CHIAR'DI LUNA;RÉSIDENCE DE TOURISME;FERRULAGHJOLU, 20144, SAINTE LUCI DE PORTO VECCHIO;;;O;5
VERCORS PARK;RÉSIDENCE DE TOURISME;4 Boulevard du Cagnard, 26150, DIE;;;O;5
LES LOGIS DES BOISEMENTS;RÉSIDENCE DE TOURISME;La Combe, 12110, CRANSAC;;;O;5
LES VILLAS DES PINS;RÉSIDENCE DE TOURISME;151 avenue de la Faye, 85270, SAINT-HILAIRE-DE-RIEZ;;;O;5
LE DOMAINE DE LA CORNICHE;RÉSIDENCE DE TOURISME;560 ROUTE DE LA CORNICHE, 14640, AUBERVILLE;;;O;5
CHALET GABRIEL;RÉSIDENCE DE TOURISME;4151 ROUTE DU BETTEX, 74170, SAINT-GERVAIS;;;O;5
CHATEAU DE LAZENAY;RÉSIDENCE DE TOURISME;RUE DE LA VERNUSSE, 18000, BOURGES;;;O;5
BEL OMBRA;RÉSIDENCE DE TOURISME;AVENUE GERARD MARCHE, 20260, CALVI;;;O;5
RÉSIDENCE HELIOS;RÉSIDENCE DE TOURISME;menasina, 20130, CARGÈSE;;;O;5
RÉSIDENCE DU PARC;RÉSIDENCE DE TOURISME;39 Avenue des Thermes, 32150, BARBOTAN LES THERMES;;;O;5
RÉSIDENCE LES TAMARIS;RÉSIDENCE DE TOURISME;La Prodélie, 19310, YSSANDON;;;O;5
RÉSIDENCE LES FONTAINES;RÉSIDENCE DE TOURISME;RUE DES FONTAINES, 32410, CASTÉRA-VERDUZAN;;;O;5
RÉSIDENCE LE NORMANDOUX ;RÉSIDENCE DE TOURISME;RUE DES SAPINS, 86800, TERCÉ;;;O;5
RÉSIDENCE BELVÉDÈRE DE PALOMBAGGIA;RÉSIDENCE DE TOURISME;Route de la Plage de Palombaggia , 20137, PORTO-VECCHIO;;;O;5
HÔTEL RÉSIDENCE LES HAUTS DE PORTO VECCHIO;RÉSIDENCE DE TOURISME;Trinite, 20137, PORTO-VECCHIO;;;O;5
RÉSIDENCE BEAUSÉJOUR;RÉSIDENCE DE TOURISME;26 AVENUE LOUIS FRANCAIS, 88370, PLOMBIÈRES-LES-BAINS;;;O;5
RÉSIDENCE MARE E FESTA ;RÉSIDENCE DE TOURISME;Route Nationale 198, 20145, SARI-SOLENZARA;;;O;5
RÉSIDENCE LE PADRO;RÉSIDENCE DE TOURISME;Route de Calenzana, 20260, CALVI;;;O;5
COLOMBARA;RÉSIDENCE DE TOURISME;RUE SAMPIERO, 20130, CARGÈSE;;;O;5
NEW RESIDENCE;RÉSIDENCE DE TOURISME;6-8 rue lucien noël, 93260, LES LILAS;;;O;5
RÉSIDENCE MAQUIS BELLA VISTA;RÉSIDENCE DE TOURISME;17 route de paratella, 20110, PROPRIANO;;;O;5
RÉSIDENCE MARINA DI FIORI;RÉSIDENCE DE TOURISME;15 chemin des plages, 20110, PROPRIANO;;;O;5
RÉSIDENCE FROND'NEIGE;RÉSIDENCE DE TOURISME;667 avenue de Joux Plane, 74110, MORZINE;;;O;5
LES OLIVIERS;RÉSIDENCE DE TOURISME;route de palombaggia, boîte postale 114, 20538, PORTO-VECCHIO-CEDEX;;;O;5
LA RÉSIDENCE DES THERMES;RÉSIDENCE DE TOURISME;Domaine Thermal de Neyrac-les-Bains, 7380, MEYRAS;;;O;5
RÉSIDENCE THALASSAINTES;RÉSIDENCE DE TOURISME;avenue du commandant Jacques Yves COUSTEAU, 13460, SAINTES-MARIES-DE-LA-MER;;;O;5
STELLA MARINA;RÉSIDENCE DE TOURISME;lieu-dit face Macinaggio, 20247, ROGLIANO;;;O;5
RESIDENCE MAINA;RÉSIDENCE DE TOURISME;ROUTE DU PERO, 20130, CARGESE;;;O;5
RESIDENCE DU PARC;RÉSIDENCE DE TOURISME;THERMES DE SAINT-CHRISTAU, 64660, LURBE-SAINT-CHRISTAU;;;O;5
RÉSIDENCE VILLA NOVA;RÉSIDENCE DE TOURISME;Route Départementale 81, 20111, TIUCCIA;;;O;5
VILLA DAUBENTON;RÉSIDENCE DE TOURISME;3 RUE D ARBALETE, 75005, PARIS;;;O;5
LES CIGALES;RÉSIDENCE DE TOURISME;rue antoine filipi WAGNER, 20137, PORTO-VECCHIO;;;O;5
MOTEL SAINT MICHEL;RÉSIDENCE DE TOURISME;16 boulevard pierre pasquini, 20220, L'ILE ROUSSE;;;O;5
E CASELLE VILLAS HÔTELIÈRES;RÉSIDENCE DE TOURISME;lieu-dit Calvello, 20253, PATRIMONIO;;;O;5
LES CHALETS D'ESTIVE;RÉSIDENCE DE TOURISME;52 avenue du docteur domer, 65110, CAUTERETS;;;O;5
RESIDENCE ALMA MARCEAU;RÉSIDENCE DE TOURISME;5-7 RUE JEAN GIRAUDOUX, 75016, PARIS;;;O;5
LA FERME DE JEAN MARIE;RÉSIDENCE DE TOURISME;ROUTE DE GABARRET, 32150, BARBOTAN;;;O;5
RÉSIDENCE CALA DI SOGNO;RÉSIDENCE DE TOURISME;route de cala rossa, 20137, PORTO-VECCHIO;;;O;5
RÉSIDENCE FUNTANA MARINA;RÉSIDENCE DE TOURISME;route de palombaggia, lieu-dit asciato, 20137, PORTO-VECCHIO;;;O;5
AMHOTEL;RÉSIDENCE DE TOURISME;96 AVENUE DE CHOISY, 75013, PARIS;;;O;5
LES BUNGALOWS DE FIGHA;RÉSIDENCE DE TOURISME;marine de conca, 20144, ST LUCIE DE PORTO VECCHIO;;;O;5
LA CUVE;RÉSIDENCE DE TOURISME;Quai Syracuse, 20137, PORTO-VECCHIO;;;O;5
RÉSIDENCE FLORIMONTANE;RÉSIDENCE DE TOURISME;32 chemin des Sablons, Echarvines, 74290, TALLOIRES;;;O;5
ODALYS LABELLEMONTAGNE ;RÉSIDENCE DE TOURISME;lieu dit les Félizes, 73710, PRALOGNAN LA VANOISE;;;O;5
RÉSIDENCE PIERRE ET VACANCES - CATALANA  ;RÉSIDENCE DE TOURISME;Boulevard Guadeloupe  Cap Coudalère, 66420, LE-BARCARÈS;;;O;5
RÉSIDENCE  MAEVA LES BALCONS DE COLLIOURE;RÉSIDENCE DE TOURISME;28 Route de Port Vendres, 66190, COLLIOURE;;;O;5
HOTEL RENAISSANCE PARIS VENDOME;HÔTEL;4 rue du Mont Thabor, 75001, PARIS;;;O;5
HOTEL MALTE OPERA;HÔTEL;63, rue de Richelieu, 75002, PARIS;;;O;5
HÔTEL PARK HYATT PARIS VENDÔME;HÔTEL;5 rue de la Paix, 75002, PARIS;;;O;5
HOTEL CARON;HÔTEL;3 rue caron, 75004, PARIS;;;O;5
HOTEL DE LA MOTTE PICQUET;HÔTEL;30 avenue de la Motte Picquet, 75007, PARIS;;;O;5
HOTEL SAINT AUGUSTIN ELYSEES;HÔTEL;9, rue Roy, 75008, PARIS;;;O;5
HOTEL ASTORIA OPERA;HÔTEL;42, rue de Moscou, 75008, PARIS;;;O;5
HÔTEL LE BRISTOL;HÔTEL;112 rue du Faubourg Saint Honoré, 75008, PARIS;;;O;5
HOTEL INTERCONTINENTAL PARIS AVENUE MARCEAU;HÔTEL;64 avenue Marceau, 75008, PARIS;;;O;5
HOTEL DE SERS;HÔTEL;41 avenue Pierre 1er de Serbie, 75008, PARIS;;;O;5
HÔTEL CHAMPS ELYSÉES PLAZA;HÔTEL;35, rue de Berri, 75008, PARIS;;;O;5
HÔTEL PLAZA ATHÉNÉE;HÔTEL;25 avenue Montaigne, 75008, PARIS;;;O;5
FOUR SEASONS HOTEL GEORGE V;HÔTEL;31 Avenue George V, 75008, PARIS;;;O;5
HOTEL MARRIOTT PARIS CHAMPS-ELYSEES;HÔTEL;70 Avenue des Champs Elysées, 75008, PARIS;;;O;5
HOTEL AIDA OPERA;HÔTEL;11 RUE RICHER 17 RUE DU CONSERVATOIRE, 75009, PARIS;;;O;5
HOTEL EXCELSIOR OPERA;HÔTEL;5 RUE LA FAYETTE, 75009, PARIS;;;O;5
HOTEL LORETTE OPERA;HÔTEL;36, rue Notre Dame de Lorette, 75009, PARIS;;;O;5
HOTEL CAUMARTIN OPERA;HÔTEL;27, rue de Caumartin, 75009, PARIS;;;O;5
HOTEL ASTRA OPERA;HÔTEL;29, rue de Caumartin, 75009, PARIS;;;O;5
HOTEL SCRIBE;HÔTEL;1 rue Scribe, 75009, PARIS;;;O;5
HOTEL JULES;HÔTEL;49-51 rue La Fayette, 75009, PARIS;;;O;5
HÔTEL MISTRAL;HÔTEL;3 RUE DE CHALIGNY, 75012, PARIS;;;O;5
HOTEL ISTRIA;HÔTEL;29, rue Campagne Première, 75014, PARIS;;;O;5
HOTEL MERCURE PARIS GARE MONTPARNASSE;HÔTEL;20 rue de la Gaité, 75014, PARIS;;;O;5
HOTEL RESTAURANT LE MYOSOTIS;HÔTEL;37 rue de l'Aude, 75014, PARIS;;;O;5
HOTEL MERCURE PARIS PORTE DE VERSAILLES VAUGIRARD;HÔTEL;69 boulevard Victor, 75015, PARIS;;;O;5
HOTEL STELLA;HÔTEL;20 avenue Carnot, 75017, PARIS;;;O;5
HOTEL CECILIA;HÔTEL;11 avenue Mac-Mahon, 75017, PARIS;;;O;5
ETOILE PARK HOTEL;HÔTEL;10 avenue MAC-MAHON, 75017, PARIS;;;O;5
RENAISSANCE PARIS ARC DE TRIOMPHE;HÔTEL;39, avenue de Wagram, 75017, PARIS;;;O;5
HÔTEL DU MOULIN ;HÔTEL;3 rue Aristide Bruant, 75018, PARIS;;;O;5
HOTEL DE PARIS;HÔTEL;188 avenue Jean Jaurès, 75019, PARIS;;;O;5
LE MERIDIEN ETOILE;HÔTEL;81 boulevard Gouvion Saint Cyr, 75017, PARIS ;;;O;1
INTERCONTINENTAL PARIS LE GRAND;HÔTEL;2, rue Scribe, 75009, PARIS;;;O;1
HOTEL PULLMAN PARIS BERCY;HÔTEL;1, rue de Libourne, 75012, PARIS;;;O;1
PULLMAN PARIS MONTPARNASSE;HÔTEL;19 rue commandant mouchotte, 75014, PARIS;;;O;1
IBIS PARIS TOUR EIFFEL;HÔTEL;2 RUE CAMBRONNE, 75015, PARIS;;;O;1
SAINT JAMES ALBANY HÔTEL SPA;HÔTEL;202 RUE DE RIVOLI, 75001, PARIS;;;O;1
HÔTEL CONCORDE LA FAYETTE;HÔTEL;3 place du Général Koenig, 75017, PARIS;;;O;1
CROWNE PLAZA PARIS REPUBLIQUE;HÔTEL;10 Place de la République, 75011, PARIS;;;O;1
CONCORDE OPÉRA PARIS;HÔTEL;108 rue Saint-Lazare, 75008, PARIS;;;O;1
IBIS PARIS BASTILLE OPÉRA;HÔTEL;15 rue Bréguet, 75011, PARIS;;;O;2
HOTEL MARRIOTT RIVE GAUCHE;HÔTEL;17 BOULEVARD SAINT JACQUES, 75014, PARIS;;;O;2
MERCURE PARIS LA VILLETTE;HÔTEL;216 avenue jean jaures, 75019, PARIS;;;O;2
ALL SEASONS PARIS BERCY;HÔTEL;77 RUE DE BERCY, 75012, PARIS;;;O;2
HÔTEL IBIS PARIS BERTHIER PORTE DE CLICHY;HÔTEL;163 Bis avenue de Clichy, 75017, PARIS;;;O;2
RADISSON BLU AMBASSADOR PARIS OPERA ;HÔTEL;16 bld haussmann, 75009, PARIS 09;;;O;2
NOVOTEL PARIS VAUGIRARD MONTPARNASSE;HÔTEL;257 RUE DE VAUGIRARD, 75015, PARIS;;;O;2
LE ROYAL MONCEAU RAFFLES PARIS;HÔTEL;37 avenue Hoche, 75008, PARIS;;;O;2
HÔTEL PARIS LA VILLETTE FOREST HILL;HÔTEL;28 ter avenue Corentin Cariou, 75019, PARIS;;;O;2
ETAP HOTEL PARIS PORTE DE MONTMARTRE;HÔTEL;45 rue du Docteur Babinski, 75018, PARIS;;;O;2
PULLMAN PARIS RIVE GAUCHE;HÔTEL;5-12 rue louis armand, 75015, PARIS;;;O;2
NOVOTEL PARIS LES HALLES;HÔTEL;8, place Marguerite de Navarre, 75001, PARIS;;;O;2
HOTEL F1 PORTE DE MONTMARTRE;HÔTEL;29, rue du docteur Babinski, 75018, PARIS;;;O;2
IBIS PARIS ALESIA MONTPARNASSE;HÔTEL;49 Rue des Plantes, 75014, PARIS;;;O;2
HOTEL IBIS PARIS LA VILLETTE;HÔTEL;31/35 QUAI DE L'OISE, 75019, PARIS;;;O;2
L'HÔTEL DU COLLECTIONNEUR;HÔTEL;51/57 rue de Courcelles, 75008, PARIS;;;O;2
PULLMAN PARIS TOUR EIFFEL;HÔTEL;18 avenue du Suffren, 75015, PARIS;;;O;2
HOTEL DE CRILLON;HÔTEL;10 place de la Concorde, 75008, PARIS;;;O;2
HÔTEL DU LOUVRE;HÔTEL;Place André-Malraux, 75001, PARIS;;;O;2
THE WESTIN PARIS - VENDÔME;HÔTEL;3 rue de Castiglione, 75001, PARIS;;;O;2
ETAP HOTEL PARIS LA VILLETTE;HÔTEL;57 AVENUE JEAN JAURES, 75019, PARIS;;;O;2
HOTEL CAMPANILE PARIS LA VILETTE;HÔTEL;147-151 avenue de Flandre, 75019, PARIS;;;O;2
SOFITEL PARIS ARC DE TRIOMPHE;HÔTEL;14 RUE BEAUJON, 75008, PARIS;;;O;2
MERCURE PARIS CENTRE TOUR EIFFEL;HÔTEL;20 rue Jean Rey, 75015, PARIS;;;O;2
W PARIS OPÉRA;HÔTEL;4 rue meyerbeer, 75009, PARIS;;;O;2
HÔTEL CONCORDE MONTPARNASSE;HÔTEL;40 Rue du Commandant René Mouchotte, 75014, PARIS;;;O;2
F1 PARIS PORTE DE CHATILLON;HÔTEL;21/23 AVENUE DE LA PORTE DE CHATILLON, 75014, PARIS;;;O;2
NOVOTEL PARIS GARE DE LYON;HÔTEL;2 rue Hector Malot, 75012, PARIS;;;O;3
IBIS PARIS MONTMARTRE;HÔTEL;5 RUE CAULAINCOURT, 75018, PARIS;;;O;3
HOTEL MERCURE PARIS MONTMARTRE;HÔTEL;3 rue Caulaincourt, 75018, PARIS;;;O;3
HOTEL MERCURE PARIS GARE DE LYON;HÔTEL;2 place Louis Armand, 75012, PARIS;;;O;3
HOTEL IBIS PARIS BERCY VILLAGE;HÔTEL;19 PLACE DES VINS DE FRANCE, 75012, PARIS;;;O;3
SUITE NOVOTEL PARIS LA CHAPELLE;HÔTEL;1 IMPASSE MARTEAU, 75018, PARIS;;;O;3
NOVOTEL PARIS GARE MONTPARNASSE;HÔTEL;17, RUE DU COTENTIN, 75015, PARIS;;;O;3
SOFITEL PARIS LE FAUBOURG;HÔTEL;15 rue Boissy d'Anglas, 75008, PARIS;;;O;3
HOTEL TIMHOTEL PARIS XVII BOULEVARD BERTHIER;HÔTEL;4 boulevard Berthier, 75017, PARIS;;;O;3
NOVOTEL PARIS BERCY;HÔTEL;85 rue de Bercy , 75012, PARIS;;;O;3
ETAP HOTEL PORTE D'ORLEANS PARIS 14;HÔTEL;15-21 BOULEVARD ROMAIN ROLLAND, 75014, PARIS;;;O;3
HÔTEL BANKE;HÔTEL;20 rue de Lafayette, 75009, PARIS;;;O;3
MERCURE TERMINUS NORD;HÔTEL;12 boulevard de denain, 75010, PARIS;;;O;3
HOTEL PERSHING HALL;HÔTEL;49, rue Pierre Charron, 75008, PARIS;;;O;3
HOTEL KYRIAD PARIS BERCY VILLAGE;HÔTEL;19 RUE BARON LE ROY, 75012, PARIS;;;O;3
HÔTEL LUTETIA;HÔTEL;45 BOULEVARD RASPAIL, 75006, PARIS;;;O;3
HOLIDAY INN PARIS GARE DE L'EST;HÔTEL;5 RUE DU 8 MAI 1945, 75010, PARIS;;;O;3
HÔTEL WESTMINSTER;HÔTEL;13 RUE DE LA PAIX, 75002, PARIS;;;O;3
HOLIDAY INN EXPRESS PARIS-CANAL DE LA VILLETTE;HÔTEL;68 quai de la seine, 75019, PARIS;;;O;3
HÔTEL IBIS PARIS PORTE DE MONTREUIL;HÔTEL;2 avenue du professeur André Lemièrre, 75020, PARIS;;;O;3
HOTEL CALIFORNIA PARIS CHAMPS ELYSEES;HÔTEL;16 rue de Berri, 75008, PARIS;;;O;3
LE BURGUNDY PARIS;HÔTEL;6 - 8, rue Duphot, 75001, PARIS;;;O;3
HÔTEL MÉDIAN PORTE DE VERSAILLES;HÔTEL;1 boulevard Victor, 75015, PARIS;;;O;3
HÔTEL IBIS PARIS GARE DE LYON LEDRU ROLLIN;HÔTEL;41-43 avenue Ledru Rollin, 75012, PARIS;;;O;3
HOTEL MEDIAN PARIS CONGRÈS;HÔTEL;6-8 BOULEVARD DE DOUAUMONT, 75017, PARIS;;;O;3
ALL SEASONS PARIS GARE DE L'EST CHATEAU LANDON;HÔTEL;1 & 3 RUE CHATEAU LANDON, 75010, PARIS;;;O;3
CAMPANILE PARIS BASTILLE;HÔTEL;9 RUE DU CHEMIN VERT, 75011, PARIS;;;O;3
HÔTEL MILLÉNNIUM PARIS OPÉRA;HÔTEL;12 Boulevard Haussmann, 75009, PARIS;;;O;3
HOLIDAY INN PARIS NOTRE DAME;HÔTEL;4 rue Danton, 75006, PARIS;;;O;3
HOTEL LE LOTTI;HÔTEL;7 RUE DE CASTIGLIONE, 75001, PARIS;;;O;3
IBIS GARE DU NORD CHATEAU LANDON;HÔTEL;197-199 RUE LAFAYETTE, 75010, PARIS;;;O;3
HÔTEL RITZ PARIS;HÔTEL;15 place Vendôme, 75001, PARIS;;;O;3
HÔTEL LE MEURICE;HÔTEL;228 rue de Rivoli, 75001, PARIS;;;O;3
HÔTEL PONT-ROYAL;HÔTEL;5-7 rue Montalembert, 75007, PARIS;;;O;4
IBIS GARE DE LYON DIDEROT;HÔTEL;31 BIS BOULEVARD DIDEROT, 75012, PARIS;;;O;4
NOVOTEL PARIS PORTE D'ORLÉANS;HÔTEL;15/17/21 BOULEVARD ROMAIN ROLLAND, 75014, PARIS;;;O;4
HOLIDAY INN PARIS SAINT GERMAIN DES PRES;HÔTEL;92 rue de Vaugirard, 75006, PARIS;;;O;4
HÔTEL WARWICK CHAMPS-ELYSÉES;HÔTEL;5 Rue de Berri, 75008, PARIS;;;O;4
HOTEL BEDFORD;HÔTEL;17, rue de l'Arcade, 75008, PARIS;;;O;4
NOVOTEL PARIS 17 PORTE D'ASNIÈRES;HÔTEL;34 avenue de la porte d'asnières, 75017, PARIS;;;O;4
HÔTEL ASTOR SAINT-HONORÉ;HÔTEL;11 RUE D'ASTORG, 75008, PARIS;;;O;4
HÔTEL BALTIMORE - MGALLERY COLLECTION;HÔTEL;88 bis avenue Kléber, 75116, PARIS;;;O;4
MANDARIN ORIENTAL PARIS;HÔTEL;251 RUE SAINT HONORE, 75001, PARIS;;;O;4
HOTEL BERGERE OPERA;HÔTEL;34 rue Bergere, 75009, PARIS;;;O;4
HÔTEL MERCURE OPÉRA GARNIER;HÔTEL;4 rue de l'Isly, 75008, PARIS;;;O;4
HOLIDAY INN PARIS BASTILLE;HÔTEL;11 ET 15 RUE DE LYON, 75012, PARIS;;;O;4
K+K HÔTEL CAYRE;HÔTEL;4 boulevard raspail, 75007, PARIS;;;O;4
RENAISSANCE LE PARC TROCADERO;HÔTEL;55/57 Avenue Raymond Poincaré, 75116, PARIS;;;O;4
HÔTEL RÉGINA;HÔTEL;2 place des pyramides, 75001, PARIS;;;O;4
HOLIDAY INN PARIS OPÉRA GRANDS BOULEVARDS;HÔTEL;30-32 boulevard poissonnière, 75009, PARIS;;;O;4
CASTILLE PARIS;HÔTEL;33-37 rue Cambon, 75001, PARIS;;;O;4
HÔTEL BEL AMI;HÔTEL;7/11 rue Saint-Benoît, 75006, PARIS;;;O;4
INTER HOTEL CARLTON'S;HÔTEL;55 boulevard de Rochechouard, 75009, PARIS;;;O;4
HÔTEL RONCERAY OPÉRA;HÔTEL;10 BOULEVARD MONTMARTRE, 75009, PARIS;;;O;4
BEST WESTERN TRIANON RIVE GAUCHE;HÔTEL;1 bis rue de Vaugirard, 75006, PARIS;;;O;4
HOTEL AMPERE;HÔTEL;102 Avenue de Villiers, 75017, PARIS;;;O;4
MERCURE PARIS OPERA CUSSET;HÔTEL;95 rue de RICHELIEU, 75002, PARIS;;;O;4
IBIS PARIS GARE DE L'EST ;HÔTEL;6 rue saint laurent, 75010, PARIS;;;O;4
HÔTEL IBIS PARIS GRANDS BOULEVARDS OPÉRA 9ÈME;HÔTEL;38 rue du faubourg montmartre, 75009, PARIS;;;O;4
HOLIDAY INN PARIS MONTPARNASSE - AVENUE DU MAINE;HÔTEL;79-81 avenue du Maine, 75014, PARIS;;;O;4
TERRASS HOTEL;HÔTEL;12-14 RUE JOSEPH DE MAISTRE, 75018, PARIS;;;O;4
HOTEL OPERA CADET;HÔTEL;24 rue cadet, 75009, PARIS;;;O;4
HOTEL MONTALEMBERT;HÔTEL;3 rue de Montalembert, 75007, PARIS;;;O;4
HOTEL PROVINCES OPERA;HÔTEL;36 RUE DE L'ECHIQUIER, 75010, PARIS;;;O;4
HÔTEL NAPOLÉON;HÔTEL;38/40 AVENUE DE FRIEDLAND, 75008, PARIS;;;O;4
"CLUB BELAMBRA PARIS """"MAGENDIE""""";HÔTEL;2/4 RUE MAGENDIE, 75013, PARIS;;;O;4
HOTEL LE LITTRE;HÔTEL;9 RUE LITTRE, 75006, PARIS;;;O;5
IBIS AVENUE D'ITALIE;HÔTEL;15 BIS AVENUE D'ITALIE, 75013, PARIS;;;O;5
HÔTEL ETOILE ST HONORE;HÔTEL;214 RUE DU FAUBOURG ST-HONORE, 75008, PARIS;;;O;5
HÔTEL MONTMARTROIS;HÔTEL;6 BIS RUE DU CHEVALIER DE LA BARRE, 75018, PARIS;;;O;5
MERCURE PARIS AUSTERLITZ BIBLIOTHEQUE;HÔTEL;6 BOULEVARD VINCENT AURIOL, 75013, PARIS;;;O;5
BEST WESTERN BERCY RIVE GAUCHE;HÔTEL;82-84 rue Regnault, 75013, PARIS;;;O;5
QUALITY HOTEL PARIS ORLEANS;HÔTEL;185/187 BOULEVARD BRUNE, 75014, PARIS;;;O;5
HÔTEL DE LA TRÉMOILLE;HÔTEL;14 Rue De La Trémoille, 75008, PARIS;;;O;5
HÔTEL PARIS BERCY BIBLIOTHEQUE;HÔTEL;15 rue de tolbiac , 75013, PARIS;;;O;5
HÔTEL AUTEUIL TOUR EIFFEL;HÔTEL;8-10 rue félicien David, 75016, PARIS;;;O;5
HÔTEL PAVILLON OPÉRA;HÔTEL;38 rue de l'échiquier, 75010, PARIS;;;O;5
HÔTEL IBIS PARIS ORNANO MONTMARTRE NORD;HÔTEL;70 bis boulevard Ornano, 75018, PARIS;;;O;5
CAMPANILE PARIS GARE DU NORD ;HÔTEL;232, rue du Faubourg Saint Martin , 75010, PARIS ;;;O;5
CAMPANILE MAINE MONTPARNASSE;HÔTEL;146 avenue du maine, 75014, PARIS;;;O;5
ATLANTIC HOTEL;HÔTEL;44 rue de Londres, 75008, PARIS;;;O;5
HÔTEL MELIÀ VENDÔME;HÔTEL;8 RUE CAMBON, 75001, PARIS;;;O;5
HYATT REGENCY PARIS MADELEINE;HÔTEL;24 boulevard Malesherbes, 75008, PARIS;;;O;5
HOTEL IBIS PARIS MAINE MONTPARNASSE;HÔTEL;160 RUE DU CHATEAU, 75014, PARIS;;;O;5
TERMINUS VAUGIRARD;HÔTEL;403 RUE DE VAUGIRARD, 75015, PARIS;;;O;5
TIMHOTEL OPERA MADELEINE;HÔTEL;113 RUE SAINT LAZARE, 75008, PARIS;;;O;5
HÔTEL RAPHAEL;HÔTEL;17 Avenue KLéBER, 75116, PARIS;;;O;5
HOTEL ROYAL SAINT HONORE;HÔTEL;221 RUE SAINT HONORE, 75001, PARIS;;;O;5
HOTEL DUMINY VENDOME;HÔTEL;3 rue du Mont Thabor, 75001, PARIS;;;O;5
HÔTEL FOUQUET'S BARRIÈRE;HÔTEL;46 Avenue George V, 75008, PARIS;;;O;5
HÔTEL TRYP FRANÇOIS;HÔTEL;3 Boulevard Montmartre, 75002, PARIS;;;O;5
HOTEL BEAUCHAMPS;HÔTEL;24 rue de Ponthieu, 75008, PARIS;;;O;5
HÔTEL MANSART;HÔTEL;5 rue des capucines, 75001, PARIS;;;O;5
LES JARDINS D'EIFFEL;HÔTEL;8 RUE AMÉLIE, 75007, PARIS;;;O;5
HOTEL IBIS BASTILLE FAUBOURG ST ANTOINE;HÔTEL;13 RUE TROUSSEAU, 75011, PARIS;;;O;5
SHANGRI-LA HÔTEL PARIS;HÔTEL;10 avenue d'Iéna, 75116, PARIS;;;O;5
NEWHOTEL ROBLIN;HÔTEL;6 rue Chauveau Lagarde, 75008, PARIS;;;O;5
HOTEL CHATEAU FRONTENAC;HÔTEL;54 RUE PIERRE CHARRON, 75008, PARIS;;;O;5
TIMHOTEL PLACE D'ITALIE BUTTE AUX CAILLES;HÔTEL;22 RUE BARRAULT, 75013, PARIS;;;O;5
IDÉAL HÔTEL DESIGN;HÔTEL;108 BOULEVARD JOURDAN, 75014, PARIS;;;O;5
HÔTEL LONDRES ET NEW YORK;HÔTEL;15 place du havre , 75008, PARIS;;;O;5
HÔTEL ABRIAL;HÔTEL;176 rue Cardinet, 75017, PARIS;;;O;5
HOTEL LE CARDINAL;HÔTEL;3 RUE DU CARDINAL MERCIER, 75009, PARIS;;;O;5
MERCURE TOUR EIFFEL GRENELLE;HÔTEL;64 BOULEVARD DE GRENELLE, 75015, PARIS;;;O;5
HOTEL LE BELMONT;HÔTEL;30 RUE DE BASSANO, 75116, PARIS;;;O;5
IBIS PARIS BRANCION PARC DES EXPOSITIONS 15E;HÔTEL;105 RUE BRANCION, 75015, PARIS;;;O;5
HÔTEL BRIGHTON;HÔTEL;218 rue de rivolie, 75001, PARIS;;;O;5
TIMHOTEL MONTPARNASSE;HÔTEL;22 RUE DE L'ARRIVéE, 75015, PARIS;;;O;5
VILLA & HOTEL MAJESTIC ;HÔTEL;30 rue Lapérouse, 75116, PARIS;;;O;5
HÔTEL COSTES;HÔTEL;239-241 rue Saint-Honoré, 75001, PARIS;;;O;5
HÔTEL SAINT PÉTERSBOURG;HÔTEL;33 & 35, rue Caumartin, 75009, PARIS;;;O;5
HÔTEL AMIOT;HÔTEL;76 Boulevard de Strasbourg , 75010, PARIS ;;;O;5
HOTEL ROCHESTER CHAMPS ELYSÉES;HÔTEL;92 rue de la Boëtie, 75008, PARIS;;;O;5
HÔTEL PARISIANA;HÔTEL;21 rue de chabrol, 75010, PARIS;;;O;5
HÔTEL MERCURE PARIS MONTY OPÉRA;HÔTEL;5 RUE DE MONTYON, 75009, PARIS;;;O;5
HÔTEL DE LA FLÈCHE D'OR;HÔTEL;29 RUE D'AMSTERDAM, 75008, PARIS;;;O;5
HOTEL TIMHOTEL SAINT-GEORGES PIGALLE;HÔTEL;21 BOULEVARD DE CLICHY, 75009, PARIS;;;O;5
AVALON HÔTEL PARIS;HÔTEL;131-133 boulevard de Magenta, 75010, PARIS;;;O;5
HOTELMAGENTAPARIS.COM;HÔTEL;38 BOULEVARD DE MAGENTA, 75010, PARIS;;;O;5
IBIS GARE DU NORD LAFAYETTE;HÔTEL;122 rue Lafayette, 75010, PARIS;;;O;5
HOLIDAY INN PARIS MONTPARNASSE PASTEUR;HÔTEL;10 RUE GAGER GABILLOT, 75015, PARIS;;;O;5
HÔTEL ANDRÉ LATIN;HÔTEL;50-52 RUE GAY LUSSAC, 75005, PARIS;;;O;5
HOTEL ELYSEES UNION;HÔTEL;44 rue de l'Amiral Hamelin, 75116, PARIS;;;O;5
HÔTEL EDOUARD VII;HÔTEL;39 avenue de l'opéra, 75002, PARIS;;;O;5
HÔTEL LE MAGELLAN;HÔTEL;17 RUE JEAN-BAPTISTE DUMAS, 75017, PARIS;;;O;5
LIBERTEL GARE DE L'EST FRANCAIS;HÔTEL;13 RUE DU 8 MAI 1945, 75010, PARIS;;;O;5
HOME MODERNE;HÔTEL;61 rue Brancion, 75015, PARIS;;;O;5
IBIS PARIS OPERA LE PELETIER;HÔTEL;19 rue buffault, 75009, PARIS;;;O;5
ALL SEASONS PARIS TOLBIAC;HÔTEL;21 RUE DE TOLBIAC, 75013, PARIS;;;O;5
HÔTEL CORONA OPÉRA;HÔTEL;8 cité bergère , 75009, PARIS;;;O;5
TIMHOTEL GARE DU NORD;HÔTEL;10 Rue Philippe de Girard, 75010, PARIS;;;O;5
HOLIDAY INN EXPRESS - PARIS - PLACE D'ITALIE;HÔTEL;178, bd Vincent Auriol, 75013, PARIS;;;O;5
HÔTEL AJIEL;HÔTEL;237 RUE DE LA CONVENTION, 75015, PARIS;;;O;5
HÔTEL BALZAC ;HÔTEL;6 RUE BALZAC, 75008, PARIS;;;O;5
HOTEL VICTOR HUGO;HÔTEL;19 rue Copernic, 75116, PARIS;;;O;5
ABACA MESSIDOR HOTEL;HÔTEL;330 rue de Vaugirard, 75015, PARIS;;;O;5
HÔTEL DE CASTIGLIONE;HÔTEL;38-40 RUE DU FAUBOURG SAINT-HONORé, 75008, PARIS;;;O;5
HÔTEL MELIA ROYAL ALMA;HÔTEL;35 rue Jean Goujon, 75008, PARIS;;;O;5
HÔTEL SAINT CHARLES;HÔTEL;6 RUE DE L'ESPéRANCE, 75013, PARIS;;;O;5
TOURISME HÔTEL;HÔTEL;66 avenue de La Motte Picquet, 75015, PARIS;;;O;5
HOTEL D'AUBUSSON;HÔTEL;33 rue dauphine, 75006, PARIS;;;O;5
HOTEL TERMINUS LYON PARIS;HÔTEL;19 Boulevard Diderot, 75012, PARIS;;;O;5
HOTEL IBIS PARIS PLACE D'ITALIE;HÔTEL;25 AVENUE STEPHEN PICHON, 75013, PARIS;;;O;5
MELIA ALEXANDER;HÔTEL;102 AVENUE VICTOR HUGO, 75116, PARIS;;;O;5
SELECT HÔTEL;HÔTEL;1 PLACE DE LA SORBONNE, 75005, PARIS;;;O;5
BEST WESTERN OPÉRA SAINT LAZARE;HÔTEL;9 rue de Constantinople, 75008, PARIS;;;O;5
MERCURE PARIS ROYAL MADELEINE;HÔTEL;29 Rue de l'Arcade, 75008, PARIS;;;O;5
HÔTEL IBIS PARIS SACRE COEUR;HÔTEL;100, Boulevard De Rochechouart, 75018, PARIS;;;O;5
HÔTEL CANAL SAINT-MARTIN ;HÔTEL;5 avenue Secrétan, 75019, PARIS;;;O;5
HÔTEL LE PAVILLON DE LA REINE;HÔTEL;28 PLACE DES VOSGES, 75003, PARIS;;;O;5
HÔTEL RICHMOND OPÉRA;HÔTEL;11 rue du Helder, 75009, PARIS;;;O;5
HÔTEL PRINCESSE CAROLINE;HÔTEL;1Bis rue Troyon, 75017, PARIS;;;O;5
TIMHOTEL MONTMARTRE;HÔTEL;11 RUE RAVIGNAN, 75018, PARIS;;;O;5
VICTORIA PALACE HÔTEL;HÔTEL;6 rue Blaise Desgoffe, 75006, PARIS;;;O;5
HÔTEL TERMINUS MONTPARNASSE;HÔTEL;59 boulevard du Montparnasse, 75006, PARIS;;;O;5
MERCURE PARIS GOBELINS PLACE D'ITALIE;HÔTEL;8 bis av de la soeur Rosalie, 75013, PARIS;;;O;5
PARIS EST LAFAYETTE;HÔTEL;7 Rue des Petits Hôtels, 75010, PARIS;;;O;5
HÔTEL MONTPARNASSE ALÉSIA;HÔTEL;147 ter rue d'Alésia, 75014, PARIS;;;O;5
HÔTEL AMARANTE BEAUMANOIR;HÔTEL;6 RUE DE L'ARCADE, 75008, PARIS;;;O;5
HÔTEL DU PRINTEMPS;HÔTEL;1 rue de l'Isly, 75008, PARIS;;;O;5
HÔTEL FAUBOURG 216-224;HÔTEL;224 RUE DU FAUBOURG SAINT DENIS, 75010, PARIS;;;O;5
MERCURE RASPAIL MONTPARNASSE;HÔTEL;207 BOULEVARD RASPAIL, 75014, PARIS;;;O;5
HÔTEL ARMSTRONG;HÔTEL;36 rue de la croix Saint-Simon, 75020, PARIS;;;O;5
VILLA PANTHÉON;HÔTEL;41 Rue des écoles, 75005, PARIS;;;O;5
HÔTEL À LA VILLA DES ARTISTES;HÔTEL;9 rue de la Grande Chaumière, 75006, PARIS;;;O;5
HÔTEL LE M ;HÔTEL;20 bis rue de la Gaîté, 75014, PARIS;;;O;5
HÔTEL CAMPANILE PARIS 15 TOUR EIFFEL;HÔTEL;30 RUE SAINT-CHARLES, 75015, PARIS;;;O;5
BEST WESTERN STAR CHAMPS ELYSEES;HÔTEL;18 RUE DE L'ARC DE TRIOMPHE, 75017, PARIS;;;O;5
HÔTEL FLORIDE ÉTOILE;HÔTEL;14 RUE SAINT-DIDIER, 75116, PARIS;;;O;5
GRAND HÔTEL DE NORMANDIE;HÔTEL;4 rue d'amsterdam, 75009, PARIS;;;O;5
LE QUARTIER HOTEL BERCY SQUARE;HÔTEL;33, Boulevard de Reuilly, 75012, PARIS;;;O;5
HOTEL BALMORAL;HÔTEL;6 rue du Général LANREZAC, 75017, PARIS;;;O;5
HOLIDAY INN PARIS MONTMARTRE;HÔTEL;23 RUE DAMRéMONT, 75018, PARIS;;;O;5
HÔTEL ELYSEES CERAMIC;HÔTEL;34 avenue Wagram, 75008, PARIS;;;O;5
ROYAL HOTEL SA;HÔTEL;33 AVENUE DE FRIEDLAND, 75008, PARIS;;;O;5
TIMHOTEL PARIS GARE DE L'EST;HÔTEL;27 rue des récollets, 75010, PARIS;;;O;5
HÔTEL VIRGINA;HÔTEL;66 rue du père corentin, 75014, PARIS;;;O;5
HOTEL DE NOAILLES SAS;HÔTEL;9 RUE DE LA MICHODIERE, 75002, PARIS;;;O;5
MERCURE PARIS VOLTAIRE QUARTIER BASTILLE;HÔTEL;53 RUE RICHARD LENOIR, 75011, PARIS;;;O;5
LE MARCEAU BASTILLE;HÔTEL;13 RUE JULES CESAR, 75012, PARIS;;;O;5
HÔTEL INNOVA;HÔTEL;32 BOULEVARD PASTEUR, 75015, PARIS;;;O;5
TIMHOTEL OPÉRA BLANCHE FONTAINE;HÔTEL;34 RUE PIERRE FONTAINE, 75009, PARIS;;;O;5
HÔTEL PARIS 13 ITALIE GOBELINS;HÔTEL;5 Rue Véronèse, 75013, PARIS;;;O;5
HÔTEL CHAMPLAIN;HÔTEL;99 bis rue de Rome, 75017, PARIS;;;O;5
HÔTEL DES MINES;HÔTEL;125 BOULEVARD SAINT-MICHEL, 75005, PARIS;;;O;5
HÔTEL VERNET;HÔTEL;25 RUE VERNET, 75008, PARIS;;;O;5
HÔTEL POWERS;HÔTEL;52 rue François 1er, 75008, PARIS;;;O;5
HÔTEL OPÉRA LAFAYETTE;HÔTEL;80 rue Lafayette, 75009, PARIS;;;O;5
HOTEL MIGNY OPERA MONTMARTRE;HÔTEL;13 rue Victor Masse, 75009, PARIS;;;O;5
AZUR HÔTEL;HÔTEL;5 rue de lyon, 75012, PARIS;;;O;5
MERCURE PARIS XV;HÔTEL;6 RUE SAINT LAMBERT, 75015, PARIS;;;O;5
HOTEL BEST WESTERN BELLOY SAINT GERMAIN;HÔTEL;2 rue racine, 75006, PARIS;;;O;5
HORSET OPERA;HÔTEL;18 Rue d'Antin, 75002, PARIS;;;O;5
HÔTEL ALLÉGRO PARIS;HÔTEL;33 AVENUE DU DOCTEUR ARNOLD NETTER, 75012, PARIS;;;O;5
LA MAISON CHAMPS ÉLYSÉES;HÔTEL;8 rue Jean Goujon , 75008, PARIS;;;O;5
L'OUEST HOTEL;HÔTEL;3 rue du Rocher, 75008, PARIS;;;O;5
HOTEL DE L'OCEAN;HÔTEL;7 RUE MAYRAN, 75009, PARIS;;;O;5
MURANO PARIS;HÔTEL;13 Boulevard du Temple, 75003, PARIS;;;O;5
HÔTEL LA MANUFACTURE;HÔTEL;8 rue Philippe de Champagne, 75013, PARIS;;;O;5
LENOX MONTPARNASSE;HÔTEL;15 RUE DELAMBRE, 75014, PARIS;;;O;5
HÔTEL GRENELLE;HÔTEL;140  boulevard de grenelle, 75015, PARIS;;;O;5
HÔTEL RELAIS MONCEAU;HÔTEL;85 rue du rocher, 75008, PARIS;;;O;5
TIMHOTEL GAÎTÉ MONTPARNASSE;HÔTEL;8 RUE D'ODESSA , 75014, PARIS;;;O;5
BEST WESTERN BRETAGNE MONTPARNASSE;HÔTEL;33 RUE RAYMOND LOSSERAND, 75014, PARIS;;;O;5
VILLA BEAUMARCHAIS;HÔTEL;5 rue des Arquebusiers, 75003, PARIS;;;O;5
BEST WESTERN OPÉRA GRANDS BOULEVARDS;HÔTEL;42 rue des petites écuries, 75010, PARIS;;;O;5
GRAND HÔTEL NOUVEL OPÉRA;HÔTEL;152 AVENUE LEDRU ROLLIN, 75011, PARIS;;;O;5
TIMHOTEL LE LOUVRE;HÔTEL;4 rue croix des petits champs, 75001, PARIS;;;O;5
HOTEL DAUNOU OPERA;HÔTEL;6, rue Daunou, 75002, PARIS;;;O;5
HÔTEL DE ROUBAIX;HÔTEL;6 rue Greneta, 75003, PARIS;;;O;5
HÔTEL MINERVE;HÔTEL;13 rue des écoles, 75005, PARIS;;;O;5
HÔTEL DE SUEZ;HÔTEL;31 Boulevard SAINT MICHEL, 75005, PARIS;;;O;5
HÔTEL DU LEVANT;HÔTEL;18 rue de la Harpe, 75005, PARIS;;;O;5
GRAND HOTEL DES BALCONS;HÔTEL;3 RUE CASIMIR DELAVIGNE, 75006, PARIS;;;O;5
MADISON HOTEL;HÔTEL;143 boulevard St Germain, 75006, PARIS;;;O;5
GRAND HÔTEL LÉVÊQUE;HÔTEL;29 Rue Cler, 75007, PARIS;;;O;5
HÔTEL WEST END ;HÔTEL;7 RUE CLéMENT MAROT, 75008, PARIS;;;O;5
NEW HOTEL SAINT LAZARE;HÔTEL;53 RUE D'AMSTERDAM, 75008, PARIS;;;O;5
HOTELCERVANTESPARIS.COM;HÔTEL;19 rue de Berne, 75008, PARIS;;;O;5
HOTEL BRADFORD ELYSEES;HÔTEL;10, rue Saint Philippe du Roule, 75008, PARIS;;;O;5
HOTEL LANCASTER;HÔTEL;7 rue de Berri, 75008, PARIS;;;O;5
HÔTEL DIVA OPÉRA;HÔTEL;11 rue de trévise, 75009, PARIS;;;O;5
HÔTEL BRÉSIL OPÉRA;HÔTEL;23 rue bergère, 75009, PARIS;;;O;5
HÔTEL ROYAL FROMENTIN;HÔTEL;11 RUE FROMENTIN, 75009, PARIS;;;O;5
HÔTEL PAX OPÉRA;HÔTEL;47 rue de Trévise, 75009, PARIS;;;O;5
HÔTEL MOULIN PLAZA;HÔTEL;39 RUE PIERRE FONTAINE , 75009, PARIS;;;O;5
HÔTEL HAVANE;HÔTEL;44 RUE DE TRéVISE, 75009, PARIS;;;O;5
HÔTEL PEYRIS OPÉRA;HÔTEL;10 rue du Conservatoire, 75009, PARIS;;;O;5
HOTEL TOURING;HÔTEL;21 RUE BUFFAULT, 75009, PARIS;;;O;5
GRAND HOTEL DE TURIN;HÔTEL;6 RUE VICTOR MASSE, 75009, PARIS;;;O;5
HÔTEL D'AMIENS;HÔTEL;11 RUE DES DEUX GARES, 75010, PARIS;;;O;5
ALL SEASONS GARE DU NORD TGV;HÔTEL;11 rue de DUNKERQUE, 75010, PARIS;;;O;5
SIBOUR HÔTEL;HÔTEL;4 rue sibour , 75010, PARIS;;;O;5
HÔTEL LIÈGE STRASBOURG;HÔTEL;67 boulevard de strasbourg, 75010, PARIS;;;O;5
LE ROCROY HÔTEL PARIS;HÔTEL;13 RUE DE ROCROY, 75010, PARIS;;;O;5
MERCURE PARIS GARE DE L'EST MAGENTA;HÔTEL;1-3 Cour de la ferme st Lazare, 75010, PARIS;;;O;5
HOTEL AIDA MARAIS PRINTANIA;HÔTEL;19 RUE DU CHATEAU D EAU, 75010, PARIS;;;O;5
61 PARIS NATION HÔTEL;HÔTEL;61 rue de la Voûte, 75012, PARIS;;;O;5
HÔTEL MERCURE PARIS PLACE D'ITALIE;HÔTEL;25 boulevard auguste blanqui, 75013, PARIS;;;O;5
 HOTEL AIGLON;HÔTEL;232 boulevard Raspail, 75014, PARIS;;;O;5
TIMHOTEL ELYSEE MONTPARNASSE;HÔTEL;11 bis rue de la Gaité, 75014, PARIS;;;O;5
HOTEL LE ROYAL;HÔTEL;212 BLD RASPAIL, 75014, PARIS;;;O;5
HÔTEL AMARANTE ARC DE TRIOMPHE;HÔTEL;25 rue Théodore de Banville, 75017, PARIS;;;O;5
HÔTEL DES BATIGNOLLES;HÔTEL;26 rue des batignolles, 75017, PARIS;;;O;5
HÔTEL ROMA SACRÉ-COEUR;HÔTEL;101 rue Caulaincourt, 75018, PARIS;;;O;5
BEST WESTERN MONTMARTRE;HÔTEL;66 boulevard Barbès, 75018, PARIS;;;O;5
HÔTEL CHOISEUL OPÉRA;HÔTEL;1 Rue Daunou, 75002, PARIS;;;O;5
LITTLE PALACE HOTEL;HÔTEL;4 rue Salomon deCaus, 75003, PARIS;;;O;5
HOTEL EUROPE SAINT SEVERIN;HÔTEL;38/40 RUE SAINT SEVERIN, 75005, PARIS;;;O;5
HÔTEL CLARIDGE;HÔTEL;37 rue de françois 1er, 75008, PARIS;;;O;5
LE MATHURIN;HÔTEL;43 RUES DES MATHURINS, 75008, PARIS;;;O;5
HOTEL PALYM;HÔTEL;4 rue emlie gilbert, 75012, PARIS;;;O;5
LA DEMEURE;HÔTEL;51 BOULEVARD SAINT MARCEL, 75013, PARIS;;;O;5
HOTEL EIFFEL SEINE;HÔTEL;3 BOULEVARD DE GRENELLE, 75015, PARIS;;;O;5
HOTEL ARES EIFFEL;HÔTEL;7 rue du Gal de Larminat, 75015, PARIS;;;O;5
HOTEL RAMADA PARIS TOUR EIFFEL;HÔTEL;102, Bd de Grenelle, 75015, PARIS;;;O;5
ALL SEASONS PARIS 15 LECOURBE;HÔTEL;192 RUE DE LA CROIX NIVERT, 75015, PARIS;;;O;5
HÔTEL EXELMANS;HÔTEL;73 rue Boileau , 75016, PARIS;;;O;5
HÔTEL FERTEL ÉTOILE;HÔTEL;4 rue des acacias, 75017, PARIS;;;O;5
HÔTEL MERCURE PARIS ARC DE TRIOMPHE ETOILE;HÔTEL;27, avenue des Ternes, 75017, PARIS;;;O;5
HÔTEL DE FLORE;HÔTEL;108 rue Lamarck, 75018, PARIS;;;O;5
TROCADÉRO LA TOUR BEST WESTERN PREMIER;HÔTEL;5 bis rue massenet, 75116, PARIS;;;O;5
HÔTEL THÉRÈSE;HÔTEL;5/7 RUE THéRèSE, 75001, PARIS;;;O;5
ALBE HOTEL SAINT MICHEL;HÔTEL;1 RUE DE LA HARPE, 75005, PARIS;;;O;5
HÔTEL MADELEINE PLAZA;HÔTEL;33 place de la madeleine, 75008, PARIS;;;O;5
HÔTEL OPÉRA ST-GEORGES;HÔTEL;7 rue de Navarin, 75009, PARIS;;;O;5
HOTEL BEAUGRENELLE TOUR EIFFEL;HÔTEL;19 RUE  VIALA, 75015, PARIS;;;O;5
MERCURE PARIS PLAZA PONT MIRABEAU;HÔTEL;10 avenue Emile Zola, 75015, PARIS;;;O;5
HOTEL BEST WESTERN LA TOUR NOTRE DAME;HÔTEL;20 rue du sommerard, 75005, PARIS;;;O;5
HÔTEL LONDON;HÔTEL;32  BOULEVARD DES iTALIENS, 75009, PARIS;;;O;5
HÔTEL LODGE DU CENTRE;HÔTEL;6 RUE GEOFFROY MARIE, 75009, PARIS;;;O;5
NEWHOTEL LAFAYETTE;HÔTEL;25 rue Buffault, 75009, PARIS;;;O;5
HÔTEL KYRIAD GARE DU NORD;HÔTEL;37 Rue de Saint Quentin, 75010, PARIS;;;O;5
HÔTEL KYRIAD DE LA GARE PARIS EST;HÔTEL;4 rue du 8 mai 1945, 75010, PARIS;;;O;5
HOTEL IBIS CANAL SAINT MARTIN ;HÔTEL;12 rue louis blanc, 75010, PARIS;;;O;5
PAVILLON BERCY GARE DE LYON;HÔTEL;209-211 Rue de Charenton, 75012, PARIS;;;O;5
HÔTEL CLARET;HÔTEL;44 bd de Bercy, 75012, PARIS;;;O;5
BEST WESTERN NOUVEL ORLEANS;HÔTEL;25 avenue de général leclerc, 75014, PARIS;;;O;5
HÔTEL DE BELLEVUE;HÔTEL;67 RUE PHILIPpE DE GIRARD, 75018, PARIS;;;O;5
IBIS STYLES PARIS MONTMARTRE NORD;HÔTEL;77 rue du ruisseau, 75018, PARIS;;;O;5
HÔTEL GARDEN ÉLYSEES;HÔTEL;12 RUE SAINT DIDIER, 75116, PARIS;;;O;5
HOTEL KEPPLER;HÔTEL;10 RUE KEPLER, 75116, PARIS;;;O;5
HOTEL MONTPENSIER;HÔTEL;12 rue de Richelieu, 75001, PARIS;;;O;5
HÔTEL VIVIENNE;HÔTEL;40 rue vivienne, 75002, PARIS;;;O;5
HÔTEL PARIS FRANCE ;HÔTEL;72 rue de Turbigo, 75003, PARIS;;;O;5
GRAND HÔTEL MODERNE;HÔTEL;33 rue des Écoles , 75005, PARIS;;;O;5
HÔTEL CALIFORNIA SAINT GERMAIN;HÔTEL;32 rue des Écoles, 75005, PARIS;;;O;5
HÔTEL HELIOS OPÉRA;HÔTEL;75 rue de la victoire, 75009, PARIS;;;O;5
NEWHOTEL OPERA;HÔTEL;4 RUE DE LIEGE, 75009, PARIS;;;O;5
LE GENERAL HOTEL;HÔTEL;5/7 RUE RAMPON, 75011, PARIS;;;O;5
COLOR DESIGN HÔTEL;HÔTEL;35, rue de Citeaux, 75012, PARIS;;;O;5
HOTEL PARIS BASTILLE;HÔTEL;67 rue de Lyon, 75012, PARIS;;;O;5
HÔTEL MANET;HÔTEL;15 rue Edouard MANET, 75013, PARIS;;;O;5
HOTEL DU MIDI;HÔTEL;4 AVENUE RENE COTY, 75014, PARIS;;;O;5
HÔTEL DU PETIT LOUVRE;HÔTEL;1 RUE DE LOURMEL, 75015, PARIS;;;O;5
HÔTEL BELFAST;HÔTEL;10, avenue Carnot, 75017, PARIS;;;O;5
HÔTEL DES ARTS;HÔTEL;5  rue Tholozé, 75018, PARIS;;;O;5
HÔTEL DES ARÈNES;HÔTEL;51 rue monge, 75005, PARIS;;;O;5
HOTEL MERCURE PARIS LA SORBONNE;HÔTEL;14 rue de la Sorbonne, 75005, PARIS;;;O;5
SPLENDID HOTEL;HÔTEL;29 Avenue de Tourville, 75007, PARIS;;;O;5
HÔTEL LA RÉSIDENCE DU ROY;HÔTEL;8 rue François 1er, 75008, PARIS;;;O;5
HOTEL CHAMBIGES ELYSEES;HÔTEL;8 RUE CHAMBIGES, 75008, PARIS;;;O;5
HÔTEL HOR;HÔTEL;160 rue La Fayette, 75010, PARIS;;;O;5
GRAND HOTEL AMELOT;HÔTEL;54 RUE AMELOT, 75011, PARIS;;;O;5
HOTEL LYON BASTILLE;HÔTEL;3 RUE PARROT, 75012, PARIS;;;O;5
HOTEL MAC MAHON;HÔTEL;3 AVENUE MAC MAHON, 75017, PARIS;;;O;5
HÔTEL DU PLAT D'ÉTAIN;HÔTEL;69 rue Meslay, 75003, PARIS;;;O;5
HÔTEL LE SÉNAT  ;HÔTEL;10 rue de Vaugirard, 75006, PARIS;;;O;5
ROYAL SAINT GERMAIN;HÔTEL;159 RUE DE RENNES, 75006, PARIS;;;O;5
HOTEL AVIATIC;HÔTEL;105 rue de vaugirard, 75006, PARIS;;;O;5
LIBERTEL GARE DU NORD SUEDE;HÔTEL;106 boulevard de Magenta, 75010, PARIS;;;O;5
HOTEL DU NORD ET DE L'EST;HÔTEL;49 RUE DE MALTE, 75011, PARIS;;;O;5
HOTEL BRISTOL;HÔTEL;68 rue de malte, 75011, PARIS;;;O;5
VILLA ALESSANDRA;HÔTEL;9 Place Boulnois, 75017, PARIS;;;O;5
BEST WESTERN OPERA BATIGNOLLES;HÔTEL;165 RUE DE ROME, 75017, PARIS;;;O;5
COMFORT HÔTEL SAINT PIERRE;HÔTEL;10 rue de Clignancourt , 75018, PARIS;;;O;5
HÔTEL MICHELET ODÉON;HÔTEL;6 PLACE DE L'ODéON, 75006, PARIS;;;O;5
BEST WESTERN FOLKESTONE OPÉRA ;HÔTEL;9 RUE DE CASTELLANE, 75008, PARIS;;;O;5
HOTEL PARK LANE PARIS;HÔTEL;4 rue la boétie, 75008, PARIS;;;O;5
RADISSON BLU HOTEL CHAMPS ELYSÉES;HÔTEL;78 bis Avenue Marceau, 75008, PARIS;;;O;5
HÔTEL MADRID OPÉRA;HÔTEL;1 rue Geoffroy Marie, 75009, PARIS;;;O;5
HÔTEL PULITZER PARIS;HÔTEL;23 rue du faubourg montmartre, 75009, PARIS;;;O;5
ATLANTA FROCHOT HÔTEL;HÔTEL;9 rue Frochot, 75009, PARIS;;;O;5
HOTEL TRINITE PLAZA;HÔTEL;41 RUE JEAN BAPTISTE PIGALLE, 75009, PARIS;;;O;5
CORAIL HÔTEL ;HÔTEL;23 rue de lyon , 75012, PARIS;;;O;5
VILLA MONTPARNASSE;HÔTEL;2 rue Boulard, 75014, PARIS;;;O;5
HÔTEL ODESSA MONTPARNASSE;HÔTEL;28 rue d'Odessa, 75014, PARIS;;;O;5
PLATINE HOTEL;HÔTEL;20 RUE DE L'INGENIEUR KELLER, 75015, PARIS;;;O;5
HÔTEL ROYAL MAGDA ÉTOILE;HÔTEL;7 rue Troyon, 75017, PARIS;;;O;5
HOTEL CHAMPERRET ELYSEES;HÔTEL;129 AVENUE DE VILLIERS, 75017, PARIS;;;O;5
GRAND HÔTEL DECHAMPAIGNE;HÔTEL;17 rue Jean Lantier, 75001, PARIS;;;O;5
HÔTEL MUGUET;HÔTEL;11 rue Chevert, 75007, PARIS;;;O;5
HÔTEL DE FRANCE INVALIDES;HÔTEL;102 boulevard de la tour maubourg, 75007, PARIS;;;O;5
HOTEL DE L'ARCADE;HÔTEL;7-9 rue de l'Arcade, 75008, PARIS;;;O;5
HÔTEL RICHMOND;HÔTEL;15 rue de Dunkerque, 75010, PARIS;;;O;5
HÔTEL MORIS;HÔTEL;13 RUE RENé BOULANGER, 75010, PARIS;;;O;5
HOTEL REGINA OPERA;HÔTEL;11 bis rue de Mazagran, 75010, PARIS;;;O;5
HÔTEL HELVETIA;HÔTEL;28 bis boulevard Diderot, 75012, PARIS;;;O;5
BEST WESTERN  PREMIER AMIRAL HÔTEL;HÔTEL;98 AVENUE D'ITALIE, 75013, PARIS;;;O;5
HÔTEL AVENIR VAUGIRARD;HÔTEL;373 rue de vaugirard, 75015, PARIS;;;O;5
HÔTEL DES DEUX CONTINENTS;HÔTEL;25 RUE JACOB, 75006, PARIS;;;O;5
HÔTEL SAINT-GERMAIN;HÔTEL;88 rue du Bac, 75007, PARIS;;;O;5
HÔTEL MARIGNAN PARIS;HÔTEL;12 rue de Marignan, 75008, PARIS;;;O;5
LE PÉRA HÔTEL;HÔTEL;17 RUE DE CAUMARTIN, 75009, PARIS;;;O;5
IBIS PARIS CONVENTION SARL HOTEL NORD SUD;HÔTEL;5 RUE EUGENE GIBEZ, 75015, PARIS;;;O;5
BEST WESTERN EIFFEL AUTEUIL;HÔTEL;11 RUE CLAUDE TERRASSE , 75016, PARIS;;;O;5
HOTEL ELYSEES REGENCIA;HÔTEL;41 avenue Marceau, 75116, PARIS;;;O;5
GRAND HÔTEL SAINT MICHEL;HÔTEL;19 rue cujas, 75005, PARIS;;;O;5
HOTEL DERBY EIFFEL;HÔTEL;5 AVENUE DUQUESNE, 75007, PARIS;;;O;5
HÔTEL HOLIDAY INN PARIS ÉLYSÉES;HÔTEL;24 RUE DE MIROMESNIL, 75008, PARIS;;;O;5
BEST WESTERN PLAZA ELYSÉES;HÔTEL;177 Boulevard Haussmann, 75008, PARIS;;;O;5
HÔTEL AVENIR MONTMARTRE;HÔTEL;39 boulevard Rochechouart, 75009, PARIS;;;O;5
HÔTEL RÉSIDENCE DU PRÉ;HÔTEL;15, rue Pierre Sémard, 75009, PARIS;;;O;5
HÔTEL EUROSTARS PANORAMA;HÔTEL;9 RUE DES MESSAGERiES, 75010, PARIS;;;O;5
BEAUGRENELLE SAINT-CHARLES HÔTEL;HÔTEL;82 RUE SAINT CHARLES, 75015, PARIS;;;O;5
HOTEL PAVILLON MONCEAU;HÔTEL;43 RUE JOUFFROY D'ABBANS, 75017, PARIS;;;O;5
HÔTEL CUJAS PANTHÉON;HÔTEL;18 rue Cujas, 75005, PARIS;;;O;5
HÔTEL DU DANUBE SAINT GERMAIN;HÔTEL;58 rue Jacob , 75006, PARIS;;;O;5
HOTEL DE L'ABBAYE ;HÔTEL;10 rue cassette, 75006, PARIS;;;O;5
HOTEL D'ORSAY;HÔTEL;93 rue de lille, 75007, PARIS;;;O;5
HOTEL LE COLISEE;HÔTEL;6 rue du Colisée, 75008, PARIS;;;O;5
GRAND HÔTEL DE L'EUROPE;HÔTEL;74 boulevard de Strasbourg, 75010, PARIS;;;O;5
HÔTEL DE LA GARE DU NORD;HÔTEL;31-33 rue Saint-Quentin, 75010, PARIS;;;O;5
HOTEL NORD ET CHAMPAGNE;HÔTEL;11 RUE DE CHABROL, 75010, PARIS;;;O;5
NEWHOTEL CANDIDE;HÔTEL;3 rue pétion, 75011, PARIS;;;O;5
HOTEL DE FRANCE GARE DE LYON BASTILLE;HÔTEL;12 RUE DE LYON, 75012, PARIS;;;O;5
FIRST HOTEL;HÔTEL;2 bd garibaldi, 75015, PARIS;;;O;5
CHAT NOIR DESIGN HÔTEL;HÔTEL;68 Boulevard de Clichy, 75018, PARIS;;;O;5
HÔTEL PARIS VILLETTE;HÔTEL;56 rue curial, 75019, PARIS;;;O;5
HÔTEL SEROTEL LUTÈCE;HÔTEL;2 rue berthollet, 75005, PARIS;;;O;5
HOTEL OBSERVATOIRE LUXEMBOURG;HÔTEL;107 BOULEVARD SAINT MICHEL, 75005, PARIS;;;O;5
HÔTEL AMARANTE CHAMPS ELYSÉES;HÔTEL;19 rue Vernet, 75008, PARIS;;;O;5
IBIS STYLES PARIS PIGALLE MONTMARTRE;HÔTEL;3 rue Frochot, 75009, PARIS;;;O;5
HÔTEL D'ESPAGNE;HÔTEL;9 cité Bergère, 75009, PARIS;;;O;5
HOTEL CORONA;HÔTEL;4 rue rodier , 75009, PARIS;;;O;5
HÔTEL PARADIS;HÔTEL;41 RUE DES PETITES éCURIES, 75010, PARIS;;;O;5
HÔTEL ILIADE-MONTMARTRE;HÔTEL;51 rue Letort, 75018, PARIS;;;O;5
HÔTEL DU BOIS;HÔTEL;11 rue du Dôme, 75116, PARIS;;;O;5
HOTEL OPERA RICHEPANSE;HÔTEL;14 RUE DU CHEVALIER DE SAINT-GEORGE, 75001, PARIS;;;O;5
ÉTATS-UNIS OPÉRA;HÔTEL;16 rue d'Antin, 75002, PARIS;;;O;5
HOTEL BEST WESTERN LE JARDIN DE CLUNY;HÔTEL;9 RUE DU SOMMERARD, 75005, PARIS;;;O;5
HÔTEL LA PERLE;HÔTEL;14 rue des canettes, 75006, PARIS;;;O;5
HÔTEL ATALA;HÔTEL;10 rue châteaubriand, 75008, PARIS;;;O;5
ALL SEASONS PARIS 9EME;HÔTEL;11 BIS RUE PIERRE SEMARD, 75009, PARIS;;;O;5
HOTEL JOYCE;HÔTEL;29, rue la bruyère, 75009, PARIS;;;O;5
HÔTEL DU PRÉ;HÔTEL;10, rue Pierre Sémard, 75009, PARIS;;;O;5
HÔTEL DES COMÉDIES;HÔTEL;8 RUE D'HAUTEVILLE, 75010, PARIS;;;O;5
HIMATIC;HÔTEL;71 RUE DE CHARONNE, 75011, PARIS;;;O;5
CENTRAL HÔTEL PARIS;HÔTEL;1 bis rue du Maine, 75014, PARIS;;;O;5
ALL SEASONS PARIS MAINE MONTPARNASSE;HÔTEL;22 rue hippolyte maindron, 75014, PARIS;;;O;5
HOTEL IBIS TOUR MONTPARNASSE;HÔTEL;22 AVENUE DU MAINE, 75015, PARIS;;;O;5
HOTEL YLLEN EIFFEL;HÔTEL;196 RUE DE VAUGIRARD, 75015, 75015;;;O;5
HOTEL ASTRID;HÔTEL;27 avenue Carnot, 75017, PARIS;;;O;5
HOTEL MAYFAIR;HÔTEL;3 RUE ROUGET DE L'ISLE, 75001, PARIS;;;O;5
HÔTEL AUSTERLITZ JARDIN DES PLANTES;HÔTEL;12 boulevard de l'hôpital, 75005, PARIS;;;O;5
HÔTEL GAY LUSSAC;HÔTEL;29 rue gay lussac, 75005, PARIS;;;O;5
SA HÔTEL PAS DE CALAIS;HÔTEL;59 rue des saints-pères, 75006, PARIS;;;O;5
HÔTEL RELAIS BOSQUET;HÔTEL;19, rue du Champ de Mars, 75007, PARIS;;;O;5
HOTEL WALDORF MADELEINE;HÔTEL;12 Boulevard MALESHERBES, 75008, PARIS;;;O;5
HÔTEL MATTLÉ;HÔTEL;8 rue de la boule rouge, 75009, PARIS;;;O;5
HÔTEL CLAUZEL;HÔTEL;33 rue des martyrs, 75009, PARIS;;;O;5
HOTEL DU TRIANGLE D'OR;HÔTEL;6 RUE GODOT DE MAUROY, 75009, PARIS;;;O;5
NEW HÔTEL;HÔTEL;40 rue de saint Quentin, 75010, PARIS;;;O;5
HÔTEL DE MILAN;HÔTEL;17 rue de Saint-Quentin, 75010, PARIS;;;O;5
 GRAND HOTEL DES GOBELINS;HÔTEL;57 BD Saint Marcel, 75013, PARIS;;;O;5
HOTELIÈRE SAINT SULPICE;HÔTEL;7 rue Casimir Delavigne, 75006, PARIS;;;O;5
HÔTEL BELLEVUE;HÔTEL;46 RUE PASQUIER, 75008, PARIS;;;O;5
CONCORTEL SA;HÔTEL;19-21 Rue Pasquier, 75008, PARIS;;;O;5
HÔTEL LEBRON;HÔTEL;4 RUE LAMARTINE, 75009, PARIS;;;O;5
LIBERTEL MONTMARTRE DUPERRE;HÔTEL;32 rue Duperré, 75009, PARIS;;;O;5
HOTEL GEORGE OPERA;HÔTEL;46 rue Notre Dame de Lorette, 75009, PARIS;;;O;5
HÔTEL PICARDY;HÔTEL;9 rue de Dunkerque , 75010, PARIS;;;O;5
HÔTEL MAISON DU PRÉ;HÔTEL;88, rue de Maubeuge, 75010, PARIS;;;O;5
GARDETTE PARK HÔTEL;HÔTEL;1 RUE DU GéNéRAL BLAISE, 75011, PARIS;;;O;5
ALL SEASONS VOLTAIRE REPUBLIQUE;HÔTEL;39 RUE JEAN PIERRE TIMBAUD, 75011, PARIS;;;O;5
HÔTEL JULES CÉSAR;HÔTEL;52 avenue Ledru-Rollin, 75012, PARIS;;;O;5
HOTEL DE LA PORTE DOREE;HÔTEL;273 ave Daumesnil, 75012, PARIS;;;O;5
IBIS ITALIE TOLBIAC;HÔTEL;177 RUE DE TOLBIAC, 75013, PARIS;;;O;5
HOTEL UNIC MONTPARNASSE;HÔTEL;39 RUE DU MONTPARNASSE, 75014, PARIS;;;O;5
HOTEL DE LA PAIX SA;HÔTEL;225 boulevard Raspail, 75014, PARIS;;;O;5
HÔTEL DE LA PAIX;HÔTEL;43 RUE DURANTON  PARIS , 75015, PARIS;;;O;5
PARIS EIFFEL CAMBRONNE;HÔTEL;166 Boulevard de Grenelle, 75015, PARIS;;;O;5
HOTEL REGENT'S GARDEN;HÔTEL;6 Rue Pierre Demours, 75017, PARIS;;;O;5
HOTEL TAMARIS;HÔTEL;14 RUE DES MARAICHERS, 75020, PARIS;;;O;5
HÔTEL CHARMA;HÔTEL;14 bis rue des maraichers, 75020, PARIS;;;O;5
HOTEL ELYSEES BASSANO;HÔTEL;24 rue de Bassano, 75116, PARIS;;;O;5
HÔTEL PARIS-BRUXELLES;HÔTEL;4 Rue Meslay, 75003, PARIS;;;O;5
BASTILLE SPERIA;HÔTEL;1 rue de la Bastille, 75004, PARIS;;;O;5
HÔTEL LE HOME LATIN ;HÔTEL;15-17 RUE DU SOMMERARD, 75005, PARIS;;;O;5
HÔTEL MELIA COLBERT;HÔTEL;7 RUE DE L'HOTEL COLBERT, 75005, PARIS;;;O;5
HOTEL DEVILLAS;HÔTEL;4 BOULEVARD SAINT MARCEL, 75005, PARIS;;;O;5
HOTEL ROYAL SAINT MICHEL;HÔTEL;3, bld st michel, 75005, PARIS;;;O;5
HÔTEL LE 123 ELYSEES;HÔTEL;123, rue du Faubourg Saint Honoré, 75008, PARIS;;;O;5
GRAND HÔTEL DE L'AVENUE;HÔTEL;14 rue Rampon, 75011, PARIS;;;O;5
HÔTEL ORIGINAL PARIS;HÔTEL;8 boulevard Beaumarchais, 75011, PARIS;;;O;5
HÔTEL ADRIATIC;HÔTEL;6 bis rue de Lyon, 75012, PARIS;;;O;5
HÔTEL SPLENDID ÉTOILE;HÔTEL;1 avenue Carnot, 75017, PARIS;;;O;5
HÔTEL TIQUETONNE ;HÔTEL;6 rue Tiquetonne, 75002, PARIS;;;O;5
HÔTEL LE SIX;HÔTEL;14 rue Stanislas, 75006, PARIS;;;O;5
HÔTEL DE LA CITÉ ROUGEMONT;HÔTEL;4 cité Rougemont, 75009, PARIS;;;O;5
HÔTEL APPIA LA FAYETTE;HÔTEL;13 RUE DES DEUX GARES, 75010, PARIS;;;O;5
HOTEL GABRIEL PARIS;HÔTEL;25 RUE DU GRAND PRIEURE, 75011, PARIS;;;O;5
HÔTEL COYPEL;HÔTEL;2 rue coypel, 75013, PARIS;;;O;5
HOTEL DE L'ORCHIDEE;HÔTEL;65 RUE DE L'OUEST, 75014, PARIS ;;;O;5
HOTEL ALL SEASONS;HÔTEL;32 RUE DES PLANTES, 75014, PARIS;;;O;5
HÔTEL SPLENDID;HÔTEL;54 rue fondary, 75015, PARIS;;;O;5
HÔTEL LECOURBE;HÔTEL;28 rue Lecourbe, 75015, PARIS;;;O;5
BEST WESTERN HÔTEL MONTCALM;HÔTEL;50 avenue Félix Faure, 75015, PARIS;;;O;5
EUROPE HOTEL ;HÔTEL;103 Bd de Grenelle, 75015, PARIS;;;O;5
HOTEL EIFFEL CAPITOL;HÔTEL;9 rue Viala, 75015, PARIS;;;O;5
VILLA EUGÉNIE;HÔTEL;167 rue de rome, 75017, PARIS;;;O;5
HÔTEL ETOILE SAINT FERDINAND;HÔTEL;36 rue St Ferdinand, 75017, PARIS;;;O;5
HÔTEL LE LAUMIÈRE;HÔTEL;4 RUE PETIT, 75019, PARIS;;;O;5
WALDORF TROCADERO;HÔTEL;97 rue Lauriston, 75116, PARIS;;;O;5
HÔTEL TURENNE LE MARAIS;HÔTEL;6 rue de Turenne, 75004, PARIS;;;O;5
HÔTEL DE LA BRETONNERIE;HÔTEL;22 RUE SAINTE CROIX DE LA BRETONNERIE, 75004, PARIS;;;O;5
HÔTEL MARIGNAN;HÔTEL;13 rue du Sommerard, 75005, PARIS;;;O;5
HOTEL BERNE OPERA;HÔTEL;37 rue de Berne, 75008, PARIS;;;O;5
HÔTEL BRITTANY;HÔTEL;3-5 rue Saint-Lazare, 75009, PARIS;;;O;5
HÔTEL LES 3 POUSSINS;HÔTEL;15 RUE CLAUZEL, 75009, PARIS;;;O;5
HOTEL ANJOU LAFAYETTE;HÔTEL;4 RUE RIBOUTTE, 75009, PARIS;;;O;5
HÔTEL TAYLOR;HÔTEL;6 rue TAYLOR, 75010, PARIS;;;O;5
HÔTEL PAIX RÉPUBLIQUE;HÔTEL;2 BIS BOULEVARD SAINT-MARTIN, 75010, PARIS;;;O;5
IBIS PARIS BASTILLE ;HÔTEL;9 RUE DE REUILLY, 75012, PARIS;;;O;5
SPORT HOTEL;HÔTEL;258 AVENUE DAUMESNIL, 75012, PARIS;;;O;5
HÔTEL TRANSCONTINENTAL;HÔTEL;155 AVENUE DU MAINE, 75014, PARIS;;;O;5
HÔTEL BEAUSÉJOUR MONTMARTRE;HÔTEL;6 rue de Lécluse, 75017, PARIS;;;O;5
HOTEL PLAZA TOUR EIFFEL;HÔTEL;32 RUE GREUZE, 75116, PARIS;;;O;5
TONIC HOTEL;HÔTEL;12/14 rue du Roule, 75001, PARIS;;;O;5
LA MAISON FAVART;HÔTEL;5 rue de Marivaux, 75002, PARIS;;;O;5
HÔTEL ABBATIAL SAINT-GERMAIN;HÔTEL;46 boulevard Saint-Germain, 75005, PARIS;;;O;5
HÔTEL DE SUÈDE;HÔTEL;31 rue vaneau, 75007, PARIS;;;O;5
HÔTEL LE CADRAN;HÔTEL;10, rue du Champ de Mars, 75007, PARIS;;;O;5
HÔTEL AXEL OPERA;HÔTEL;15 rue Montyon, 75009, PARIS;;;O;5
VILLA BELLAGIO PARIS XI;HÔTEL;9 RUE MORET , 75011, PARIS;;;O;5
HÔTEL ÉLYSÉE GARE DE LYON;HÔTEL;234 RUE DE BERCY, 75012, PARIS;;;O;5
PETIT PALACE HÔTEL;HÔTEL;131 avenue du maine, 75014, PARIS;;;O;5
HÔTEL EDEN;HÔTEL;110 rue Blomet, 75015, PARIS;;;O;5
HÔTEL VAL GIRARD;HÔTEL;14 RUE PéTEL , 75015, PARIS;;;O;5
HÔTEL AVIA SAPHIR MONTPARNASSE;HÔTEL;181 Rue de Vaugirard, 75015, PARIS;;;O;5
LES JARDINS DE MONTMARTRE;HÔTEL;131 RUE ORDENER, 75018, PARIS;;;O;5
BEST WESTERN LES THÉÂTRES;HÔTEL;98 RUE DE CLéRY, 75002, PARIS;;;O;5
HÔTEL AGORA SAINT-GERMAIN;HÔTEL;42 rue des Bernardins, 75005, PARIS;;;O;5
HOTEL DUQUESNE EIFFEL;HÔTEL;23 Avenue Duquesne, 75007, PARIS;;;O;5
BEST WESTERN HÔTEL SYDNEY OPÉRA;HÔTEL;50 rue des Mathurins, 75008, PARIS;;;O;5
HÔTEL LORD BYRON;HÔTEL;5 rue Chateaubriand, 75008, PARIS;;;O;5
HOTEL QUEEN MARY;HÔTEL;9 rue de Greffulhe, 75008, PARIS;;;O;5
HOTEL CHAMPS ELYSEE FRIEDLAND;HÔTEL;177 rue du Faubourg Saint Honoré, 75008, PARIS;;;O;5
HOLIDAY VILLA LAFAYETTE;HÔTEL;46 RUE DE TREVISE, 75009, PARIS;;;O;5
HÔ MARAIS;HÔTEL;38 Boulevard du Temple, 75011, PARIS;;;O;5
COMFORT HOTEL  NATION;HÔTEL;12 rue leon frot, 75011, PARIS;;;O;5
HÔTEL DES ARTS;HÔTEL;8 rue Coypel, 75013, PARIS;;;O;5
HÔTEL PLAZA ÉTOILE;HÔTEL;21 Avenue de Wagram, 75017, PARIS;;;O;5
HOTEL RÉGENCE ETOILE;HÔTEL;24 avenue Carnot, 75017, PARIS;;;O;5
HOTEL ELYSEES FLAUBERT;HÔTEL;19 rue Rennequin, 75017, PARIS;;;O;5
L'EDMOND;HÔTEL;22, Avenue de Villiers, 75017, PARIS;;;O;5
HÔTEL BELLEVUE;HÔTEL;19 rue d'Orsel, 75018, PARIS;;;O;5
HÔTEL PERGOLÈSE;HÔTEL;3 rue Pergolèse, 75116, PARIS;;;O;5
TIMHOTEL PALAIS ROYAL;HÔTEL;3 RUE DE LA BANQUE, 75002, PARIS;;;O;5
HÔTEL DES 3 COLLÈGES;HÔTEL;16 rue Cujas, 75005, PARIS;;;O;5
HÔTEL SAINT JACQUES;HÔTEL;35 rue des écoles, 75005, PARIS;;;O;5
HÔTEL SAINT-PIERRE;HÔTEL;4 rue de l'école de médecine, 75006, PARIS;;;O;5
HÔTEL SAINT-ANDRÉ DES ARTS;HÔTEL;66 rue Saint-André des Arts, 75006, PARIS;;;O;5
HÔTEL SAN RÉGIS;HÔTEL;12 rue Jean Goujon, 75008, PARIS;;;O;5
R.KIPLING HOTEL;HÔTEL;65 rue Blanche, 75009, PARIS;;;O;5
HOTEL ACADIA OPERA;HÔTEL;4, rue Geoffroy Marie, 75009, PARIS;;;O;5
RÉPUBLIQUE HÔTEL;HÔTEL;31 RUE ALBERT THOMAS, 75010, PARIS;;;O;5
HÔTEL RASPAIL MONTPARNASSE;HÔTEL;203 boulevard Raspail, 75014, PARIS;;;O;5
LE 55 MONTPARNASSE HÔTEL;HÔTEL;55 RUE DE PLAISANCE, 75014, PARIS;;;O;5
HÔTEL ARMONI;HÔTEL;7 VILLA BERTHIER , 75017, PARIS;;;O;5
SA DE BANVILLE;HÔTEL;166 Boulevard Berthier, 75017, PARIS;;;O;5
HÔTEL MESLAY RÉPUBLIQUE;HÔTEL;3 rue meslay, 75003, PARIS;;;O;5
HÔTEL GÉRANDO;HÔTEL;11 RUE GéRANDO, 75009, PARIS;;;O;5
MERCURE PARIS LAFAYETTE;HÔTEL;7 rue de trévise, 75009, PARIS;;;O;5
HÔTEL MONNIER;HÔTEL;14 rue Henry Monnier, 75009, PARIS;;;O;5
ALL SEASONS PARIS LAFAYETTE OPERA;HÔTEL;5 rue de trévise, 75009, PARIS;;;O;5
HÔTEL MODERNE DU TEMPLE;HÔTEL;3 rue d'aix, 75010, PARIS;;;O;5
HÔTEL PARIS-NORD;HÔTEL;4 rue de Dunkerque, 75010, PARIS;;;O;5
THE MODERN HÔTEL MONTMARTRE;HÔTEL;3 rue Forest, 75018, PARIS;;;O;5
HÔTEL DU MONT BLANC;HÔTEL;28 rue de la Huchette, 75005, PARIS;;;O;5
HÔTEL LEGEND;HÔTEL;151 BIS RUE DE RENNES, 75006, PARIS;;;O;5
HOTEL CLOS MEDICIS;HÔTEL;56 rue Monsieur Le Prince, 75006, PARIS;;;O;5
LE DERBY ALMA;HÔTEL;8 AVENUE RAPP, 75007, PARIS;;;O;5
HÔTEL DU ROND-POINT DES CHAMPS-ÉLYSÉES;HÔTEL;10 rue de Ponthieu, 75008, PARIS;;;O;5
HÔTEL ELYSÉES OPERA;HÔTEL;17 rue de Turin, 75008, PARIS;;;O;5
HOTEL ELYSEES 8;HÔTEL;16 RUE CAMBACERES, 75008, PARIS;;;O;5
HÔTEL CHOPIN;HÔTEL;10 boulevard montmartre, 46 passage jouffroy , 75009, PARIS;;;O;5
HÔTEL INTERNATIONAL;HÔTEL;6 rue Auguste Barbier, 75011, PARIS;;;O;5
GRAND HÔTEL FRANÇAIS;HÔTEL;223 BOULEVARD VOLTAIRE , 75011, PARIS;;;O;5
L'AGATE HÔTEL PARIS;HÔTEL;8 cours de vincennes, 75012, PARIS;;;O;5
HOTEL CANTAGREL ;HÔTEL;90, Rue de Patay, 75013, PARIS;;;O;5
HÔTEL DÉLOS VAUGIRARD;HÔTEL;7 rue du général beuret, 75015, PARIS;;;O;5
MERCURE  PARIS ARC DE TRIOMPHE WAGRAM;HÔTEL;3 RUE BREY, 75017, PARIS;;;O;5
HÔTEL EDEN MONTMARTRE;HÔTEL;90 RUE ORDENER, 75018, PARIS;;;O;5
HÔTEL LOUVRE MONTANA;HÔTEL;12 rue Saint-Roch, 75001, PARIS;;;O;5
HOTEL BRITANNIQUE;HÔTEL;20 avenue victoria, 75001, PARIS;;;O;5
HOTEL DE LA SORBONNE;HÔTEL;6 rue victor cousin, 75005, PARIS;;;O;5
HOTEL DES SAINTS PERES;HÔTEL;65 RUE DES SAINTS PERES, 75006, PARIS;;;O;5
HOTEL FRANCOIS 1ER;HÔTEL;07 RUE MAGELLAN, 75008, PARIS;;;O;5
HÔTEL KYRIAD PARIS X CANAL SAINT-MARTIN RÉPUBLIQUE;HÔTEL;30 rue lucien Sampaix, 75010, PARIS;;;O;5
ATELIER MONTPARNASSE;HÔTEL;84 RUE RAYMOND LOSSERAND, 75014, PARIS;;;O;5
HÔTEL GLASGOW MONCEAU;HÔTEL;3 rue de la Félicité, 75017, PARIS;;;O;5
SA TARANNE HOTEL AU MANOIR SAINT GERMAIN DES PRES;HÔTEL;153 boulevard Saint Germain, 75006, PARIS;;;O;5
HÔTEL BRESCIA;HÔTEL;16 rue d'edimbourg, 75008, PARIS;;;O;5
HOTEL D'ANGLETERRE CHAMPS-ELYSEES;HÔTEL;91 RUE DE LA BOETIE, 75008, PARIS;;;O;5
HÔTEL ATN;HÔTEL;21 rue d 'Athènes, 75009, PARIS;;;O;5
HÔTEL NORD EST;HÔTEL;12 rue des petits hôtels, 75010, PARIS;;;O;5
HÔTEL RESTAURANT LA VIEILLE FRANCE;HÔTEL;151 RUE LAFAYETTE, 75010, PARIS;;;O;5
LITTLE HÔTEL;HÔTEL;3 rue pierre chausson, 75010, PARIS;;;O;5
HÔTEL DE BELFORT;HÔTEL;20 rue de belfort, 75011, PARIS;;;O;5
CLASSICS HÔTEL BASTILLE;HÔTEL;131 RUE DE CHARONNE, 75011, PARIS;;;O;5
HÔTEL VIATOR;HÔTEL;1 rue parrot, 75012, PARIS;;;O;5
HÔTEL MISTRAL;HÔTEL;24 rue cels, 75014, PARIS;;;O;5
VICE VERSA HÔTEL;HÔTEL;213 rue de la croix nivert, 75015, PARIS;;;O;5
HÔTEL CONVENTION MONTPARNASSE;HÔTEL;41 rue Alain Chartier, 75015, PARIS;;;O;5
HOTEL DOISY;HÔTEL;55 Avenue des Ternes , 75017, PARIS;;;O;5
TIMHOTEL NATION;HÔTEL;5-7 RUE D 'Avron, 75020, PARIS;;;O;5
HÔTEL RÉSIDENCE IMPERIALE;HÔTEL;155 Avenue de Malakoff, 75116, PARIS;;;O;5
HÔTEL MONTFLEURI ARC DE TRIOMPHE;HÔTEL;21 Avenue de la Grande Armée, 75116, PARIS;;;O;5
MON HOTEL;HÔTEL;1 rue d'Argentine, 75116, PARIS;;;O;5
HOTEL CENTRAL SAINT GERMAIN;HÔTEL;3 RUE CHAMPOLLION, 75005, PARIS;;;O;5
HOTEL DU PANTHEON;HÔTEL;19 place du pantheon, 75005, PARIS;;;O;5
HÔTEL DES MARRONNIERS;HÔTEL;21 RUE JACOB, 75006, PARIS;;;O;5
HOTEL ARAMIS SAINT-GERMAIN;HÔTEL;124 rue de rennes, 75006, PARIS;;;O;5
HÔTEL ACADÉMIE;HÔTEL;32 RUE DES SAINTS PèRES, 75007, PARIS;;;O;5
HÔTEL VANEAU SAINT-GERMAIN;HÔTEL;86 rue Vaneau, 75007, PARIS;;;O;5
HÔTEL DE VIGNY ;HÔTEL;9 rue Balzac, 75008, PARIS;;;O;5
HOTEL TOURAINE OPERA;HÔTEL;73 RUE TAITBOUT, 75009, PARIS;;;O;5
HOTEL VICTOR MASSE;HÔTEL;32 bis rue Victor Massé, 75009, PARIS;;;O;5
RELAIS DU PRÉ;HÔTEL;16, rue Pierre Sémard, 75009, PARIS;;;O;5
PAVILLON NATION;HÔTEL;16 Boulevard de Charonne, 75011, PARIS;;;O;5
STANDARD DESIGN HÔTEL;HÔTEL;29 RUE DES TAILLANDIERS, 75011, PARIS;;;O;5
HOTEL PRINCE ALBERT LYON BERCY;HÔTEL;108 rue de charenton, 75012, PARIS;;;O;5
HÔTEL ARLEY TOUR EIFFEL;HÔTEL;34 rue viala, 75015, PARIS;;;O;5
PORTE DE VERSAILLES HÔTEL;HÔTEL;11 BOULEVARD VICTOR, 75015, PARIS ;;;O;5
HOTEL RELAIS SAINT CHARLES;HÔTEL;72 BOULEVARD DE GRENELLE, 75015, PARIS;;;O;5
HÔTEL COURCELLES ÉTOILE;HÔTEL;184 RUE DE COURCELLES, 75017, PARIS;;;O;5
HÔTEL MOLIÈRE;HÔTEL;21 RUE MOLIèRE, 75001, PARIS;;;O;5
HÔTEL LUMEN PARIS LOUVRE;HÔTEL;15 rue des Pyramides , 75001, PARIS;;;O;5
HÔTEL ASCOT-OPERA;HÔTEL;2 Rue Monsigny, 75002, PARIS;;;O;5
LE RELAIS DU MARAIS;HÔTEL;76 RUE DE TURBIGO, 75003, PARIS;;;O;5
HÔTEL DE L'AVENIR;HÔTEL;65 RUE MADAME, 75006, PARIS;;;O;5
HOTEL EMPEREUR;HÔTEL;2 rue chevert, 75007, PARIS;;;O;5
HOTEL DUC DE SAINT SIMON;HÔTEL;14 RUE SAINT SIMON, 75007, PARIS;;;O;5
HÔTEL D'ARGENSON;HÔTEL;15 rue d'argenson, 75008, PARIS;;;O;5
HÔTEL MADELEINE HAUSSMANN;HÔTEL;10 rue Pasquier, 75008, PARIS;;;O;5
HOTEL MASSENA ;HÔTEL;16 RUE TRONCHET, 75008, PARIS;;;O;5
HÔTEL PLAZA OPÉRA;HÔTEL;12 rue de Maubeuge, 75009, PARIS;;;O;5
HÔTEL DES ARTS CAVAIGNAC;HÔTEL;2 RUE GODEFROY CAVAIGNAC, 75011, PARIS;;;O;5
HOTEL MARAIS BASTILLE;HÔTEL;36, Boulevard Richard Lenoir, 75011, PARIS;;;O;5
GRAND HÔTEL DORÉ;HÔTEL;201 AVENUE DAUMESNIL , 75012, PARIS;;;O;5
FRED HOTEL;HÔTEL;11, avenue VILLEMAIN, 75014, PARIS;;;O;5
LA MAISON MONTPARNASSE;HÔTEL;53 RUE DE GERGOVIE, 75014, PARIS;;;O;5
NOUVEL HÔTEL EIFFEL;HÔTEL;5 rue des Volontaires, 75015, PARIS;;;O;5
HÔTEL DE L'EXPOSITION TOUR EIFFEL;HÔTEL;42 BIS RUE DU THéâTRE, 75015, PARIS;;;O;5
HOTEL LE MARQUIS EIFFEL;HÔTEL;15, Rue Dupleix, 75015, PARIS;;;O;5
HOTEL FRANCE EIFFEL;HÔTEL;8 RUE SAINT CHARLES, 75015, PARIS;;;O;5
HÔTEL NIEL;HÔTEL;11 RUE SAUSSIER LE ROY, 75017, PARIS;;;O;5
HÔTEL WALDORF ARC DE TRIOMPHE;HÔTEL;36 rue Pierre Demours, 75017, PARIS;;;O;5
SOURCE HÔTEL;HÔTEL;135 Avenue de saint-ouen, 75017, PARIS;;;O;5
HOTEL TILSITT ETOILE;HÔTEL;23 rue Brey, 75017, PARIS;;;O;5
LE GREY HÔTEL;HÔTEL;12 RUE DE PARME, 75009, PARIS;;;O;5
HÔTEL VILLA FENELON;HÔTEL;23 rue Buffault, 75009, PARIS;;;O;5
HOTEL DU PRINTEMPS;HÔTEL;80 boulevard de Picpus, 75012, PARIS;;;O;5
HÔTEL DE LA PLACE DES ALPES;HÔTEL;2 place des alpes, 75013, PARIS;;;O;5
HÔTEL DE WEHA;HÔTEL;205 avenue de choisy, 75013, PARIS;;;O;5
HÔTEL DU PARC MONTSOURIS;HÔTEL;4 RUE DU PARC MONTSOURIS, 75014, PARIS;;;O;5
HOTEL LA VILLA DES TERNES;HÔTEL;97 avenue des Ternes, 75017, PARIS;;;O;5
HÔTEL AUDRAN;HÔTEL;7 RUE AUDRAN, 75018, PARIS;;;O;5
HÔTEL BORONALI;HÔTEL;65 rue de Clignancourt, 75018, PARIS;;;O;5
HÔTEL AU ROYAL CARDINAL;HÔTEL;1 rue des écoles, 75005, PARIS;;;O;5
HOTEL CARDINAL RIVE GAUCHE;HÔTEL;20-22 rue Pascal, 75005, PARIS;;;O;5
HOTEL SUNNY ;HÔTEL;48 BLD PORT ROYAL, 75005, PARIS;;;O;5
SOCIÉTÉ HOTEL SEVEN;HÔTEL;20 RUE BERTHOLLET, 75005, PARIS 05;;;O;5
ELYSA LUXEMBOURG;HÔTEL;6 RUE GAY LUSSAC, 75005, PARIS;;;O;5
HÔTEL LEFT BANK SAINT-GERMAIN ;HÔTEL;9 rue de l'Ancienne Comédie, 75006, PARIS;;;O;5
HOTEL GAT FOLIES;HÔTEL;14 RUE GEOFFROY MARIE, 75009, PARIS;;;O;5
HÔTEL DES TROIS NATIONS;HÔTEL;13 rue du Château d'eau, 75010, PARIS;;;O;5
HOTEL TOLBIAC;HÔTEL;122 rue de Tolbiac, 75013, PARIS;;;O;5
HÔTEL VILLA DU MAINE;HÔTEL;20 rue Ledion, 75014, PARIS;;;O;5
MARCEAU CHAMPS ÉLYSÉES;HÔTEL;37  avenue Marceau, 75016, PARIS;;;O;5
JARDIN DE PARIS MONTMARTRE;HÔTEL;131 rue ordener, 75018, PARIS;;;O;5
HOTEL BASSANO;HÔTEL;15 rue de Bassano, 75116, PARIS;;;O;5
BEST WESTERN FRANCE EUROPE;HÔTEL;112 boulevard de Sébastopol, 75003, PARIS;;;O;5
HOTEL DE NOTRE DAME;HÔTEL;19 RUE MAITRE ALBERT, 75005, PARIS;;;O;5
HOTEL DES NATIONS SAINT GERMAIN;HÔTEL;54 rue monge, 75005, PARIS;;;O;5
HOTEL BONAPARTE;HÔTEL;61 rue Bonaparte, 75006, PARIS;;;O;5
HÔTEL BOURGOGNE & MONTANA;HÔTEL;3 rue de Bourgogne, 75007, PARIS;;;O;5
HÔTEL DU PALAIS BOURBON;HÔTEL;49 rue de Bourgogne, 75007, PARIS;;;O;5
HÔTEL KYRIAD PARIS 9 MONTMARTRE;HÔTEL;55 RUE JEAN-BAPTISTE PIGALLE, 75009, PARIS;;;O;5
HOTEL VERLAIN;HÔTEL;97 RUE SAINT MAUR, 75011, PARIS;;;O;5
GRAND HOTEL VOLTAIRE;HÔTEL;150 boulevard Voltaire, 75011, PARIS;;;O;5
TIMHOTEL TOUR EIFFEL;HÔTEL;11 RUE JUGE, 75015, PARIS;;;O;5
LUTÈCE HÔTEL;HÔTEL;5 RUE DE LANGEAC, 75015, PARIS;;;O;5
HÔTEL MIRAMAR;HÔTEL;6 PLACE BIENVENUE, 75015, PARIS;;;O;5
ART HÔTEL CONGRES;HÔTEL;44 rue gauthey, 75017, PARIS;;;O;5
HOTEL ICONE;HÔTEL;4 rue d'Amboise, 75002, PARIS;;;O;5
HÔTEL VENDÔME SAINT-GERMAIN;HÔTEL;8 rue d'Arras, 75005, PARIS;;;O;5
HÔTEL CLAUDE BERNARD ;HÔTEL;43 Rue des écoles, 75005, PARIS;;;O;5
HÔTEL JEAN BART;HÔTEL;9 RUE JEAN BART, 75006, PARIS;;;O;5
HÔTEL DE SEINE ;HÔTEL;52 RUE DE SEINE, 75006, PARIS;;;O;5
HÔTEL DELAVIGNE;HÔTEL;1 rue Casimir Delavigne, 75006, PARIS;;;O;5
HÔTEL DE SÈVRES;HÔTEL;22, rue de l'Abbé-Grégoire, 75006, PARIS;;;O;5
LA BELLE JULIETTE;HÔTEL;92 rue du Cherche Midi, 75006, PARIS;;;O;5
HÔTEL FRANKLIN ROOSEVELT;HÔTEL;18 RUE CLEMENT MAROT, 75008, PARIS;;;O;5
HÔTEL TRONCHET;HÔTEL;22 rue tronchet, 75008, PARIS;;;O;5
HÔTEL DE NELL;HÔTEL;7-9 RUE DU CONSERVATOIRE, 75009, PARIS;;;O;5
HÔTEL DE PARIS MAUBEUGE;HÔTEL;37 rue de maubeuge, 75009, PARIS;;;O;5
HOTEL VILLA MARGAUX;HÔTEL;23 RUE HENRY MONNIER, 75009, PARIS;;;O;5
HOTEL PALM PARIS;HÔTEL;30 RUE DE MAUBEUGE, 75009, PARIS;;;O;5
HÔTEL LE MARCEL;HÔTEL;11 rue du 8 Mai 1945, 75010, PARIS;;;O;5
HÔTEL KUNTZ;HÔTEL;2 rue des deux gares, 75010, PARIS;;;O;5
HOTELIERE DE LA PORTE DOREE;HÔTEL;111 BD PONIATOWSKI, 75012, PARIS;;;O;5
MERCURE EIFFEL SAINT CHARLES;HÔTEL;37 RUE SAINT CHARLES, 75015, PARIS;;;O;5
MERCURE PARIS CHAMPS ELYSÉES;HÔTEL;51 rue Lauriston, 75116, PARIS;;;O;5
TIMHOTEL JARDIN DES PLANTES;HÔTEL;5 rue linné, 75005, PARIS;;;O;5
VILLA MADAME;HÔTEL;44 rue madame, 75006, PARIS;;;O;5
BEST WESTERN HÔTEL TOUR EIFFEL INVALIDES;HÔTEL;35 boulevard de la Tour Maubourg, 75007, PARIS;;;O;5
HOTEL MONTEROSA;HÔTEL;30, rue de la Bruyère, 75009, PARIS;;;O;5
HÔTEL DU BRABANT;HÔTEL;18 rue des Petits Hôtels, 75010, PARIS;;;O;5
HÔTEL DES PYRÉNÉES;HÔTEL;204 rue du faubourg saint-antoine, 75012, PARIS;;;O;5
LUX HÔTEL PICPUS;HÔTEL;74 boulevard de Picpus, 75012, PARIS;;;O;5
BERKELEY HÔTEL;HÔTEL;2 rue d'Odessa, 75014, PARIS;;;O;5
HOTEL EIFFEL SEGUR;HÔTEL;34 boulevard Garibaldi, 75015, PARIS;;;O;5
VILLA BRUNEL;HÔTEL;46 rue Brunel, 75017, PARIS;;;O;5
121 PARIS HÔTEL;HÔTEL;121 avenue de clichy, 75017, PARIS;;;O;5
LES JARDINS DE LA VILLA;HÔTEL;5, rue Belidor, 75017, PARIS;;;O;5
HÔTEL PAX;HÔTEL;5 rue des Poissonniers, 75018, PARIS;;;O;5
PALMA HOTEL;HÔTEL;77, avenue Gambetta, 75020, PARIS;;;O;5
BESTWESTERN QUARTIER LATIN;HÔTEL;71 Rue Monge, 75005, PARIS;;;O;5
HOTEL DES GRANDS HOMMES;HÔTEL;17, place du Pantheon , 75005, PARIS;;;O;5
FONTAINES DU LUXEMBOURG;HÔTEL;4 rue de Vaugirard, 75006, PARIS;;;O;5
HÔTEL EDOUARD VI;HÔTEL;61 BOULEVARD DU MONTPARNASSE, 75006, PARIS;;;O;5
GRAND HOTEL DE L'UNIVERS;HÔTEL;6 RUE GREGOIRE DE TOURS, 75006, PARIS;;;O;5
HÔTEL DE TURENNE;HÔTEL;20 avenue de Tourville, 75007, PARIS;;;O;5
HÔTEL DE BELLECHASSE SAINT GERMAIN;HÔTEL;8 rue de bellechasse, 75007, PARIS;;;O;5
HÔTEL ANTIN SAINT-GEORGES;HÔTEL;21 rue notre dame de lorette, 75009, PARIS;;;O;5
HOTEL ASTON;HÔTEL;12 CITE BERGERE, 75009, PARIS;;;O;5
PAVILLON SAINT-LOUIS BASTILLE;HÔTEL;66 rue de Charenton, 75012, PARIS;;;O;5
MERCURE PARIS BASTILLE SAINT ANTOINE;HÔTEL;64 rue Crozatier, 75012, PARIS;;;O;5
HÔTEL SOPHIE GERMAIN;HÔTEL;12 rue sophie germain, 75014, PARIS;;;O;5
HOTEL DU PARC;HÔTEL;6 RUE JOLIVET, 75014, PARIS;;;O;5
HÔTEL TROYON;HÔTEL;10 rue troyon, 75015, PARIS;;;O;5
BEST WESTERN MERCEDES;HÔTEL;128 avenue de Wagram, 75017, PARIS;;;O;5
HÔTEL LE CANAL ;HÔTEL;48 avenue de Flandre, 75019, PARIS;;;O;5
BEST WESTERN PREMIER LOUVRE SAINT HONORE;HÔTEL;141 rue Saint Honore, 75001, PARIS;;;O;5
HOTEL AMERICAIN;HÔTEL;72 RUE CHARLOT, 75003, PARIS;;;O;5
HÔTEL DU JEU DE PAUME;HÔTEL;54 rue Saint-Louis en l'île, 75004, PARIS;;;O;5
HOTEL DES CARMES;HÔTEL;5 RUE DES CARMES, 75005, PARIS;;;O;5
HÔTEL CLÉMENT;HÔTEL;6 rue Clément, 75006, PARIS;;;O;5
ATLANTIS SAINT GERMAIN DES PRÉS;HÔTEL;4 rue du vieux colombier, 75006, PARIS;;;O;5
HOTEL ELYSEES MERMOZ;HÔTEL;30 rue Jean Mermoz, 75008, PARIS;;;O;5
SARL ORALI;HÔTEL;6 RUE TURGOT, 75009, PARIS;;;O;5
9HOTEL;HÔTEL;14 RUE PAPILLON, 75009, PARIS;;;O;5
HÔTEL GARDEN OPÉRA;HÔTEL;65 RUE DU CHâTEAU D'EAU, 75010, PARIS;;;O;5
HÔTEL DU PRINCE EUGÈNE;HÔTEL;247 BOULEVARD VOLTAIRE, 75011, PARIS;;;O;5
TIPI  HÔTEL;HÔTEL;75 rue Daguerre , 75014, PARIS;;;O;5
HOTEL WALLACE;HÔTEL;89 rue Fondary, 75015, PARIS;;;O;5
HÔTEL SAINT-CYR ÉTOILE;HÔTEL;101 AVENUE DES TERNES, 75017, PARIS;;;O;5
HÔTEL MÉRIDIONAL;HÔTEL;14 rue du Docteur Heulin, 75017, PARIS;;;O;5
HOTEL FRANCE LOUVRE;HÔTEL;40 RUE DE RIVOLI, 75004, PARIS;;;O;5
HÔTEL QUARTIER LATIN;HÔTEL;9 rue des écoles, 75005, PARIS;;;O;5
HOTEL ACTE V;HÔTEL;55 rue Monge, 75005, PARIS;;;O;5
ESPRIT SAINT GERMAIN;HÔTEL;22 RUE SAINT SULPICE, 75006, PARIS;;;O;5
HOTEL ODEON ST GERMAIN;HÔTEL;13 rue ST SULPICE, 75006, PARIS;;;O;5
HÔTEL DU QUAI VOLTAIRE;HÔTEL;19 quai voltaire, 75007, PARIS;;;O;5
7EIFFEL;HÔTEL;17 bis rue Amélie, 75007, PARIS;;;O;5
HÔTEL DELARC;HÔTEL;7 rue du Colisée, 75008, PARIS;;;O;5
HÔTEL LE FAUBOURG;HÔTEL;47 rue du faubourg poissonnière, 75009, PARIS;;;O;5
LE 20 PRIEURÉ HÔTEL;HÔTEL;20 rue du Grand Prieuré, 75011, PARIS;;;O;5
HÔTEL BASTILLE DE LAUNAY;HÔTEL;42 rue Amelot, 75011, PARIS;;;O;5
HOTEL CHATILLON PARIS MONTPARNASSE;HÔTEL;11 square de Chatillon, 75014, PARIS;;;O;5
HÔTEL LILAS BLANC;HÔTEL;5 rue de l'avre, 75015, PARIS;;;O;5
BEST WESTERN EIFFEL CAMBRONNE;HÔTEL;46 RUE DE LA CROIX NIVERT, 75015, PARIS;;;O;5
HÔTEL BEAUSÉJOUR RANELAGH;HÔTEL;99 rue de ranelagh, 75016, PARIS;;;O;5
HÔTEL PARIS LEGENDRE;HÔTEL;149 rue Legendre , 75017, PARIS;;;O;5
REIMS HOTEL;HÔTEL;32 RUE D'AUBERVILLIERS, 75019, PARIS;;;O;5
HÔTEL LOUVRE BONS ENFANTS ;HÔTEL;5 rue des bons enfants , 75001, PARIS;;;O;5
HÔTEL SAINT PAUL;HÔTEL;43 rue Monsieur Le Prince, 75006, PARIS;;;O;5
HÔTEL EIFFEL RIVE GAUCHE;HÔTEL;6 RUE DU GROS CAILLOU, 75007, PARIS;;;O;5
ELYSÉES HÔTEL;HÔTEL;100 rue de la Boétie, 75008, PARIS;;;O;5
HÔTEL OCÉANIC;HÔTEL;17 rue de la Pépinière, 75008, PARIS;;;O;5
HÔTEL FIAT;HÔTEL;36 RUE DE DOUAI, 75009, PARIS;;;O;5
HÔTEL ARVOR;HÔTEL;8 rue Laferrière, 75009, PARIS;;;O;5
HÔTEL D'ALSACE;HÔTEL;85 boulevard de strasbourg , 75010, PARIS;;;O;5
GARDEN SAINT-MARTIN;HÔTEL;35 RUE YVES TOUDIC, 75010, PARIS;;;O;5
ALANE HÔTEL;HÔTEL;72 boulevard Magenta, 75010, PARIS;;;O;5
HÔTEL DE L'EUROPE;HÔTEL;98 boulevard de magenta, 75010, PARIS;;;O;5
HÔTEL FERTEL MAILLOT;HÔTEL;269 Boulevard Pereire, 75017, PARIS;;;O;5
NOUVEAU PARIS PARK HÔTEL;HÔTEL;4 rue Hassard, 75019, PARIS;;;O;5
HÔTEL CRIMÉE;HÔTEL;188 Rue de Crimée, 75019, PARIS;;;O;5
BEST WESTERN HÔTEL GAILLON OPÉRA;HÔTEL;9 rue gaillon, 75002, PARIS;;;O;5
HÔTEL LA VILLA SAINT-GERMAIN-DES-PRÉS;HÔTEL;29 RUE JACOB, 75006, PARIS;;;O;5
HOTEL SAINT GERMAIN DES PRES;HÔTEL;36 RUE BONAPARTE, 75006, PARIS;;;O;5
VILLA ROYALE;HÔTEL;2 Rue Duperré, 75009, PARIS;;;O;5
HÔTEL CARAVELLE;HÔTEL;68 rue des Martyrs, 75009, PARIS;;;O;5
BEST WESTERN PREMIER LE CARRÉ FOLIES OPÉRA;HÔTEL;13, rue Geoffroy Marie , 75009, PARIS;;;O;5
HÔTEL MODERN'EST;HÔTEL;91 boulevard de strasbourg, 75010, PARIS;;;O;5
HÔTEL BEAUSÉJOUR;HÔTEL;71 avenue parmentier , 75011, PARIS;;;O;5
LE HAMEAU DE PASSY;HÔTEL;48 rue de Passy, 75016, PARIS;;;O;5
HÔTEL ACACIAS ÉTOILE;HÔTEL;11 rue des Acacias, 75017, PARIS;;;O;5
HÔTEL ABRICOTEL;HÔTEL;15 rue Lally Tollendal, 75019, PARIS;;;O;5
HÔTEL LILAS GAMBETTA;HÔTEL;223 AVENUE GAMBETTA, 75020, PARIS;;;O;5
HÔTEL DES DUCS D'ANJOU;HÔTEL;1 rue Sainte-Opportune, 75001, PARIS;;;O;5
HOTEL LOUVRE MARSOLLIER OPERA;HÔTEL;13, rue marsollier, 75002, PARIS;;;O;5
HOTEL GRAMONT OPERA;HÔTEL;22 rue de Gramont, 75002, PARIS;;;O;5
MY HOTEL IN FRANCE LE MARAIS;HÔTEL;2 bis rue commines , 75003, PARIS;;;O;5
HÔTEL ARTUS;HÔTEL;34 rue de Buci, 75006, PARIS;;;O;5
HÔTEL DAUPHINE SAINT GERMAIN ;HÔTEL;36 rue dauphine , 75006, PARIS;;;O;5
HÔTEL OPÉRA D'ANTIN ;HÔTEL;75 rue de Provence, 75009, PARIS;;;O;5
WILLIAMS OPÉRA;HÔTEL;3 RUE MAYRAN, 75009, PARIS;;;O;5
HOTEL ROYAL MANSART;HÔTEL;1 rue mansart, 75009, PARIS ;;;O;5
SAS LE MULHOUSE;HÔTEL;87 boulevard de Strasbourg, 75010, PARIS;;;O;5
HÔTEL DE NEVERS;HÔTEL;53 rue de malte, 75011, PARIS;;;O;5
HÔTEL APOLLON MONTPARNASSE;HÔTEL;91 RUE DE L'OUEST, 75014, PARIS;;;O;5
HOTEL APOLLINAIRE;HÔTEL;39 rue Delambre, 75014, PARIS;;;O;5
HÔTEL NEVA;HÔTEL;14 RUE BREY, 75017, PARIS;;;O;5
HOTEL LOUVRE RIVOLI;HÔTEL;7 RUE JEAN LANTIER, 75001, PARIS;;;O;5
HÔTEL ROYAL ABOUKIR ;HÔTEL;106 rue Aboukir, 75002, PARIS;;;O;5
HÔTEL CASTEX ;HÔTEL;5 rue castex , 75004, PARIS;;;O;5
ODÉON HÔTEL;HÔTEL;3 rue de L’Odéon, 75006, PARIS;;;O;5
HÔTEL EUGÉNIE ;HÔTEL;31 rue Saint-André des Arts, 75006, PARIS;;;O;5
HÔTEL SÈVRES SAINT-GERMAIN;HÔTEL;22 RUE SAINT PLACIDE, 75006, PARIS;;;O;5
HÔTEL DE NANTES;HÔTEL;33 boulevard du Montparnasse, 75006, PARIS;;;O;5
HOTEL ALISON;HÔTEL;21 rue de Surène, 75008, PARIS;;;O;5
BEST WESTERN PREMIER OPERA OPAL;HÔTEL;19 rue Tronchet, 75008, PARIS;;;O;5
BEST WESTERN PREMIER OPÉRA DIAMOND;HÔTEL;4 rue de la pépinière, 75008, PARIS;;;O;5
HÔTEL BASILE;HÔTEL;23 rue Godot de Mauroy, 75009, PARIS;;;O;5
HÔTEL APOLLO OPÉRA;HÔTEL;32 rue de Douai, 75009, PARIS;;;O;5
HÔTEL OPÉRA DEAUVILLE;HÔTEL;40 RUE D'AMSTERDAM, 75009, PARIS;;;O;5
MIDNIGHT HÔTEL PARIS;HÔTEL;133 RUE DU FAUBOURG SAINT DENIS, 75010, PARIS;;;O;5
HÔTEL DE L'EXPOSITION RÉPUBLIQUE;HÔTEL;4 boulevard de magenta, 75010, PARIS;;;O;5
HÔTEL DU CHEMIN VERT;HÔTEL;97 rue du chemin vert, 75011, PARIS;;;O;5
HÔTEL DES TROIS GARES;HÔTEL;1 rue Jules César, 75012, PARIS;;;O;5
HÔTEL DU MIDI;HÔTEL;33 rue traversière, 75012, PARIS;;;O;5
HÔTEL WALDORF MONTPARNASSE;HÔTEL;17 rue du départ, 75014, PARIS;;;O;5
HÔTEL B SQUARE;HÔTEL;11 RUE DES BATIGNOLLES, 75017, PARIS;;;O;5
LE PARIS VINGT;HÔTEL;6 rue Dupont de l'Eure, 75020, PARIS;;;O;5
HÔTEL DE SÉVIGNÉ;HÔTEL;6 rue de belloy, 75116, PARIS;;;O;5
HÔTEL LE TOURVILLE;HÔTEL;16 avenue de Tourville, 75007, PARIS;;;O;5
HÔTEL LA SERRE;HÔTEL;24 bis rue Cler, 75007, PARIS;;;O;5
ROYAL OPÉRA;HÔTEL;5 rue de Catellane, 75008, PARIS;;;O;5
HÔTEL IMPÉRIAL;HÔTEL;45 rue de la victoire, 75009, PARIS;;;O;5
HÔTEL PAVILLON OPÉRA LAFAYETTE ;HÔTEL;23 rue de la tour d'Auvergne, 75009, PARIS;;;O;5
GOLD HÔTEL;HÔTEL;67 BOULEVARD DE CLICHY, 75009, PARIS;;;O;5
HÔTEL CAMÉLIA PRESTIGE;HÔTEL;6 avenue philippe auguste, 75011, PARIS;;;O;5
HÔTEL DU LION;HÔTEL;1 avenue du Général Leclerc, 75014, PARIS;;;O;5
HOTEL MONTPARNASSE DAGUERRE;HÔTEL;94 RUE DAGUERRE, 75014, PARIS;;;O;5
HÔTEL DELAMBRE;HÔTEL;35 rue Delambre, 75014, PARIS;;;O;5
HÔTEL ARC DE TRIOMPHE ÉTOILE;HÔTEL;3 rue de l'étoile, 75017, PARIS;;;O;5
HÔTEL O;HÔTEL;19 rue hérold, 75001, PARIS;;;O;5
BEST WESTERN DUCS DE BOURGOGNE;HÔTEL;19 rue du Pont Neuf, 75001, PARIS;;;O;5
HOTEL DE VENDÔME;HÔTEL;1, Place Vendôme, 75001, PARIS;;;O;5
HÔTEL DU COLLÈGE DE FRANCE;HÔTEL;7 rue Thénard, 75005, PARIS;;;O;5
HOTEL CLUNY SQUARE;HÔTEL;21 boulevard saint michel, 75005, PARIS;;;O;5
HOTEL MERCURE HAUSSMANN PARIS SAINT AUGUSTIN;HÔTEL;20 RUE ROQUEPINE, 75008, PARIS;;;O;5
HÔTEL DE GENÈVE;HÔTEL;36 rue de Londres, 75009, PARIS;;;O;5
HHOTEL SAINT GEORGES LAFAYETTE;HÔTEL;11 RUE VICTOR MASSE, 75009, PARIS;;;O;5
HOTEL FRANCE ALBION;HÔTEL;11 rue Notre Dame de Lorette, 75009, PARIS;;;O;5
HÔTEL JARRY;HÔTEL;4 rue Jarry, 75010, PARIS;;;O;5
HÔTEL LE TWELVE;HÔTEL;82 avenue du Docteur Arnold Netter, 75012, PARIS;;;O;5
HOTEL RENOIR;HÔTEL;39 RUE DU MONTPARNASSE, 75014, PARIS;;;O;5
HÔTEL CLARISSE;HÔTEL;159 Boulevard Lefebvre, 75015, PARIS;;;O;5
HÔTEL SAPHIR GRENELLE;HÔTEL;10 RUE DU COMMERCE, 75015, PARIS;;;O;5
HÔTEL CARINA;HÔTEL;9 rue ginoux, 75015, PARIS;;;O;5
HÔTEL CARLADEZ CAMBRONNE;HÔTEL;3 PLACE DU GENERAL BEURET, 75015, PARIS;;;O;5
HÔTEL ROYAL ÉLYSÉES ;HÔTEL;6 avenue Victor Hugo, 75016, PARIS;;;O;5
HOTEL EIFFEL KENNEDY;HÔTEL;12 RUE DE BOULAINVILLIERS, 75016, PARIS;;;O;5
HÔTEL DE LA FÉLICITÉ;HÔTEL;43, rue de la Félicité, 75017, PARIS;;;O;5
HÔTEL LE VILLIERS;HÔTEL;133 avenue de villiers, 75017, PARIS;;;O;5
HÔTEL HARVEY;HÔTEL;7BIS RUE DU DEBARCADèRE, 75017, PARIS;;;O;5
 ANDRÉ GILL;HÔTEL;4 rue André Gill, 75018, PARIS;;;O;5
HÔTEL BAUDELAIRE OPÉRA;HÔTEL;61 rue sainte Anne, 75002, PARIS;;;O;5
HÔTEL DU BOURG-TIBOURG;HÔTEL;19 rue du Bourg-Tibourg, 75004, PARIS;;;O;5
HOTEL ANDREA RIVOLI;HÔTEL;3 RUE SAINT BON, 75004, PARIS;;;O;5
HÔTEL D'ANGLETERRE - SAINT-GERMAIN-DES-PRÈS;HÔTEL;44 RUE JACOB, 75006, PARIS;;;O;5
HÔTEL LINDBERGH;HÔTEL;5 RUE CHOMEL, 75007, PARIS;;;O;5
HOTEL CHOMEL;HÔTEL;15 RUE CHOMEL, 75007, PARIS;;;O;5
HOTEL WILSON OPERA;HÔTEL;10 rue de Stockholm, 75008, PARIS;;;O;5
HÔTEL DU SQUARE D'ANVERS;HÔTEL;6 PLACE D'ANVERS, 75009, PARIS;;;O;5
HÔTEL MAUBEUGE GARE DU NORD;HÔTEL;79 RUE DE MAUBEUGE, 75010, PARIS;;;O;5
IBIS PARIS MENILMONTANT PERE LACHAISE;HÔTEL;80 RUE DE LA FOLIE REGNAULT, 75011, PARIS;;;O;5
JACK'S HOTEL;HÔTEL;19 avenue Stéphen Pichon, 75013, PARIS;;;O;5
HÔTEL PRINCE ALBERT LOUVRE;HÔTEL;5 RUE SainT-HYACINTHE, 75001, PARIS;;;O;5
HÔTEL DES TUILERIES;HÔTEL;10 rue saint hyacinthe, 75001, PARIS;;;O;5
LE PRADEY;HÔTEL;5 RUE SAINT ROCH, 75001, PARIS;;;O;5
HÔTEL DU LOIRET;HÔTEL;8 rue des mauvais garçons , 75004, PARIS;;;O;5
BEST WESTERN HÔTEL LE MONTPARNASSE;HÔTEL;37 boulevard du Montparnasse, 75006, PARIS;;;O;5
HÔTEL NOVANOX;HÔTEL;155 boulevard du montparnasse, 75006, PARIS;;;O;5
HOTEL DE SAINT GERMAIN;HÔTEL;50 rue du Four, 75006, PARIS;;;O;5
HÔTEL BEAUGENCY;HÔTEL;21 RUE DUVIVIER, 75007, PARIS;;;O;5
HÔTEL MONTAIGNE;HÔTEL;6 Avenue Montaigne, 75008, PARIS;;;O;5
HÔTEL CHARING CROSS;HÔTEL;39 rue Pasquier, 75008, PARIS;;;O;5
RÉSIDENCE NELL;HÔTEL;60 rue Richer, 75009, PARIS;;;O;5
HÔTEL ROYAL BERGÈRE;HÔTEL;8 rue geoffroy-marie, 75009, PARIS;;;O;5
HOTEL LANGLOIS;HÔTEL;63 RUE SAINT LAZARE, 75009, PARIS;;;O;5
HÔTEL COSMOTEL;HÔTEL;17 boulevard de strasbourg, 75010, PARIS ;;;O;5
HOTEL EXCELSIOR REPUBLIQUE;HÔTEL;4 RUE DE LANCRY, 75010, PARIS;;;O;5
NETTER HOTEL;HÔTEL;89 AVENUE DU DOCTEUR ARNOLD NETTER, 75012, PARIS;;;O;5
HOTEL TRIANON GARE DE LYON;HÔTEL;52 boulevard Diderot, 75012, PARIS;;;O;5
HOTEL BALDI;HÔTEL;42 bd garibaldi, 75015, PARIS;;;O;5
HÔTEL PRINCE ALBERT WAGRAM;HÔTEL;28 passage cardinet, 75017, PARIS;;;O;5
HOTEL JEAN GABRIEL MONYMARTRE;HÔTEL;13 RUE LECLUSE, 75017, PARIS;;;O;5
HÔTEL DE LA PERDRIX ROUGE;HÔTEL;5 rue lassus, 75019, PARIS;;;O;5
HÔTEL DURET;HÔTEL;30 rue DURET , 75116, PARIS ;;;O;5
HÔTEL AGORA;HÔTEL;7 rue de la cossonnerie, 75001, PARIS;;;O;5
HÔTEL DU VIEUX SAULE;HÔTEL;6 rue de Picardie, 75003, PARIS;;;O;5
HÔTEL PERREYVE;HÔTEL;63 rue madame, 75006, PARIS;;;O;5
AUSTIN'S SAINT LAZARE HÔTEL;HÔTEL;26 RUE D'AMSTERDAM, 75009, PARIS;;;O;5
HOTEL SOFT;HÔTEL;52 bis rue des Vinaigriers, 75010, PARIS;;;O;5
HÔTEL LE CLOS D'ALÉSIA;HÔTEL;8 rue friant, 75014, PARIS;;;O;5
HÔTEL ALYSS SAPHIR CAMBRONNE EIFFEL;HÔTEL;62 RUE DE LA CROIX-NIVERT, 75015, PARIS;;;O;5
IBIS PARIS GARE MONTPARNASSE;HÔTEL;71 Boulevard de vaugirard, 75015, PARIS;;;O;5
HÔTEL DE CABOURG;HÔTEL;5 rue du Mont-Dore, 75017, PARIS;;;O;5
HOTEL TIVOLI;HÔTEL;7 rue Brey, 75017, PARIS;;;O;5
HÔTEL PARIS GAMBETTA;HÔTEL;12 avenue du père lachaise, 75020, PARIS;;;O;5
SUPER HÔTEL;HÔTEL;208 RUE DES PYRéNéES, 75020, PARIS;;;O;5
HÔTEL DU VIEUX MARAIS;HÔTEL;8 rue du Plâtre, 75004, PARIS;;;O;5
WELCOME HÔTEL ;HÔTEL;66 RUE DE SEINE, 75006, PARIS;;;O;5
CRYSTAL HOTEL SA;HÔTEL;24 RUE SAINT BRENOIT, 75006, PARIS;;;O;5
HÔTEL RELAIS SAINT-GERMAIN;HÔTEL;7-9 carrefour de l'odéon						 																		, 75006, PARIS;;;O;5
HÔTEL DE FLEURIE;HÔTEL;32-34 rue Grégoire de Tours, 75006, PARIS;;;O;5
HOTEL RECAMIER;HÔTEL;3 bis place Saint Sulpice, 75006, PARIS;;;O;5
HÔTEL DE LONDRES EIFFEL;HÔTEL;1 RUE AUGEREAU, 75007, PARIS;;;O;5
BEST WESTERN ELYSÉES PARIS MONCEAU;HÔTEL;18 RUE DE CONSTANTINOPLE, 75008, PARIS;;;O;5
SAS ARIOSO;HÔTEL;7 RUE D ARGENSON, 75008, PARIS;;;O;5
LE VIGNON;HÔTEL;23 rue vignon, 75008, PARIS;;;O;5
HOTEL LE LAVOISIER;HÔTEL;21, rue Lavoisier, 75008, PARIS;;;O;5
HOTEL RÉGENCE;HÔTEL;33 rue de Saint-Petersbourg, 75008, PARIS;;;O;5
LE A;HÔTEL;4 rue d'Artois, 75008, PARIS;;;O;5
HOTEL NEW ORIENT;HÔTEL;16 rue de Constantinople, 75008, PARIS;;;O;5
PAVILLON OPÉRA GRANDS BOULEVARDS;HÔTEL;11 Rue Geoffroy Marie, 75009, PARIS;;;O;5
HÔTEL PRINCE ALBERT OPÉRA;HÔTEL;89 rue de provence, 75009, PARIS;;;O;5
HÔTEL DE NEMOURS;HÔTEL;8 RUE DE NEMOURS, 75011, PARIS;;;O;5
HOTEL SAINT LOUIS BASTILLE;HÔTEL;114 BOULEVARD RICHARD LENOIR, 75011, PARIS;;;O;5
HÔTEL DE BLOIS;HÔTEL;5 Rue des plantes, 75014, PARIS;;;O;5
HÔTEL ARIANE MONTPARNASSE;HÔTEL;25 rue de la sablière, 75014, PARIS;;;O;5
HÔTEL SEVRES MONTPARNASSE;HÔTEL;153 rue vaugirard, 75015, PARIS;;;O;5
BEST WESTERN HOTEL AU TROCADERO;HÔTEL;3 AVENUE RAYMOND POINCARE, 75116, PARIS;;;O;5
HOTEL PALAIS DE CHAILLOT;HÔTEL;35 avenue Raymond Poincaré, 75116, PARIS;;;O;5
HÔTEL HAUTEVILLE OPÉRA ;HÔTEL;41 rue d'hauteville , 75010, PARIS;;;O;5
HOTEL ALADIN;HÔTEL;14 RUE DES CORDELIERES, 75013, PARIS;;;O;5
HÔTEL DU MOULIN VERT;HÔTEL;74 rue du moulin vert, 75014, PARIS;;;O;5
HÔTEL MÉDÉRIC;HÔTEL;4 rue médéric, 75017, PARIS;;;O;5
HÔTEL VOLNEY OPÉRA;HÔTEL;11 RUE VOLNEY, 75002, PARIS;;;O;5
HÔTEL NOTRE DAME;HÔTEL;1 quai saint michel, 75005, PARIS;;;O;5
HÔTEL RELAIS SAINT-SULPICE;HÔTEL;3 rue garancière, 75006, PARIS;;;O;5
MILLESIME HOTEL;HÔTEL;15 RUE JACOB, 75006, PARIS;;;O;5
HOTEL CHAPLAIN PARIS RIVE GAUCHE;HÔTEL;11 bis rue Jules Chaplain, 75006, PARIS;;;O;5
HÔTEL VERNEUIL SANT-GERMAIN;HÔTEL;8 rue de Verneuil, 75007, PARIS;;;O;5
HOTEL PAVILLON DES LETTRES;HÔTEL;12 RUE DES SAUSSAIES, 75008, PARIS;;;O;5
HÔTEL NEW  PARNASSE;HÔTEL;7 rue Vandamme, 75014, PARIS;;;O;5
HÔTEL DU MAINE;HÔTEL;16 rue maison dieu, 75014, PARIS;;;O;5
HÔTEL ARCADIE;HÔTEL;71 avenue du maine, 75014, PARIS;;;O;5
HÔTEL DERBY GARIBALDI;HÔTEL;92 boulevard Garibaldi, 75015, PARIS;;;O;5
HÔTEL DE PARIS MONTMARTRE;HÔTEL;17 rue biot, 75017, PARIS;;;O;5
HOTEL MONCEAU ELYSEES;HÔTEL;108, RUE DE COURCELLES, 75017, PARIS;;;O;5
HOTEL JARDIN DE VILLIERS;HÔTEL;18 rue claude pouillet, 75017, PARIS;;;O;5
HOTEL LE RELAIS  MONTMARTRE HPF;HÔTEL;6 RUE CONSTANCE, 75018, PARIS;;;O;5
HÔTEL RÉSIDENCE FOCH;HÔTEL;10 RUE MARBEAU, 75116, PARIS;;;O;5
HÔTEL LONDRES SAINT-HONORÉ;HÔTEL;13 rue Saint-Roch, 75001, PARIS;;;O;5
HÔTEL LES JARDINS DU LUXEMBOURG;HÔTEL;5 impasse royer-collard, 75005, PARIS;;;O;5
BEST WESTERN PREMIER  ELYSEE SECRET;HÔTEL;5 rue de Ponthieu, 75008, PARIS;;;O;5
HÔTEL DE L'AVEYRON;HÔTEL;5 RUE D'AUSTERLITZ, 75012, PARIS;;;O;5
HÔTEL AMBRE;HÔTEL;175 TER RUE TOLBIAC, 75013, PARIS;;;O;5
HÔTEL ATLANTIQUE ;HÔTEL;54 RUE FALGUIèRE, 75015, PARIS;;;O;5
HOTEL LUMIERES;HÔTEL;110 RUE DAMREMONT, 75018, PARIS;;;O;5
HÔTEL DE LA VALLÉE;HÔTEL;84-86 rue saint-denis, 75001, PARIS;;;O;5
HÔTEL PARIS RIVOLI;HÔTEL;19 rue de Rivoli, 75004, PARIS;;;O;5
HOTEL DE NICE;HÔTEL;42 BIS RUE DE RIVOLI, 75004, PARIS;;;O;5
HÔTEL BEAUVOIR;HÔTEL;43 avenue Georges Bernanos, 75005, PARIS;;;O;5
HOTEL PARC SAINT SEVERIN;HÔTEL;22 rue de la parcheminerie, 75005, PARIS;;;O;5
LE WALT - SAS HOTEL DE L'INDUSTRIE;HÔTEL;37, Avenue de la Motte Picquet, 75007, PARIS;;;O;5
HÔTEL DE VARENNE;HÔTEL;44 rue de bourgogne, 75007, PARIS;;;O;5
HÔTEL GALILEO;HÔTEL;54 rue Galilée, 75008, PARIS;;;O;5
HÔTEL D'ALBION;HÔTEL;15 rue de Penthievre, 75008, PARIS;;;O;5
HOTEL CRISTAL CHAMPS ELYSÉES;HÔTEL;9, rue washington, 75008, PARIS;;;O;5
VILLA OPERA LAMARTINE;HÔTEL;39 RUE LAMARTINE, 75009, PARIS;;;O;5
HÔTEL VICTORY GALOU;HÔTEL;15 PASSAGE DE L'INDUSTRIE, 75010, PARIS;;;O;5
HÔTEL WINDSOR OPÉRA;HÔTEL;10 rue Gabriel Laumain, 75010, PARIS;;;O;5
HÔTEL CHABROL OPÉRA;HÔTEL;46 rue de Chabrol, 75010, PARIS;;;O;5
HOTELLERIE D'ENGHIEN;HÔTEL; 52 RUE D'ENGHIEN, 75010, PARIS;;;O;5
HÔTEL AMADEUS;HÔTEL;39 rue claude tillier, 75012, PARIS;;;O;5
SAS PAVILLON BASTILLE;HÔTEL;65 rue de lyon, 75012, PARIS;;;O;5
HÔTEL AMIRAL;HÔTEL;90 rue de l'amiral Roussin, 75015, PARIS;;;O;5
HÔTEL BAILLI DE SUFFREN;HÔTEL;149, Avenue de Suffren, 75015, PARIS;;;O;5
HÔTEL D'ANGLETERRE ÉTOILE;HÔTEL;21 RUE COPERNIC, 75016, PARIS;;;O;5
HOTEL SEZZ PARIS;HÔTEL;6 AVENUE FREMIET, 75016, PARIS;;;O;5
HÔTEL LOUVRE PIEMONT ;HÔTEL;22 rue de Richelieu, 75001, PARIS;;;O;5
HÔTEL SAINT-PAUL LE MARAIS;HÔTEL;8 rue de Sévigné, 75004, PARIS;;;O;5
HÔTEL DU BRÉSIL;HÔTEL;10 Rue le Goff, 75005, PARIS;;;O;5
HOTEL MAXIM QUARTIER LATIN;HÔTEL;28 rue censier, 75005, PARIS;;;O;5
HÔTEL SAINT CHRISTOPHE;HÔTEL;17, rue Lacépède, 75005, PARIS;;;O;5
HÔTEL DU DRAGON;HÔTEL;36 rue du dragon, 75006, PARIS;;;O;5
HÔTEL DES CHAMPS ELYSEES;HÔTEL;2 rue d'Artois, 75008, PARIS;;;O;5
HÔTEL PELETIER HAUSSMANN OPÉRA;HÔTEL;15 rue le Peletier, 75009, PARIS;;;O;5
HÔTEL BRISTOL NORD;HÔTEL;2 rue de Dunkerque, 75010, PARIS;;;O;5
NOUVEL HÔTEL;HÔTEL;24 AVENUE DU BEL AIR, 75012, PARIS;;;O;5
BEST WESTERN AURORE;HÔTEL;13 rue traversière, 75012, PARIS;;;O;5
HOTEL DE REIMS;HÔTEL;26 RUE HECTOR MALOT, 75012, PARIS;;;O;5
HÔTEL LES JARDINS D'ALÉSIA;HÔTEL;34 RUE D'ALéSIA, 75014, PARIS;;;O;5
HÔTEL LES HAUTS DE PASSY;HÔTEL;37 rue de l'annonciation, 75016, PARIS;;;O;5
HOTEL RIBERA;HÔTEL;66 RUE JEAN DE LA FONTAINE, 75016, PARIS;;;O;5
ART HÔTEL BATIGNOLLES;HÔTEL;110 rue legendre, 75017, PARIS;;;O;5
BEST WESTERN DE NEUVILLE;HÔTEL;3 rue verniquet, 75017, PARIS;;;O;5
PAVILLON DE MONTMARTRE;HÔTEL;5 rue Aristide Bruant, 75018, PARIS;;;O;5
BEST WESTERN PRINCE MONTMARTRE;HÔTEL;116 rue Ordener, 75018, PARIS;;;O;5
HÔTEL HENRI IV ;HÔTEL;9-11 rue saint jacques, 75005, PARIS;;;O;5
HÔTEL PRINCE DE CONTI;HÔTEL;8 rue guénégaud, 75006, PARIS;;;O;5
HÔTEL  MAYET;HÔTEL;3 rue mayet, 75006, PARIS;;;O;5
HÔTEL MAYFLOWER;HÔTEL;3 rue de Chateaubriand, 75008, PARIS;;;O;5
HÔTEL DU LÉMAN ;HÔTEL;20 rue de trévise, 75009, PARIS;;;O;5
HÔTEL DE DIEPPE;HÔTEL;22 rue d'Amsterdam, 75009, PARIS;;;O;5
HOTEL OPERA FROCHOT;HÔTEL;4 RUE FROCHOT, 75009, PARIS;;;O;5
CLARION COLLECTION OPERA PAVILLON;HÔTEL;7 rue de parme, 75009, PARIS;;;O;5
BEST WESTERN HOTEL FAUBOURG SAINT MARTIN;HÔTEL;6 RUE GUSTAVE GOUBLIER, 75010, PARIS;;;O;5
HÔTEL DES MÉTALLOS;HÔTEL;50 rue de la Folie Méricourt, 75011, PARIS;;;O;5
AUBERGE FLORA;HÔTEL;44 boulevard Richard Lenoir, 75011, PARIS;;;O;5
BLC DESIGN HOTEL;HÔTEL;4 rue Richard Lenoir, 75011, PARIS;;;O;5
GRAND HÔTEL DU BEL AIR;HÔTEL;102, boulevard de Picpus, 75012, PARIS;;;O;5
HÔTEL NEPTUNE;HÔTEL;15 rue Godefroy, 75013, PARIS;;;O;5
SOLAR HOTEL;HÔTEL;22 RUE BOULARD, 75014, PARIS;;;O;5
HÔTEL DE L'AVRE;HÔTEL;21 rue de l'Avre, 75015, PARIS;;;O;5
IDEAL HÔTEL;HÔTEL;96 avenue émile ZOLA, 75015, PARIS;;;O;5
HÔTEL GAVARNI;HÔTEL;5 rue gavarni, 75016, PARIS;;;O;5
HÔTEL ÉTOILE PEREIRE;HÔTEL;146 boulevard Péreire, 75017, PARIS;;;O;5
HÔTEL PRINCE MONCEAU;HÔTEL;9 RUE TARBÉ, 75017, PARIS;;;O;5
NADAUD HOTEL;HÔTEL;8,rue de la Bidassoa, 75020, PARIS;;;O;5
HÔTEL VICTORIA CHÂTELET;HÔTEL;17 Avenue Victoria, 75001, PARIS;;;O;5
HÔTEL DE LA PLACE DU LOUVRE;HÔTEL;21 rue des pretres - Saint - Germain L'Auxerrois, 75001, PARIS;;;O;5
HOTEL SAINT HONORE;HÔTEL;85 RUE SAINT HONORE, 75001, PARIS;;;O;5
AUSTIN'S ARTS ET MÉTIERS HÔTEL;HÔTEL;6 rue montgolfier, 75003, PARIS;;;O;5
HOTEL DE LUTÈCE;HÔTEL;65 RUE SAINT-LOUIS EN L'ILE, 75004, PARIS;;;O;5
HÔTEL KENSINGTON;HÔTEL;79 avenue de la bourdonnais, 75007, PARIS;;;O;5
HOTEL DU CHAMP DE MARS;HÔTEL;7 rue du champ de mars, 75007, PARIS;;;O;5
HÔTEL MATHIS ÉLYSÉES;HÔTEL;3 RUE DE PONTHIEU, 75008, PARIS;;;O;5
HÔTEL CHÂTEAUDUN OPERA ;HÔTEL;30 rue de Châteaudun, 75009, PARIS;;;O;5
RELAIS MADELEINE;HÔTEL;11 BIS RUE GODOT DE MAUROY, 75009, PARIS;;;O;5
GOLDEN HOTEL;HÔTEL;5 RUE RIBOUTTE, 75009, PARIS;;;O;5
HÔTEL FRANCE D'ANTIN OPÉRA;HÔTEL;22 RUE D'ANTIN, 75002, PARIS;;;O;5
HOTEL JACQUES DE MOLAY;HÔTEL;94 rue des archives, 75003, PARIS ;;;O;5
HOSTELLERIE DU MARAIS;HÔTEL;30 RUE DE TURENNE, 75003, PARIS;;;O;5
HOTEL BEAUBOURG;HÔTEL;11 RUE SIMON LE FRANC, 75004, PARIS;;;O;5
HÔTEL CLUNY SORBONNE;HÔTEL;8 rue Victor Cousin, 75005, PARIS;;;O;5
HÔTEL LOUIS II;HÔTEL;2 rue Saint-Sulpice, 75006, PARIS;;;O;5
HÔTEL LUXEMBOURG PARC;HÔTEL;42 RUE DE VAUGIRARD, 75006, PARIS;;;O;5
HÔTEL DE L'UNIVERSITÉ;HÔTEL;22 rue de l'université, 75007, PARIS;;;O;5
PAVILLON OPÉRA BOURSE;HÔTEL;15 Rue Geoffroy Marie, 75009, PARIS;;;O;5
HÔTEL DU CALVADOS;HÔTEL;20 rue d'amsterdam, 75009, PARIS;;;O;5
VILLA VAN GOGH;HÔTEL;2 BIS CITE PIGALLE, 75009, PARIS;;;O;5
HÔTEL MONTSOURIS ORLÉANS;HÔTEL;15 rue Beaunier, 75014, PARIS;;;O;5
HÔTEL L'ADRESSE;HÔTEL;22 rue du Débarcadère, 75017, PARIS;;;O;5
HÔTEL ROYAL WAGRAM ;HÔTEL;25 Boulevard Pereire, 75017, PARIS;;;O;5
HÔTEL RIVIERA;HÔTEL;55 rue des Acacias, 75017, PARIS;;;O;5
HOTEL HIDDEN;HÔTEL;28 rue de l’arc de triomphe, 75017, PARIS;;;O;5
HÔTEL MONTMARTRE ;HÔTEL;4 rue de Clignancourt , 75018, PARIS;;;O;5
HOTEL LE SQUARA;HÔTEL;3 rue lepic, 75018, PARIS;;;O;5
MERCURE PARIS STENDHAL PLACE VENDÔME;HÔTEL;22 RUE DANIELLE CASANOVA, 75002, PARIS;;;O;5
HÔTEL ÉCOLE CENTRALE;HÔTEL;3 rue Bailly, 75003, PARIS;;;O;5
HÔTEL LE COMPOSTELLE;HÔTEL;31 rue du roi de Sicile, 75004, PARIS;;;O;5
HÔTEL DU 7ÈME ART;HÔTEL;20 RUE SAINT-PAUL, 75004, PARIS;;;O;5
HOTEL JARDIN LE BREA;HÔTEL;14 rue brea, 75006, PARIS;;;O;5
HÔTEL ARC ÉLYSÉES;HÔTEL;45 rue Washington, 75008, PARIS;;;O;5
HOTEL MONNA LISA;HÔTEL;97, Rue la Boétie, 75008, PARIS;;;O;5
QUALITY HOTEL MALESHERBES;HÔTEL;11, place Saint Augustin, 75008, PARIS;;;O;5
HÔTEL MONTHOLON;HÔTEL;15 rue de Montholon, 75009, PARIS;;;O;5
HÔTEL AURORE MONTMARTRE;HÔTEL;76 rue de Clichy, 75009, PARIS;;;O;5
HOTEL MONTE CARLO;HÔTEL;44 FAUBOURG MONTMARTRE, 75009, PARIS;;;O;5
HOTEL PRINCE ALBERT CONCORDIA;HÔTEL;38 boulecard diderot, 75012, PARIS;;;O;5
HÔTEL DE CHOISY;HÔTEL;135 avenue de Choisy, 75013, PARIS;;;O;5
NOVEX HÔTEL;HÔTEL;8 rue Caillaux, 75013, PARIS;;;O;5
HÔTEL CAMÉLIA;HÔTEL;24 boulevard PASTEUR, 75015, PARIS;;;O;5
HOTEL DU MONT DORE;HÔTEL;19 rue du Mont Dore, 75017, PARIS;;;O;5
THE FIVE HOTEL;HÔTEL;3 RUE FLATTERS, 75005, PARIS;;;O;5
HOTEL LE PETIT PARIS ;HÔTEL;214 RUE SAINT JACQUES, 75005, PARIS;;;O;5
HÔTEL DE BUCI;HÔTEL;22, rue de Buci, 75006, PARIS;;;O;5
HÔTEL MALAR;HÔTEL;29 rue Malar, 75007, PARIS;;;O;5
HÔTEL DE LA PAIX;HÔTEL;19 rue du Gros Caillou, 75007, PARIS;;;O;5
HÔTEL DE LA TULIPE;HÔTEL;33 rue Malar, 75007, PARIS;;;O;5
HÔTEL OPÉRA MARIGNY;HÔTEL;11 rue de l'Arcade, 75008, PARIS;;;O;5
HOTEL GEORGE SAND;HÔTEL;26 rue des mathurins, 75009, PARIS;;;O;5
HÔTEL HELDER OPÉRA;HÔTEL;4 rue du helder, 75009, PARIS;;;O;5
HOTEL ANGELY;HÔTEL;22rue du Grand Prieure, 75011, PARIS;;;O;5
HÔTEL SQUARE;HÔTEL;3 RUE DE BOULAINVILLIERS, 75016, PARIS;;;O;5
HÔTEL MONCEAU WAGRAM;HÔTEL;7 RUE RENNEQUIN, 75017, PARIS;;;O;5
HÔTEL MONTMARTRE MON AMOUR;HÔTEL;7 RUE PAUL ALBERT, 75018, PARIS;;;O;5
HÔTEL DES BUTTES CHAUMONT;HÔTEL;04 AVENUE SECRETAN, 75019, PARIS;;;O;5
HOTEL LONGCHAMP;HÔTEL;68 RUE DE LONGCHAMP, 75116, PARIS;;;O;5
HOTEL LE CRAYON;HÔTEL;25 RUE DU BOULOI, 75001, PARIS;;;O;5
HÔTEL CYRNOS;HÔTEL;154 rue Montmartre, 75002, PARIS;;;O;5
HÔTEL BAUDIN;HÔTEL;113 Avenue Ledru Rollin , 75011, PARIS;;;O;5
HOTEL ASTRUC ELYSEES;HÔTEL;18, rue Léon Jost, 75017, PARIS;;;O;5
LE RELAIS DU LOUVRE;HÔTEL;19 rue des Prêtres Saint-Germain l'Auxerrois, 75001, PARIS;;;O;5
HÔTEL BABY;HÔTEL;1 RUE CHéNIER, 75002, PARIS;;;O;5
HOTEL DES ARCHIVES;HÔTEL;87 RUE DES ARCHIVES, 75003, PARIS;;;O;5
HÔTEL DES CANETTES;HÔTEL;17 Rue des Canettes, 75006, PARIS;;;O;5
HÔTEL DU MINISTÈRE;HÔTEL;31, rue de Surène, 75008, PARIS;;;O;5
HÔTEL MURAT;HÔTEL;119 bis boulevard Murat, 75016, PARIS;;;O;5
HOTEL MARMOTEL;HÔTEL;34 AVENUE DE LA GRANDE ARMEE, 75017, PARIS;;;O;5
HOTEL DU THEATRE;HÔTEL;5 RUE DE CHEROY, 75017, PARIS;;;O;5
HOTEL ETOILE TROCADERO;HÔTEL;21 RUE SAINT DIDIER, 75116, PARIS;;;O;5
HÔTEL POINTE RIVOLI;HÔTEL;125 Rue Saint-Antoine, 75004, PARIS;;;O;5
HÔTEL LE RELAIS SAINT-JACQUES;HÔTEL;3 rue de l'Abbé de l’epée, 75005, PARIS;;;O;5
OPERA MAINTENON;HÔTEL;36 rue Sainte Anne, 75001, PARIS;;;O;5
HÔTEL DU PETIT MOULIN;HÔTEL;29-31 RUE DE POITOU, 75003, PARIS;;;O;5
HÔTEL LE RELAIS MEDICIS;HÔTEL;23 rue Racine, 75006, PARIS;;;O;5
L’HÔTEL;HÔTEL;13 rue des beaux arts, 75006, PARIS;;;O;5
HÔTEL DES ACADÉMIES ET DES ARTS;HÔTEL;15 rue de la Grande Chaumière, 75006, PARIS;;;O;5
HÔTEL SAINTE-BEUVE;HÔTEL;9 rue Sainte-Beuve, 75006, PARIS;;;O;5
HOTEL LE SAINT-GREGOIRE;HÔTEL;43 rue de l'Abbé Grégoire, 75006, PARIS;;;O;5
LE PETIT MADELEINE HOTEL ;HÔTEL;22 RUE ROQUEPINE, 75008, PARIS;;;O;5
HÔTEL MAZAGRAN;HÔTEL;4 rue mazagran, 75010, PARIS;;;O;5
HÔTEL DE BORDEAUX;HÔTEL;100 rue du Faubourg Saint-Denis, 75010, PARIS;;;O;5
HÔTEL AMIRAL FONDARY;HÔTEL;30 rue fondary, 75015, PARIS;;;O;5
ABEROTEL MONTPARNASSE;HÔTEL;24 rue Blomet, 75015, PARIS;;;O;5
HÔTEL CHAMBELLAN MORGANE;HÔTEL;6 rue Keppler, 75116, PARIS;;;O;5
HÔTEL SAINT-ROCH;HÔTEL;25 rue Saint-Roch, 75001, PARIS;;;O;5
HÔTEL LE CLÉRY ;HÔTEL;13 Boulevard DE BONNE NOUVELLE , 75002, PARIS;;;O;5
HOTEL STELLA DE NEUVE;HÔTEL;14 RUE NEUVE ST PIERRE, 75004, PARIS;;;O;5
HOTEL DIANA;HÔTEL;73 RUE SAINT JACQUES, 75005, PARIS;;;O;5
HÔTEL DAVAL;HÔTEL;21 rue Daval, 75011, PARIS;;;O;5
SUBLIM HOTEL;HÔTEL;94 boulevard garibaldi, 75015, PARIS;;;O;5
HOTEL PARIS LOUVRE OPERA;HÔTEL;4 RUE DES MOULINS, 75001, PARIS;;;O;5
HÔTEL SAINT-LOUIS EN L'ISLE;HÔTEL;75 rue Saint-Louis en l'Ile, 75004, PARIS;;;O;5
RELAIS HÔTEL DU VIEUX PARIS;HÔTEL;9 rue Git le Coeur, 75006, PARIS;;;O;5
HÔTEL DE LA TOUR EIFFEL;HÔTEL;17 rue de l'exposition, 75007, PARIS;;;O;5
TIMHOTEL OPÉRA GRANDS MAGASINS;HÔTEL;35 RUE LA BRUYèRE, 75009, PARIS;;;O;5
HÔTEL DE VIENNE;HÔTEL;43 rue de Malte, 75011, PARIS;;;O;5
LE FABE HOTEL;HÔTEL;113 bis rue de l' ouest, 75014, PARIS;;;O;5
HÔTEL PARIS LÉCLUSE;HÔTEL;17 Rue Lécluse, 75017, PARIS;;;O;5
HÔTEL WAGRAM;HÔTEL;5 rue Poncelet, 75017, PARIS;;;O;5
HÔTEL RELAIS BERGSON;HÔTEL;124 AVENUE SIMON BOLIVAR, 75019, PARIS;;;O;5
HOTEL CARON DE BEAUMARCHAIS;HÔTEL;12 rue Vieille du Temple, 75004, PARIS;;;O;5
HÔTEL HIBISCUS;HÔTEL;66 rue de malte , 75011, PARIS;;;O;5
HÔTEL VERLAINE;HÔTEL;51 RUE BOBILLOT, 75013, PARIS;;;O;5
HÔTEL AGENOR;HÔTEL;22 RUE DE CELS, 75014, PARIS;;;O;5
LE CHAMPERRET HÉLIOPOLIS;HÔTEL;13 rue d'Héliopolis, 75017, PARIS;;;O;5
HÔTEL REGYN'S MONTMARTRE;HÔTEL;18 place des Abbesses, 75018, PARIS;;;O;5
HÔTEL RESIDENCE HENRI IV;HÔTEL;50 rue des Bernardins, 75005, PARIS;;;O;5
LE VALADON;HÔTEL;16 RUE DE VALADON, 75007, PARIS;;;O;5
HÔTEL DE LATOUR MAUBOURG;HÔTEL;150 rue de grenelle, 75007, PARIS;;;O;5
ATHÉNÉE;HÔTEL;19 rue caumartin, 75009, PARIS;;;O;5
HÔTEL BEL AIR ;HÔTEL;6 rue de la voute , 75012, PARIS;;;O;5
HÔTEL DE LA LOIRE;HÔTEL;39 bis rue du moulin vert, 75014, PARIS;;;O;5
HÔTEL RÉSIDENCE VILLIERS;HÔTEL;68 AVENUE DE VILLIERS, 75017, PARIS;;;O;5
HOTEL LOUVRE SAINTE ANNE;HÔTEL;32 RUE SAINTE ANNE, 75001, PARIS;;;O;5
VAVINTEL;HÔTEL;49 RUE VAVIN, 75006, PARIS;;;O;5
HÔTEL DE LILLE;HÔTEL;40 rue de Lille, 75007, PARIS;;;O;5
HOTEL ILE DE FRANCE OPERA;HÔTEL;25 avenue saint augustin, 75002, PARIS;;;O;5
HOTEL AULIVIA OPERA;HÔTEL;4, rue des petites écuries, 75010, PARIS;;;O;5
SPORT HOTEL;HÔTEL;68 rue beaunier, 75014, PARIS;;;O;5
VILLA DES AMBASSADEURS;HÔTEL;6 rue du Bouquet de Longchamps, 75116, PARIS;;;O;5
HÔTEL STANISLAS;HÔTEL;5 rue du Montparnasse, 75006, PARIS;;;O;5
HÔTEL MOGADOR;HÔTEL;51 RUE DE LA VICTOIRE, 75009, PARIS;;;O;5
HÔTEL FLOR RIVOLI;HÔTEL;13 rue des deux boules, 75001, PARIS;;;O;5
LE RELAIS SAINT HONORE;HÔTEL;308 rue Saint Honore , 75001, PARIS;;;O;5
HOTEL DU LION D'OR LOUVRE;HÔTEL;5 rue de la Sourdière, 75001, PARIS;;;O;5
HÔTEL LE ROBINET D'OR;HÔTEL;7 rue eugène varlin, 75010, PARIS;;;O;5
HÔTEL COSY MOCEAU;HÔTEL;21 rue jouffroy d'abbans, 75017, PARIS;;;O;5
HÔTEL DES BEAUX ARTS;HÔTEL;2 rue Toussaint Ferron, 75013, PARIS;;;O;5
HÔTEL HIPPODROME MONTMARTRE;HÔTEL;7 rue forest, 75018, PARIS;;;O;5
HÔTEL LOUVRE RICHELIEU;HÔTEL;51 rue de Richelieu, 75001, PARIS;;;O;5
HÔTEL DES DEUX ILES;HÔTEL;59 rue saint louis en l'ile, 75004, PARIS;;;O;5
HÔTEL DANEMARK;HÔTEL;21 rue Vavin, 75006, PARIS;;;O;5
HÔTEL BERSOLYS;HÔTEL;28 RUE DE LILLE, 75007, PARIS;;;O;5
HÔTELLERIE PARIS SAINT HONORE;HÔTEL;21 rue de Penthièvre, 75008, PARIS;;;O;5
LE SAINT-HUBERT ;HÔTEL;27 rue Traversière, 75012, PARIS;;;O;5
HÔTEL DU PARC SAINT CHARLES;HÔTEL;243 RUE SAINT-CHARLES, 75015, PARIS;;;O;5
QUEEN'S;HÔTEL;4 rue Bastien Lepage, 75016, PARIS;;;O;5
HOTEL POUSSIN;HÔTEL;52 RUE POUSSIN, 75016, PARIS;;;O;5
HÔTEL CENTRE VILLE ÉTOILE;HÔTEL;6 rue des Acacias, 75017, PARIS;;;O;5
PARIS RÉSIDENCE HÔTEL;HÔTEL;32 rue de ROCROY, 75010, PARIS;;;O;5
HÔTEL AÉRO;HÔTEL;44 rue de l'Annonciation, 75016, PARIS;;;O;5
ETOILE ARC DE TRIOMPHE;HÔTEL;10 rue de l'Arc de Triomphe, 75017, PARIS;;;O;5
HÔTEL DU CYGNE;HÔTEL;3-5 rue du Cygne, 75001, PARIS;;;O;5
HÔTEL ESPÉRANCE;HÔTEL;45 rue de la Gaite, 75014, PARIS;;;O;5
HÔTEL ELYSÉE ETOILE;HÔTEL;5 rue de l'étoile, 75017, PARIS;;;O;5
HÔTEL PRINCE DE CONDÉ;HÔTEL;39 rue de Seine, 75006, PARIS;;;O;5
HÔTEL RÉSIDENCE DES ARTS;HÔTEL;14 rue Gît le Coeur, 75006, PARIS;;;O;5
HÔTEL LE PLACIDE;HÔTEL;6 rue Saint-Placide, 75006, PARIS;;;O;5
HÔTEL VILLA D'ESTRÉES;HÔTEL;17 rue Gît le Coeur, 75006, PARIS;;;O;5
HÔTEL LE CARROSSE;HÔTEL;88 rue Desnouette, 75015, PARIS;;;O;5
LES RIVES DE NOTRE-DAME;HÔTEL;15 quai Saint-Michel, 75005, PARIS;;;O;5
OASIS MONTPARNASSE HÔTEL;HÔTEL;81 rue raymond losserand, 75014, PARIS;;;O;5
SAS HOTEL DES ECOLES;HÔTEL;19 rue Monsieur le Prince, 75006, PARIS;;;O;5
LE NOUVEL HÔTEL DU THÉÂTRE ;HÔTEL;16 RUE VANDAMME, 75014, PARIS;;;O;5
HÔTEL LE  MÉTROPOLITAIN;HÔTEL;158 rue Oberkampf, 75011, PARIS;;;O;5
ALL SEASONS PARIS RÉPUBLIQUE;HÔTEL;9 Rue Léon JOUHAUX, 75010, PARIS;;;O;5
HOTEL CAMBON;HÔTEL;3 RUE CAMBON, 75001, PARIS;;;O;5
KONFIDENTIEL ;HÔTEL;64 rue de l'Arbre Sec, 75001, PARIS;;;O;5
HOTEL CORDELIA;HÔTEL;11 rue de Greffulhe, 75008, PARIS;;;O;5
JAYS PARIS;HÔTEL;6 rue Copernic, 75016, PARIS;;;O;5
NOVOTEL PARIS TOUR EIFFEL;HÔTEL;61 Quai de Grenelle, 75015, PARIS;;;O;5
