iderp;nom;activite;adresse;lat;lon;type;categorie
;SOURDIERE;Maternelle;27 RUE DE LA SOURDIERE;48.866693; 2.3327;R;
;DUSSOUBS;Maternelle;12 RUE DUSSOUBS;48.865104; 2.348671;R;
;ETIENNE MARCEL;Polyvalente;20 RUE ETIENNE MARCEL;48.864187; 2.348103;R;
;CHAPON;Maternelle;25 RUE CHAPON;48.863623; 2.35516;R;
;VERTUS;Elementaire;8 RUE DES VERTUS;48.864174; 2.357887;R;
;ARCHIVES;Maternelle;40 RUE DES ARCHIVES;48.85898; 2.355974;R;
;TOURNELLES;Elementaire;21 RUE DES TOURNELLES;48.855146; 2.367237;R;
;HOSPITAL. ST GERVAIS;Elementaire;10 R HOSPITALIERES ST GERVAIS;48.858022; 2.359045;R;
;ROLLIN;Elementaire;10 RUE ROLLIN;48.84475; 2.350841;R;
;ST JACQUES;Maternelle;242 RUE SAINT JACQUES;48.844074; 2.341791;R;
;SOMMERARD;Maternelle;10 RUE DU SOMMERARD;48.849946; 2.34686;R;
;JARDINET;Elementaire;7 RUE DU JARDINET;48.852692; 2.339941;R;
;MADAME;Maternelle;40 RUE MADAME;48.849255; 2.331663;R;
;PAUL BAUDRY;Polyvalente;10 RUE PAUL BAUDRY;48.87234; 2.307394;R;
;ROBERT ESTIENNE;Polyvalente;8 RUE ROBERT ESTIENNE;48.868663; 2.305083;R;
;BRUXELLES;Elementaire;32 RUE DE BRUXELLES;48.882985; 2.328757;R;
;RODIER;Maternelle;30 RUE RODIER;48.878696; 2.342999;R;
;ROCHECHOUART;Maternelle;68 RUE DE ROCHECHOUART;48.881378; 2.346593;R;
;BELZUNCE;Elementaire;3 RUE DE BELZUNCE;48.879192; 2.352827;R;
;LAFAYETTE      B;Elementaire;216B RUE LAFAYETTE;;;R;
;PARADIS;Maternelle;20 RUE DE PARADIS;48.874806; 2.353481;R;
;ST MAUR;Elementaire;200 RUE SAINT MAUR;48.872242; 2.371675;R;
;EUGENE VARLIN;Polyvalente;10 RUE EUGENE VARLIN;48.878343; 2.364765;R;
;VICQ D'AZIR;Polyvalente;16 RUE VICQ D'AZIR;48.876069; 2.370545;R;
;LOUIS BLANC;Maternelle;49 RUE LOUIS BLANC;48.882264; 2.362784;R;
;ALEXANDRE DUMAS;Elementaire;39 RUE ALEXANDRE DUMAS;48.853745; 2.393242;R;
;ALPHONSE BAUDIN;Elementaire;17 RUE ALPHONSE BAUDIN;48.860908; 2.370284;R;
;BOUVINES;Elementaire;4 AVENUE DE BOUVINES;48.849849; 2.396499;R;
;KELLER;Elementaire;4 RUE KELLER;48.853623; 2.376853;R;
;FAIDHERBE;Maternelle;18 RUE FAIDHERBE;48.851602; 2.383955;R;
;PARMENTIER    B;Maternelle;11B AVENUE PARMENTIER;48.864137; 2.375492;R;
;PARMENTIER;Maternelle;111 AVENUE PARMENTIER;48.867945; 2.372377;R;
;ST BERNARD;Elementaire;31 RUE SAINT BERNARD;48.852711; 2.380878;R;
;ST MAUR        A;Elementaire;22 RUE SAINT MAUR;48.860315; 2.382034;R;
;REPUBLIQUE;Elementaire;98 AVENUE DE LA REPUBLIQUE;48.863745; 2.382334;R;
;TITON;Elementaire;14 RUE TITON;48.851646; 2.386472;R;
;BERCY;Elementaire;165 RUE DE BERCY;48.842551; 2.375456;R;
;BIGNON;Elementaire;4 RUE BIGNON;48.840428; 2.388511;R;
;ARNOLD NETTER;Maternelle;42 AVENUE DU DR ARNOLD NETTER;48.84369; 2.405622;R;
;JEAN BOUTON;Maternelle;7 RUE JEAN BOUTON;48.845492; 2.377068;R;
;LAMORICIERE       B;Elementaire;8 AVENUE LAMORICIERE;48.844726; 2.412248;R;
;LAMORICIERE        A;Elementaire;10 AVENUE LAMORICIERE;48.844859; 2.412332;R;
;POMMARD;Elementaire;4 RUE DE POMMARD;48.835712; 2.385041;R;
;REUILLY;Elementaire;27 RUE DE REUILLY;48.847964; 2.386407;R;
;REUILLY        A;Elementaire;57 RUE DE REUILLY (ECOLE A);48.845778; 2.388551;R;
;MONTEMPOIVRE;Polyvalente;16 RUE DE MONTEMPOIVRE;48.840136; 2.407002;R;
;LACHAMBEAUDIE;Maternelle;2 PLACE LACHAMBEAUDIE;48.835568; 2.386412;R;
;BRILLAT SAVARIN;Maternelle;87 RUE BRILLAT SAVARIN;48.824401; 2.34284;R;
;CHAT.DES RENTIERS;Maternelle;103 RUE CHATEAU DES RENTIERS;48.82819; 2.367334;R;
;CHOISY    B;Maternelle;4B AVENUE DE CHOISY;48.825326; 2.360576;R;
;PAUL GERVAIS;Maternelle;2 RUE PAUL GERVAIS;48.83154; 2.347512;R;
;CROULEBARBE;Maternelle;11 RUE DE CROULEBARBE;48.834141; 2.352356;R;
;PORTE D'IVRY;Elementaire;51 AVENUE DE LA PORTE D'IVRY;48.821127; 2.369608;R;
;FRANC NOHAIN;Maternelle;9 RUE FRANC NOHAIN;48.821395; 2.375173;R;
;GLACIERE;Maternelle;100 RUE DE LA GLACIERE;48.829246; 2.343165;R;
;DISQUE;Maternelle;30 RUE DU DISQUE;48.824342; 2.365777;R;
;L.M.NORDMANN;Maternelle;140 RUE LEON MAURICE NORDMANN;48.833768; 2.343165;R;
;PROVIDENCE       A;Elementaire;5 RUE DE LA PROVIDENCE;48.825347; 2.348883;R;
;PROVIDENCE       B;Elementaire;7 RUE DE LA PROVIDENCE;48.825586; 2.34841;R;
;RICAUT;Maternelle;8 RUE RICAUT;48.829723; 2.361276;R;
;STEPHEN PICHON;Maternelle;28 AVENUE STEPHEN PICHON;48.832358; 2.358544;R;
;VANDREZANNE;Elementaire;38 RUE VANDREZANNE;48.827713; 2.353313;R;
;WURTZ;Elementaire;16 RUE WURTZ;48.826924; 2.344612;R;
;ALESIA;Elementaire;188 RUE D'ALESIA;48.832483; 2.312335;R;
;ALESIA;Maternelle;190 RUE D'ALESIA;48.832618; 2.312503;R;
;BOULARD;Elementaire;46 RUE BOULARD;48.832655; 2.32783;R;
;JACQUIER;Maternelle;23 RUE JACQUIER;48.829979; 2.316987;R;
;JEAN DOLENT;Maternelle;11-15 RUE JEAN DOLENT;48.833402; 2.339408;R;
;SARRETTE;Maternelle;34 RUE SARRETTE;48.826002; 2.328405;R;
;OUEST;Maternelle;13 RUE DE L'OUEST;48.837183; 2.322003;R;
;PROCESSION;Maternelle;66 RUE DE LA PROCESSION;48.836492; 2.309716;R;
;AMIRAL ROUSSIN;Elementaire;35 RUE DE L AMIRAL ROUSSIN;48.84424; 2.299623;R;
;FELIX FAURE;Elementaire;146 AVENUE FELIX FAURE;48.837349; 2.279298;R;
;BLOMET;Elementaire;19 RUE BLOMET;48.843156; 2.307197;R;
;VOLONTAIRES;Maternelle;17 RUE DES VOLONTAIRES;48.842337; 2.307448;R;
;MORILLONS;Maternelle;40 RUE DES MORILLONS;48.832896; 2.299991;R;
;EMERIAU;Maternelle;16 RUE EMERIAU;48.851337; 2.28785;R;
;FELIX FAURE;Elementaire;56 AVENUE FELIX FAURE;48.840694; 2.286604;R;
;FONDARY;Elementaire;12 RUE FONDARY;48.848409; 2.292237;R;
;LACORDAIRE;Elementaire;7 RUE LACORDAIRE;48.843854; 2.284248;R;
;OLIVIER DE SERRES;Maternelle;34 RUE OLIVIER DE SERRES;48.835507; 2.296526;R;
;PORTE BRANCION;Maternelle;5 AVENUE DE LA PORTE BRANCION;48.827297; 2.301233;R;
;CEPRE;Maternelle;13 RUE CEPRE;48.846562; 2.303648;R;
;LONGCHAMP;Elementaire;130 RUE DE LONGCHAMP;48.867272; 2.278234;R;
;PARC DES PRINCES;Maternelle;27 AVENUE DU PARC DES PRINCES;48.840123; 2.254756;R;
;PAUL VALERY;Elementaire;18 RUE PAUL VALERY;48.870348; 2.289992;R;
;GROS;Maternelle;18 RUE GROS;48.851269; 2.276031;R;
;CAPITAINE LAGACHE;Maternelle;21 RUE DU CAPITAINE LAGACHE;48.892147; 2.325264;R;
;COLONEL MOLL;Elementaire;16 RUE DU COLONEL MOLL;48.87808; 2.290019;R;
;DAUTANCOURT;Maternelle;16 RUE DAUTANCOURT;48.889516; 2.324397;R;
;ST OUEN;Elementaire;23 AVENUE DE SAINT OUEN;48.889046; 2.325925;R;
;GUSTAVE ROUANET;Elementaire;7 RUE GUSTAVE ROUANET;48.896346; 2.340122;R;
;FERDINAND FLOCON;Maternelle;3 RUE FERDINAND FLOCON;48.891258; 2.345646;R;
;FERNAND LABORI;Elementaire;19 RUE FERNAND LABORI;48.899112; 2.342241;R;
;MARCADET;Maternelle;29 RUE MARCADET;48.890331; 2.352799;R;
;ST LUC;Maternelle;3 RUE SAINT LUC;48.885632; 2.354175;R;
;PHILIPPE DE GIRARD;Elementaire;58 RUE PHILIPPE DE GIRARD;48.886373; 2.361156;R;
;TORCY;Maternelle;7 RUE DE TORCY;48.891125; 2.364796;R;
;EMILE BOLLAERT;Polyvalente;53 RUE EMILE BOLLAERT;48.899776; 2.375344;R;
;BELLEVILLE;Elementaire;236 RUE DE BELLEVILLE;48.875358; 2.398164;R;
;ST GERMAIN L'AUXERROIS;Maternelle;6 RUE ST GERMAIN L'AUXERROIS;48.858219; 2.345381;R;
;DUSSOUBS;Elementaire;42 RUE DUSSOUBS;48.867156; 2.34969;R;
;ST DENIS;Maternelle;221 RUE SAINT DENIS;48.866936; 2.351231;R;
;ST MARTIN;Polyvalente;211 RUE SAINT MARTIN;48.86406; 2.352806;R;
;QUATRE FILS     B;Elementaire;10B RUE DES QUATRE FILS;48.860566; 2.359689;R;
;VAUCANSON;Polyvalente;6 RUE VAUCANSON;48.867113; 2.356786;R;
;POULLETIER;Maternelle;18 RUE POULLETIER;48.851333; 2.358214;R;
;BUFFON     B;Maternelle;15B RUE BUFFON;48.842137; 2.359895;R;
;BUFFON;Elementaire;21 RUE BUFFON;48.84248; 2.361237;R;
;LYONNAIS;Maternelle;22 RUE DES LYONNAIS;48.838524; 2.346462;R;
;MOUFFETARD;Maternelle;97 RUE MOUFFETARD;48.84134; 2.349685;R;
;MOUFFETARD;Maternelle;29 RUE MOUFFETARD;48.843994; 2.349419;R;
;LITTRE;Maternelle;6 RUE LITTRE;48.845747; 2.323705;R;
;MADAME;Elementaire;42 RUE MADAME;48.848934; 2.331602;R;
;DUQUESNE;Elementaire;42 AVENUE DUQUESNE;48.849598; 2.313015;R;
;VANEAU;Maternelle;48 RUE VANEAU;48.851211; 2.31916;R;
;BIENFAISANCE;Maternelle;12 RUE DE LA BIENFAISANCE;48.876814; 2.320114;R;
;GRANGE BATELIERE;Maternelle;11 RUE DE LA GRANGE BATELIERE;48.873018; 2.342051;R;
;TURGOT;Elementaire;15 RUE TURGOT;48.880515; 2.345143;R;
;MILTON;Maternelle;5 RUE MILTON;48.877344; 2.340561;R;
;AQUEDUC;Elementaire;39 RUE DE L'AQUEDUC;48.882474; 2.363913;R;
;FAUBOURG ST DENIS;Elementaire;34 RUE DU FAUBOURG SAINT DENIS;48.871103; 2.353503;R;
;LOUIS BLANC    b;Elementaire;49B RUE LOUIS BLANC;48.881397; 2.36457;R;
;ALPHONSE BAUDIN;Maternelle;19 RUE ALPHONSE BAUDIN;48.86125; 2.370046;R;
;BELLEVILLE        A;Elementaire;77 BLD DE BELLEVILLE;48.87128; 2.377427;R;
;DURANTI     B;Maternelle;10B RUE DURANTI;48.860621; 2.383823;R;
;EMILE LEPEU;Maternelle;44 RUE EMILE LEPEU;48.85669; 2.388221;R;
;PARMENTIER;Elementaire;109 AVENUE PARMENTIER;48.867625; 2.372613;R;
;PIHET;Elementaire;1 RUE PIHET;48.863455; 2.373882;R;
;POPINCOURT;Maternelle;9 RUE POPINCOURT;48.857382; 2.377315;R;
;REPUBLIQUE;Elementaire;100 AVENUE DE LA REPUBLIQUE;48.86356; 2.382744;R;
;ROQUETTE;Maternelle;144 RUE DE LA ROQUETTE;48.858068; 2.382285;R;
;SOUZY;Maternelle;4-12 CITE SOUZY;48.851735; 2.388744;R;
;BERCY;Maternelle;167 RUE DE BERCY;48.84264; 2.375292;R;
;CHARLES BAUDELAIRE;Elementaire;8 RUE CHARLES BAUDELAIRE;48.848827; 2.376463;R;
;CHARLES BAUDELAIRE;Maternelle;16 RUE CHARLES BAUDELAIRE;48.849504; 2.376926;R;
;MICHEL BIZOT;Elementaire;83 AVENUE DU GAL MICHEL BIZOT;48.837242; 2.403541;R;
;MARSOULAN;Maternelle;16 RUE MARSOULAN;48.846348; 2.40334;R;
;MARSOULAN;Elementaire;19 RUE MARSOULAN;48.846425; 2.403173;R;
;AUGUSTE PERRET;Elementaire;9 RUE AUGUSTE PERRET;48.825092; 2.360611;R;
;AUGUSTE PERRET;Maternelle;11 RUE AUGUSTE PERRET;48.824991; 2.360239;R;
;TOLBIAC;Maternelle;157 RUE DE TOLBIAC;48.826033; 2.356246;R;
;DAMESME;Elementaire;5 RUE DAMESME;48.825101; 2.355435;R;
;DUNOIS;Maternelle;70 RUE DUNOIS;48.833077; 2.366366;R;
;FRANC NOHAIN;Elementaire;9 RUE FRANC NOHAIN;48.821395; 2.375173;R;
;JEANNE D ARC        A;Elementaire;33 PLACE JEANNE D'ARC;48.829787; 2.367398;R;
;JENNER        B;Elementaire;46 RUE JENNER;48.836123; 2.360667;R;
;JENNER;Maternelle;46 RUE JENNER;48.836123; 2.360667;R;
;KUSS;Elementaire;8 RUE KUSS;48.822231; 2.351299;R;
;KUSS;Maternelle;8 RUE KUSS;48.822231; 2.351299;R;
;L.M.NORDMANN;Elementaire;140 RUE LEON MAURICE NORDMANN;48.833768; 2.343165;R;
;LONGUES RAIES;Maternelle;29 RUE DES LONGUES RAIES;48.821176; 2.347594;R;
;BALANCHINE;Polyvalente;8-10 RUE GEORGE BALANCHINE;48.836374; 2.373575;R;
;ALAIN FOURNIER;Elementaire;7 SQUARE ALAIN-FOURNIER;48.828107; 2.307231;R;
;PRISSE D'AVENNES;Elementaire;5 RUE PRISSE D'AVENNES;48.825109; 2.328302;R;
;ANTOINE CHANTIN;Maternelle;22 RUE ANTOINE CHANTIN;48.827285; 2.322521;R;
;SEVERO;Maternelle;10 RUE SEVERO;48.832438; 2.323495;R;
;SEVERO;Elementaire;12 RUE SEVERO;48.832453; 2.323515;R;
;TOMBE ISSOIRE;Maternelle;77 RUE DE LA TOMBE ISSOIRE;48.828073; 2.332813;R;
;ANTOINE CHANTIN;Maternelle;15 RUE ANTOINE CHANTIN;48.827255; 2.322086;R;
;JEAN ZAY;Elementaire;18 RUE JEAN ZAY;48.837607; 2.320578;R;
;SIBELLE;Elementaire;13 AVENUE DE LA SIBELLE;48.826056; 2.338477;R;
;ALLERAY;Maternelle;42 RUE D'ALLERAY;48.836706; 2.303419;R;
;ARISTIDE MAILLOL;Maternelle;15 RUE ARISTIDE MAILLOL;48.83786; 2.312403;R;
;CARDINAL AMETTE;Elementaire;3 PLACE DU CARDINAL AMETTE;48.850937; 2.297107;R;
;CHERBOURG;Elementaire;15 RUE DE CHERBOURG;48.831055; 2.304093;R;
;ROUELLE;Elementaire;25 RUE ROUELLE;48.850426; 2.287387;R;
;EMERIAU;Elementaire;10 RUE EMERIAU;48.851687; 2.288306;R;
;LACORDAIRE;Maternelle;5 RUE LACORDAIRE;48.844065; 2.284432;R;
;MIOLLIS     BIS;Elementaire;33 BIS RUE MIOLLIS;48.845374; 2.302317;R;
;ST CHARLES;Elementaire;197 RUE SAINT CHARLES;48.840274; 2.280164;R;
;VIGEE LEBRUN        B;Elementaire;11 RUE VIGEE LEBRUN;48.839042; 2.310567;R;
;JONGKIND;Maternelle;3 RUE JONGKIND;48.839357; 2.279353;R;
;BALARD;Maternelle;95 RUE BALARD;48.837793; 2.278641;R;
;BAUCHES;Elementaire;10 RUE DES BAUCHES;48.855972; 2.273995;R;
;BELLES FEUILLES;Polyvalente;3 IMPASSE DES BELLES FEUILLES;48.868839; 2.280775;R;
;BOISSIERE;Maternelle;56 RUE BOISSIERE;48.868144; 2.287872;R;
;DECAMPS;Polyvalente;4 RUE DECAMPS;48.86525; 2.282527;R;
;MURAT;Elementaire;162 BOULEVARD MURAT;48.838878; 2.26544;R;
;MUSSET;Elementaire;20 RUE DE MUSSET;48.842381; 2.263429;R;
;BOILEAU;Elementaire;17-23 RUE BOILEAU;48.845647; 2.264668;R;
;BESSIERES;Maternelle;90 BOULEVARD BESSIERES;48.896469; 2.319136;R;
;LEGENDRE;Elementaire;49 RUE LEGENDRE;48.885248; 2.315958;R;
;PEREIRE;Elementaire;221 BOULEVARD PEREIRE;48.880446; 2.289361;R;
;GUSTAVE DORE;Maternelle;3 RUE GUSTAVE DORE;48.886244; 2.303003;R;
;BELLIARD;Elementaire;129 RUE BELLIARD;48.896346; 2.33561;R;
;BELLIARD;Maternelle;131 RUE BELLIARD;48.896318; 2.335388;R;
;CAVE;Elementaire;11 RUE CAVE;48.886718; 2.355218;R;
;GUSTAVE ROUANET;Maternelle;1 RUE GUSTAVE ROUANET;48.89631; 2.341537;R;
;CHARLES HERMITE;Maternelle;2 RUE CHARLES HERMITE;48.899917; 2.369865;R;
;CHARLES HERMITE;Elementaire;4 RUE CHARLES HERMITE;48.899893; 2.36866;R;
;CLIGNANCOURT;Elementaire;61 RUE DE CLIGNANCOURT;48.887925; 2.347795;R;
;VAUVENARGUES;Maternelle;4 RUE VAUVENARGUES;48.891996; 2.334732;R;
;JEAN FRANCOIS LEPINE;Elementaire;6 RUE JEAN FRANCOIS LEPINE;48.886181; 2.358717;R;
;JOSEPH DE MAISTRE;Elementaire;29 RUE JOSEPH DE MAISTRE;48.891555; 2.330723;R;
;RENE BINET        B;Elementaire;60 RUE RENE BINET (ECOLE B);;;R;
;FOYATIER;Elementaire;1 RUE FOYATIER;48.884673; 2.342389;R;
;CLOYS;Maternelle;33-41 RUE DES CLOYS;48.892948; 2.338342;R;
;RUISSEAU;Maternelle;6 RUE DU RUISSEAU;48.891648; 2.339865;R;
;CUGNOT;Polyvalente;30 RUE CUGNOT;48.892682; 2.364635;R;
;CAMBON;Polyvalente;28 RUE CAMBON;48.868105; 2.32685;R;
;JUSSIENNE;Elementaire;3 RUE DE LA JUSSIENNE;48.865292; 2.344087;R;
;VIVIENNE;Maternelle;11 RUE VIVIENNE;48.868003; 2.339496;R;
;BERANGER;Elementaire;3 RUE BERANGER;48.864819; 2.364379;R;
;TURENNE;Maternelle;52 RUE DE TURENNE;48.858413; 2.364613;R;
;FAUCONNIER;Maternelle;4 RUE DU FAUCONNIER;48.853638; 2.35965;R;
;MOUSSY;Elementaire;9 RUE DE MOUSSY;48.857735; 2.355611;R;
;VICTOR COUSIN;Elementaire;14 RUE VICTOR COUSIN;48.847424; 2.342074;R;
;ST BENOIT;Elementaire;12 RUE SAINT BENOIT;48.855128; 2.333105;R;
;ST BENOIT;Maternelle;16 RUE SAINT BENOIT;48.854869; 2.332939;R;
;VAUGIRARD;Elementaire;9 RUE DE VAUGIRARD;48.848922; 2.339836;R;
;CHOMEL;Maternelle;8 RUE CHOMEL;48.852171; 2.325544;R;
;OUEST;Elementaire;69 RUE DE L'OUEST;48.835661; 2.318605;R;
;ALLERAY;Maternelle;102 RUE D'ALLERAY;48.836212; 2.30954;R;
;OLIVIER DE SERRES;Elementaire;27 RUE OLIVIER DE SERRES;48.835612; 2.296853;R;
;FELIX FAURE;Maternelle;56 AVENUE FELIX FAURE;48.840694; 2.286604;R;
;VIOLET;Maternelle;38 RUE VIOLET;48.847542; 2.292927;R;
;GERBERT;Maternelle;6 RUE GERBERT;48.839566; 2.297766;R;
;OLIVIER DE SERRES;Elementaire;99 RUE OLIVIER DE SERRES;48.831802; 2.293214;R;
;ST LAMBERT        B;Elementaire;12 RUE SAINT LAMBERT;48.838095; 2.290945;R;
;EMILE ZOLA;Maternelle;35 AVENUE EMILE ZOLA;48.846527; 2.28185;R;
;MADEMOISELLE;Maternelle;83 RUE MADEMOISELLE;48.843361; 2.300484;R;
;FEDERATION;Maternelle;18 RUE DE LA FEDERATION;48.854531; 2.291314;R;
;CONVENTION;Polyvalente;78 RUE DE LA CONVENTION;48.842422; 2.284729;R;
;GUTENBERG;Elementaire;50 RUE GUTENBERG;48.842702; 2.279822;R;
;GUSTAVE ZEDE;Maternelle;5 RUE GUSTAVE ZEDE;48.855736; 2.272803;R;
;BAUCHES;Elementaire;15 RUE DES BAUCHES;48.855983; 2.273553;R;
;BOISSIERE;Elementaire;54 RUE BOISSIERE;48.868038; 2.28804;R;
;LA FONTAINE    B;Elementaire;41B RUE JEAN DE LA FONTAINE;48.850615; 2.270747;R;
;LONGCHAMP;Maternelle;130 RUE DE LONGCHAMP;48.867272; 2.278234;R;
;MICHEL ANGE;Elementaire;51 RUE MICHEL ANGE;48.844017; 2.261064;R;
;PAUL VALERY;Maternelle;20 RUE PAUL VALERY;48.870458; 2.289854;R;
;CHARDON LAGACHE;Maternelle;64 RUE CHARDON LAGACHE;48.842523; 2.263925;R;
;BOULAINVILLIERS;Maternelle;9 RUE DE BOULAINVILLIERS;48.851999; 2.276946;R;
;PERCHAMPS;Maternelle;38 RUE DES PERCHAMPS;48.849228; 2.268135;R;
;AMPERE;Elementaire;18 RUE AMPERE;48.885318; 2.304933;R;
;ANDRE BRECHET;Maternelle;21 RUE ANDRE BRECHET;48.898858; 2.326835;R;
;BROCHANT;Maternelle;28 RUE BROCHANT;48.889979; 2.319575;R;
;CAPITAINE LAGACHE;Elementaire;19 RUE DU CAPITAINE LAGACHE;48.892043; 2.325584;R;
;COLONEL MOLL;Maternelle;16 RUE DU COLONEL MOLL;48.87808; 2.290019;R;
;EPINETTES;Maternelle;44 RUE DES EPINETTES;48.897054; 2.324084;R;
;TRUFFAUT;Polyvalente;15 RUE TRUFFAUT;48.884936; 2.322532;R;
;VAUVENARGUES;Maternelle;52 RUE VAUVENARGUES;48.895424; 2.33153;R;
;JOSEPH DE MAISTRE;Maternelle;94 RUE JOSEPH DE MAISTRE;48.893288; 2.330323;R;
;DAMREMONT        B;Elementaire;65 RUE DAMREMONT;48.891953; 2.335055;R;
;HERMEL;Elementaire;20 RUE HERMEL;48.891293; 2.344508;R;
;RENE BINET;Maternelle;60 RUE RENE BINET;48.899203; 2.337614;R;
;ST ISAURE;Elementaire;18 RUE SAINTE ISAURE;48.894154; 2.344427;R;
;ORSEL;Maternelle;56 RUE D'ORSEL;48.883554; 2.340853;R;
;CHAMPIONNET;Maternelle;72 RUE CHAMPIONNET;48.89589; 2.344868;R;
;MARX DORMOY    B;Maternelle;53B RUE MARX DORMOY;48.88733; 2.35969;R;
;POISSONNIERS;Polyvalente;142 RUE DES POISSONNIERS;48.896905; 2.352815;R;
;EBLE;Maternelle;14 RUE EBLE;48.848992; 2.31291;R;
;GENERAL CAMOU;Elementaire;1 RUE GENERAL CAMOU;48.858889; 2.299853;R;
;LAS CASES;Polyvalente;27 RUE LAS CASES;48.858981; 2.31858;R;
;ST DOMINIQUE      B;Maternelle;117B RUE SAINT DOMINIQUE;48.859225; 2.309517;R;
;FLORENCE;Elementaire;4 RUE DE FLORENCE;48.882278; 2.325542;R;
;MONCEAU;Polyvalente;15 RUE DE MONCEAU;48.875864; 2.307069;R;
;MOSCOU;Maternelle;7 RUE DE MOSCOU;48.880037; 2.325987;R;
;SURENE;Elementaire;18 RUE DE SURENE;48.871063; 2.320561;R;
;BLANCHE;Elementaire;9 RUE BLANCHE;48.877972; 2.331784;R;
;BLANCHE    B;Maternelle;9B RUE BLANCHE;48.880436; 2.331752;R;
;CHAPTAL;Maternelle;12 RUE CHAPTAL;48.880826; 2.33362;R;
;MILTON;Elementaire;5 RUE MILTON;48.877344; 2.340561;R;
;MILTON;Elementaire;21 RUE MILTON;48.878679; 2.34117;R;
;PIERRE BULLET;Maternelle;4 RUE PIERRE BULLET;48.8716; 2.358102;R;
;BOY  ZELENSKI;Maternelle;5 RUE BOY ZELENSKI;48.876833; 2.367884;R;
;MARSEILLE;Elementaire;17 RUE DE MARSEILLE;48.871747; 2.363814;R;
;MARTEL;Elementaire;9 RUE MARTEL;48.873971; 2.352912;R;
;PARMENTIER;Maternelle;155 AVENUE PARMENTIER;48.871557; 2.369705;R;
;PARMENTIER;Elementaire;159 AVENUE PARMENTIER;48.871707; 2.369595;R;
;RECOLLETS;Maternelle;23 PASSAGE DES RECOLLETS;48.874627; 2.36072;R;
;HOPITAL ST LOUIS;Elementaire;5 RUE DE L HOPITAL ST LOUIS;48.874921; 2.365403;R;
;LEON SCHWARTZENBERG;Maternelle;11 rue LEON SCHWARTZENBERG;48.875947; 2.354048;R;
;BESLAY;Maternelle;2 PASSAGE BESLAY;48.862998; 2.373462;R;
;GODEFROY CAVAIGNAC;Elementaire;35 RUE GODEFROY CAVAIGNAC;48.856016; 2.380527;R;
;TROIS BORNES;Maternelle;39 RUE DES TROIS BORNES;48.867344; 2.374589;R;
;VOLTAIRE;Maternelle;6 CITE VOLTAIRE;48.852567; 2.390012;R;
;VOLTAIRE;Elementaire;8 CITE VOLTAIRE;48.85265; 2.390494;R;
;MERLIN;Maternelle;14 RUE MERLIN;48.859846; 2.385864;R;
;CHARENTON;Elementaire;315 RUE DE CHARENTON;48.833639; 2.395135;R;
;D'ARTAGNAN;Maternelle;12 RUE D'ARTAGNAN;48.845366; 2.386923;R;
;TRAVERSIERE;Maternelle;41 RUE TRAVERSIERE;48.847616; 2.373238;R;
;DAUMESNIL;Maternelle;70 AVENUE DAUMESNIL;48.844704; 2.380336;R;
;POMMARD;Maternelle;33 RUE DE POMMARD;48.836384; 2.384015;R;
;VULPIAN;Elementaire;13 RUE VULPIAN;48.83154; 2.34649;R;
;DUNOIS;Elementaire;64 RUE DUNOIS;48.832784; 2.366808;R;
;PORTE D'IVRY;Maternelle;53 AVENUE DE LA PORTE D'IVRY;48.821185; 2.369492;R;
;ESPERANCE;Maternelle;12 RUE DE L'ESPERANCE;48.826707; 2.347899;R;
;IVRY        A;Elementaire;47 AVENUE D'IVRY (ECOLE A);48.823059; 2.365782;R;
;IVRY        B;Elementaire;47 AVENUE D'IVRY (ECOLE B);;;R;
;JEANNE D'ARC;Maternelle;32 PLACE JEANNE D'ARC;48.83056; 2.368114;R;
;LAHIRE;Maternelle;13 RUE LAHIRE;48.829655; 2.366465;R;
;PATAY;Maternelle;20 RUE DE PATAY;48.825044; 2.375569;R;
;WURTZ;Maternelle;16 RUE WURTZ;48.826924; 2.344612;R;
;ENFANTS D'IZIEU;Polyvalente;2 PLACE DES 44 ENFANTS D'IZIEU;48.82155; 2.35628;R;
;CHARLES MOUREU  RELAI;Elementaire;34 RUE CHARLES MOUREU;48.828426; 2.361483;R;
;ARAGO;Elementaire;87 BOULEVARD ARAGO;48.834351; 2.335732;R;
;ASSELINE;Elementaire;7 RUE ASSELINE;48.835088; 2.322692;R;
;BOULARD;Maternelle;23 RUE BOULARD;48.833723; 2.328933;R;
;ARGENTEUIL;Elementaire;11 RUE D'ARGENTEUIL;48.864893; 2.333822;R;
;BEAUREGARD;Polyvalente;5 RUE BEAUREGARD;48.869266; 2.3483;R;
;LOUVOIS;Elementaire;6 RUE DE LOUVOIS;48.868275; 2.33748;R;
;PERLE;Maternelle;7 RUE DE LA PERLE;48.859536; 2.361441;R;
;AVE MARIA;Elementaire;22 RUE DE L'AVE MARIA;48.853231; 2.359778;R;
;ST MERRI;Polyvalente;11 RUE SAINT MERRI;48.859309; 2.352927;R;
;ST LOUIS EN L'ILE;Elementaire;21 RUE SAINT LOUIS EN L'ILE;48.851526; 2.357251;R;
;VOSGES;Maternelle;12 PLACE DES VOSGES;48.855179; 2.366435;R;
;CARDINAL LEMOINE;Elementaire;24 RUE DU CARDINAL LEMOINE;48.848266; 2.353275;R;
;CUJAS;Maternelle;23 RUE CUJAS;48.848055; 2.341892;R;
;POISSY;Maternelle;27 RUE DE POISSY;48.848586; 2.352272;R;
;ST JACQUES;Elementaire;28 RUE SAINT JACQUES;48.851327; 2.345657;R;
;LITTRE;Elementaire;6 RUE LITTRE;48.845747; 2.323705;R;
;ST ANDRE DES ARTS;Maternelle;39 RUE SAINT ANDRE DES ARTS;48.853272; 2.341287;R;
;EBLE;Elementaire;14 RUE EBLE;48.848992; 2.31291;R;
;RAPP;Maternelle;28 AVENUE RAPP;48.858623; 2.300202;R;
;VERNEUIL;Maternelle;17 RUE DE VERNEUIL;48.857542; 2.330465;R;
;BIENFAISANCE     B;Elementaire;12B RUE DE LA BIENFAISANCE;48.876641; 2.317052;R;
;CLAUZEL;Maternelle;12 RUE CLAUZEL;48.879161; 2.338667;R;
;ROCHECHOUART;Maternelle;22 RUE DE ROCHECHOUART;48.877756; 2.344949;R;
;VICTOIRE;Elementaire;16 RUE DE LA VICTOIRE;48.87515; 2.339158;R;
;TOUR D'AUVERGNE;Elementaire;45 RUE DE LA TOUR D'AUVERGNE;48.879725; 2.3409;R;
;CLICHY;Elementaire;10 RUE DE CLICHY;48.877734; 2.330462;R;
;ECLUSES ST MARTIN;Maternelle;28 RUE DES ECLUSES ST MARTIN;48.877185; 2.366133;R;
;LANCRY;Elementaire;15 RUE DE LANCRY;48.869561; 2.360338;R;
;RECOLLETS;Elementaire;19 PASSAGE DES RECOLLETS;48.874297; 2.360523;R;
;HOPITAL ST LOUIS;Maternelle;18 RUE DE L'HOPITAL ST LOUIS;48.875515; 2.364369;R;
;BALEINE;Maternelle;5 IMPASSE DE LA BALEINE;48.867209; 2.377751;R;
;FROMENT;Elementaire;13 RUE FROMENT;48.857423; 2.372487;R;
;PARMENTIER    B;Elementaire;11B AVENUE PARMENTIER;48.864137; 2.375492;R;
;ST BERNARD;Maternelle;39 RUE SAINT BERNARD;48.853212; 2.380559;R;
;ST SEBASTIEN;Elementaire;24  RUE SAINT SEBASTIEN;48.861114; 2.369434;R;
;PIVER;Maternelle;7-13 PASSAGE PIVER;48.87092; 2.374148;R;
;GODEFROY CAVAIGNAC;Maternelle;31 RUE GODEFROY CAVAIGNAC;48.856139; 2.380504;R;
;CHARENTON;Elementaire;51 RUE DE CHARENTON;48.850994; 2.372787;R;
;DAUMESNIL      B;Maternelle;253B AVENUE DAUMESNIL;48.841875; 2.388893;R;
;DAUMESNIL      T;Elementaire;253T AVENUE DAUMESNIL;48.841875; 2.388893;R;
;BRECHE AUX LOUPS;Elementaire;18 RUE DE LA BRECHE AUX LOUPS;48.837456; 2.394084;R;
;PICPUS;Maternelle;45 RUE DE PICPUS;48.843866; 2.396589;R;
;PICPUS        A;Elementaire;56 RUE DE PICPUS (ECOLE A);48.843598; 2.396617;R;
;ARAGO;Elementaire;30 BOULEVARD ARAGO;48.835597; 2.347447;R;
;CHOISY;Elementaire;103  AVENUE DE CHOISY;48.824961; 2.360688;R;
;BAUDRICOURT        A;Elementaire;53 RUE BAUDRICOURT;48.825928; 2.363264;R;
;BAUDRICOURT        B;Elementaire;55 RUE BAUDRICOURT;48.825761; 2.363137;R;
;EMILE LEVASSOR;Elementaire;3 RUE EMILE LEVASSOR;48.820888; 2.369042;R;
;FAGON;Elementaire;13 RUE FAGON;48.832509; 2.357048;R;
;POINTE D'IVRY;Maternelle;17-35 RUE DE LA POINTE D'IVRY;48.822054; 2.36328;R;
;JENNER        A;Elementaire;40 RUE JENNER;48.835572; 2.361931;R;
;DUNOIS;Maternelle;71 RUE DUNOIS;48.833021; 2.366279;R;
;GLACIERE;Elementaire;100 RUE DE LA GLACIERE;48.829246; 2.343165;R;
;PRIMO LEVI;Polyvalente;21 RUE PRIMO LEVI;48.830532; 2.378716;R;
;ALAIN FOURNIER;Maternelle;5 SQUARE ALAIN-FOURNIER;48.82816; 2.307345;R;
;ALESIA;Elementaire;3 RUE D'ALESIA;48.826553; 2.340321;R;
;ALESIA   B;Maternelle;3B RUE D'ALESIA;48.829111; 2.325157;R;
;ALESIA;Elementaire;12 RUE D'ALESIA;48.827638; 2.334041;R;
;MAURICE D'OCAGNE;Elementaire;7 AVENUE MAURICE D'OCAGNE;48.82484; 2.311991;R;
;PIERRE LAROUSSE;Elementaire;28 RUE PIERRE LAROUSSE;48.829103; 2.314202;R;
;ANTOINE CHANTIN;Elementaire;20 RUE ANTOINE CHANTIN;48.827255; 2.322644;R;
;MAURICE RIPOCHE;Maternelle;55-61 RUE MAURICE RIPOCHE;48.833421; 2.32257;R;
;CARDINAL AMETTE;Maternelle;3 PLACE DU CARDINAL AMETTE;48.850937; 2.297107;R;
;FRANCOIS COPPEE;Maternelle;10 RUE FRANCOIS COPPEE;48.839932; 2.287589;R;
;FRANCOIS COPPEE;Elementaire;14 RUE FRANCOIS COPPEE;48.839869; 2.287832;R;
;MIOLLIS;Maternelle;33 RUE MIOLLIS;48.845411; 2.302451;R;
;PORTE BRANCION;Elementaire;5 AVENUE DE LA PORTE BRANCION;48.827297; 2.301233;R;
;VARET;Maternelle;9 RUE VARET;48.839988; 2.281025;R;
;FALGUIERE;Elementaire;20 RUE FALGUIERE;48.843104; 2.316507;R;
;MADEMOISELLE;Elementaire;81 RUE MADEMOISELLE;48.843383; 2.300398;R;
;SEXTIUS MICHEL;Maternelle;22 RUE SEXTIUS MICHEL;48.850109; 2.288409;R;
;GUTENBERG;Maternelle;72 RUE GUTENBERG;48.841391; 2.278613;R;
;ST DIDIER    B;Maternelle;15B RUE SAINT DIDIER;48.866744; 2.285205;R;
;VERSAILLES;Maternelle;141 AVENUE DE VERSAILLES;48.842179; 2.268143;R;
;BERTHIER;Elementaire;112 BOULEVARD BERTHIER;48.889191; 2.301642;R;
;BESSIERES;Elementaire;92 BOULEVARD BESSIERES;48.896401; 2.318958;R;
;LECOMTE;Elementaire;6 RUE LECOMTE;48.888674; 2.321067;R;
;LEMERCIER;Elementaire;105 RUE LEMERCIER;48.889711; 2.318068;R;
;FOURCROY    B;Elementaire;12B RUE FOURCROY;48.880586; 2.296787;R;
;SAUSSURE;Maternelle;48 RUE DE SAUSSURE;48.8852; 2.315243;R;
;PEREIRE;Maternelle;221 BOULEVARD PEREIRE;48.880446; 2.289361;R;
;REIMS;Polyvalente;38-40 BOULEVARD DE REIMS;48.887874; 2.295005;R;
;SAUSSURE;Elementaire;101 RUE DE SAUSSURE;48.887438; 2.311703;R;
;CHAMPERRET;Elementaire;7 AVENUE DE LA PTE CHAMPERRET;48.886104; 2.286832;R;
;ST ANGE;Maternelle;14 PASSAGE SAINT ANGE;48.896503; 2.327517;R;
;MARGUERITE LONG;Polyvalente;5 RUE MARGUERITE LONG;48.890955; 2.304575;R;
;LOUIS VIERNE;Maternelle;6 RUE LOUIS VIERNE;48.888371; 2.289742;R;
;AMIRAUX;Maternelle;19 RUE DES AMIRAUX;48.89462; 2.350389;R;
;VAUVENARGUES;Elementaire;50 RUE VAUVENARGUES;48.895328; 2.331626;R;
;HOUDON;Elementaire;15 RUE HOUDON;48.883221; 2.338446;R;
;MONT CENIS;Elementaire;26 RUE DU MONT CENIS;48.88854; 2.342148;R;
;CONSTANTIN PECQUEUR;Maternelle;1 PLACE CONSTANTIN PECQUEUR;48.888976; 2.3379;R;
;RICHOMME;Elementaire;9 RUE RICHOMME;48.886399; 2.352132;R;
;FERDINAND FLOCON;Elementaire;5 RUE FERDINAND FLOCON;48.891362; 2.34575;R;
;GUADELOUPE;Elementaire;2 RUE DE LA GUADELOUPE;48.890753; 2.362625;R;
;ANDRE DEL SARTE;Maternelle;11 RUE ANDRE DEL SARTE;48.885718; 2.346364;R;
;DOUDEAUVILLE;Elementaire;7 RUE DOUDEAUVILLE;48.888871; 2.358736;R;
;EVANGILE;Elementaire;33 RUE DE L'EVANGILE;48.894357; 2.365568;R;
;GOUTTE D'OR    B;Polyvalente;49B RUE DE LA GOUTTE D'OR;48.885041; 2.352669;R;
;PAUL ABADIE;Maternelle;1 RUE PAUL ABADIE;48.896774; 2.335389;R;
;ARCHEREAU;Maternelle;58 RUE ARCHEREAU;48.892398; 2.37546;R;
;BARBANEGRE       B;Elementaire;7 RUE BARBANEGRE (ECOLE B);;;R;
;BOIS;Maternelle;2-6 RUE DES BOIS;48.877829; 2.396342;R;
;AQUEDUC;Maternelle;39 RUE DE L'AQUEDUC;48.882474; 2.363913;R;
;BELZUNCE;Maternelle;3 RUE DE BELZUNCE;48.879192; 2.352827;R;
;CHABROL;Elementaire;41 RUE DE CHABROL;48.876811; 2.353001;R;
;CLAUDE VELLEFAUX;Elementaire;33 AVENUE CLAUDE VELLEFAUX;48.876866; 2.370133;R;
;LEGOUVE;Maternelle;6 RUE LEGOUVE;48.872257; 2.36217;R;
;MARTEL;Maternelle;9 RUE MARTEL;48.873971; 2.352912;R;
;BOUVINES;Maternelle;6 AVENUE DE BOUVINES;48.85025; 2.396579;R;
;BULLOURDE;Maternelle;4 PASSAGE BULLOURDE;48.854555; 2.3767;R;
;RICHARD LENOIR;Maternelle;13 BOULEVARD RICHARD LENOIR;48.856031; 2.369993;R;
;SERVAN        B;Elementaire;29 RUE SERVAN;48.860758; 2.382974;R;
;SERVAN;Maternelle;54 RUE SERVAN;48.863038; 2.381809;R;
;SOUZY;Maternelle;5 CITE SOUZY;48.851679; 2.388629;R;
;TROIS BORNES;Elementaire;39 RUE DES TROIS BORNES;48.867344; 2.374589;R;
;PRESENTATION   B;Maternelle;4B RUE DE LA PRESENTATION;48.871097; 2.376733;R;
;ELISA LEMONNIER;Maternelle;15 RUE ELISA LEMONNIER;48.840845; 2.389438;R;
;JEAN BOUTON;Elementaire;5 RUE JEAN BOUTON;48.845698; 2.376746;R;
;DIDEROT;Elementaire;40 BOULEVARD DIDEROT;48.846104; 2.377305;R;
;BRECHE AUX LOUPS;Maternelle;28 RUE DE LA BRECHE AUX LOUPS;48.837806; 2.394421;R;
;CARNOT;Maternelle;16 BOULEVARD CARNOT;48.844718; 2.413014;R;
;ARMAND ROUSSEAU;Maternelle;13 AVENUE ARMAND ROUSSEAU;48.83644; 2.409242;R;
;MEUNIERS;Maternelle;40 RUE DES MEUNIERS;48.834878; 2.396294;R;
;WATTIGNIES;Elementaire;52 RUE DE WATTIGNIES;48.835522; 2.39712;R;
;PICPUS;Maternelle;56 RUE DE PICPUS;48.843598; 2.396617;R;
;PICPUS        B;Elementaire;56 RUE DE PICPUS (ECOLE B);;;R;
;REUILLY        B;Elementaire;57 RUE DE REUILLY (ECOLE B);;;R;
;REUILLY;Maternelle;59 RUE DE REUILLY;48.845682; 2.388666;R;
;JACQUES HILLAIRET;Maternelle;40 RUE JACQUES HILLAIRET;48.843121; 2.388838;R;
;GERTY ARCHIMEDE;Elementaire;5 RUE GERTY ARCHIMEDE;48.83547; 2.387745;R;
;CHAT.DES RENTIERS;Elementaire;173 RUE CHATEAU DES RENTIERS;48.830318; 2.361923;R;
;JEANNE D ARC        B;Elementaire;30 PLACE JEANNE D'ARC;48.830193; 2.368737;R;
;VANDREZANNE;Maternelle;40 RUE VANDREZANNE;48.827914; 2.353056;R;
;VINCENT AURIOL;Maternelle;90 BOULEVARD VINCENT AURIOL;48.833683; 2.363575;R;
;YEO THOMAS;Maternelle;5 RUE YEO THOMAS;48.831516; 2.36282;R;
;CHAT.DES RENTIERS;Elementaire;37 RUE DU CHATEAU DES RENTIERS;48.824617; 2.370047;R;
;CHAT.DES RENTIERS;Maternelle;31 RUE DU CHATEAU DES RENTIERS;48.824337; 2.370162;R;
;SIMONE WEIL;Maternelle;5 RUE SIMONE WEIL;48.823505; 2.364329;R;
;PIERRE GOURDAULT;Elementaire;11 RUE PIERRE GOURDAULT;48.831291; 2.370844;R;
;CHAT.RENTIERS;Elementaire;40 RUE DU CHATEAU DES RENTIERS;48.82491; 2.37;R;
;GRANDS MOULINS;Polyvalente;47 RUE DES GRANDS MOULINS;48.827931; 2.377743;R;
;HIP TE MAINDRON;Maternelle;48 RUE HIPPOLYTE MAINDRON;48.830397; 2.320552;R;
;HIP TE MAINDRON;Elementaire;48 RUE HIPPOLYTE MAINDRON;48.830397; 2.320552;R;
;DELAMBRE;Elementaire;24 RUE DELAMBRE;48.841585; 2.32676;R;
;MAURICE D'OCAGNE;Maternelle;7 AVENUE MAURICE D'OCAGNE;48.82484; 2.311991;R;
;MAURICE ROUVIER;Elementaire;8 RUE MAURICE ROUVIER;48.831144; 2.309798;R;
;SARRETTE;Maternelle;55 RUE SARRETTE;48.82505; 2.326875;R;
;CORBON;Elementaire;3 RUE CORBON;48.836535; 2.303297;R;
;AMIRAL ROUSSIN;Maternelle;33 RUE DE L AMIRAL ROUSSIN;48.844631; 2.299507;R;
;DUPLEIX;Elementaire;21 RUE DUPLEIX;48.851482; 2.297194;R;
;OLIVIER DE SERRES;Maternelle;99 RUE OLIVIER DE SERRES;48.831802; 2.293214;R;
;ST LAMBERT        A;Elementaire;10 RUE SAINT LAMBERT;48.838132; 2.290895;R;
;THEODORE DECK;Maternelle;2 RUE THEODORE DECK;48.837656; 2.290733;R;
;VIGEE LEBRUN        A;Elementaire;17 RUE VIGEE LEBRUN;48.838859; 2.310945;R;
;FRERES VOISIN;Polyvalente;3 BOULEVARD DES FRERES VOISIN;48.827955; 2.268327;R;
;VAUGIRARD;Maternelle;149 RUE DE VAUGIRARD;48.843942; 2.316179;R;
;HAMELIN;Elementaire;21 RUE DE L'AMIRAL HAMELIN;48.867435; 2.291942;R;
;ERLANGER;Maternelle;58 RUE ERLANGER;48.844134; 2.259622;R;
;MURAT;Maternelle;162 BOULEVARD MURAT;48.838878; 2.26544;R;
;PARC DES PRINCES;Elementaire;23 AVENUE DU PARC DES PRINCES;48.840918; 2.254648;R;
;ST DIDIER    B;Elementaire;15B RUE SAINT DIDIER;48.866744; 2.285205;R;
;CHERNOVIZ;Elementaire;8 RUE CHERNOVIZ;48.857373; 2.281913;R;
;PASSY;Maternelle;25 RUE DE PASSY;48.858027; 2.282219;R;
;SERGE PROKOFIEV;Maternelle;18 RUE SERGE PROKOFIEV;48.854135; 2.268836;R;
;BOILEAU;Elementaire;63 RUE BOILEAU;48.84223; 2.264151;R;
;AMPERE;Maternelle;18 RUE AMPERE;48.885318; 2.304933;R;
;FLEURS;Maternelle;61 CITE DES FLEURS;48.89361; 2.321071;R;
;POUCHET;Elementaire;42 RUE POUCHET;48.893819; 2.320401;R;
;JACQUES KELLNER;Elementaire;5 RUE JACQUES KELLNER;48.896642; 2.324734;R;
;EPINETTES;Elementaire;42 RUE DES EPINETTES;48.89681; 2.323884;R;
;JOUFFROY;Elementaire;20 RUE JOUFFROY D'ABBANS;48.886497; 2.310885;R;
;JOUFFROY;Maternelle;20 RUE JOUFFROY D'ABBANS;48.886497; 2.310885;R;
;LAUGIER;Elementaire;16 RUE LAUGIER;48.880265; 2.296823;R;
;RENAUDES;Maternelle;31 RUE DES RENAUDES;48.880704; 2.297712;R;
;BOURSAULT;Polyvalente;10 RUE BOURSAULT;48.882953; 2.320796;R;
;CHRISTINE DE PISAN;Maternelle;24 RUE CHRISTINE DE PISAN;48.889905; 2.308336;R;
;VILLIERS;Maternelle;22 AVENUE PORTE DE VILLIERS;48.885179; 2.285412;R;
;BAYEN;Maternelle;56 RUE BAYEN;48.883556; 2.290106;R;
;TAPISSERIES;Maternelle;8 RUE DES TAPISSERIES;48.888405; 2.307634;R;
;SAUSSURE             RELAIS;Maternelle;120-124 RUE DE SAUSSURE;48.888504; 2.309815;R;
;CARDINET CHALABRE;Polyvalente;14 IMPASSE CHALABRE;48.892382; 2.31603;R;
;CHAMPIONNET;Elementaire;7 RUE CHAMPIONNET;48.895155; 2.351839;R;
;CHAMPIONNET;Elementaire;69 RUE CHAMPIONNET;48.89575; 2.345136;R;
;DAMREMONT        A;Elementaire;67 RUE DAMREMONT;48.892042; 2.335147;R;
;LEPIC;Elementaire;62 RUE LEPIC;48.886937; 2.333966;R;
;RICHOMME;Maternelle;18 RUE RICHOMME;48.886352; 2.351416;R;
;LAMARCK;Maternelle;4 SQUARE LAMARCK;48.890592; 2.335673;R;
;RENE BINET        A;Polyvalente;60 RUE RENE BINET (ECOLE A);48.899203; 2.337614;R;
;DEPARTEMENT;Maternelle;51 RUE DU DEPARTEMENT;48.886482; 2.361861;R;
;MONT CENIS;Maternelle;77 RUE DU MONT CENIS;48.892069; 2.343961;R;
;PIERRE BUDIN;Elementaire;5 RUE PIERRE BUDIN;48.889684; 2.352722;R;
;TORCY;Elementaire;5 RUE DE TORCY;48.891091; 2.364809;R;
;ARBRE SEC;Elementaire;15 RUE DE L'ARBRE SEC;48.859643; 2.341919;R;
;PAUL DUBOIS;Maternelle;6 RUE PAUL DUBOIS;48.86533; 2.361359;R;
;TURENNE;Elementaire;54 RUE DE TURENNE;48.858558; 2.364618;R;
;BRANTOME;Maternelle;5 RUE BRANTOME;48.861732; 2.352662;R;
;NEUVE ST PIERRE;Elementaire;15 RUE NEUVE SAINT PIERRE;48.853794; 2.363125;R;
;RENARD;Elementaire;16 RUE DU RENARD;48.859141; 2.352418;R;
;ARBALETE;Elementaire;41 RUE DE L'ARBALETE;48.839397; 2.346474;R;
;BOULANGERS;Elementaire;19 RUE DES BOULANGERS;48.845861; 2.352982;R;
;PIERRE BROSSOLETTE;Elementaire;2 RUE PIERRE BROSSOLETTE;48.841971; 2.347603;R;
;PONTOISE;Elementaire;21 RUE DE PONTOISE;48.848742; 2.351258;R;
;BRETONNEAU;Elementaire;9 RUE BRETONNEAU;48.867721; 2.40319;R;
;JOURDAIN;Maternelle;4 RUE DU JOURDAIN;48.874518; 2.389605;R;
;GAMBETTA;Maternelle;29 AVENUE GAMBETTA;48.864014; 2.391769;R;
;GRANDS CHAMPS;Maternelle;12 RUE DES GRANDS CHAMPS;48.850455; 2.399748;R;
;JULIEN LACROIX;Elementaire;16 RUE JULIEN LACROIX;48.869469; 2.385602;R;
;LESSEPS       B;Elementaire;9 RUE DE LESSEPS;48.858714; 2.400164;R;
;LEVERT;Elementaire;1 RUE LEVERT;48.873069; 2.38963;R;
;MARE;Elementaire;42 RUE DE LA MARE;48.871094; 2.389959;R;
;MENILMONTANT;Maternelle;10 RUE DE MENILMONTANT;48.867251; 2.384186;R;
;OLIVIER METRA;Maternelle;32 RUE OLIVIER METRA;48.873305; 2.393846;R;
;OLIVIER METRA;Maternelle;29 RUE OLIVIER METRA;48.872983; 2.393859;R;
;PELLEPORT;Maternelle;172 RUE PELLEPORT;48.873557; 2.397945;R;
;PLAINE        A;Elementaire;11 RUE DE LA PLAINE;48.850003; 2.400272;R;
;RIBLETTE        A;Elementaire;16 RUE RIBLETTE;48.860066; 2.406557;R;
;TLEMCEN;Elementaire;9 RUE DE TLEMCEN;48.864586; 2.387088;R;
;TOURTILLE;Elementaire;38 RUE DE TOURTILLE;48.87241; 2.380325;R;
;CARPEAUX;Maternelle;5/7 RUE CARPEAUX;48.89036; 2.329877;R;
;JEAN BAPTISTE CLEMENT;Maternelle;4 PLACE JEAN BAPTISTE CLEMENT;48.886514; 2.339056;R;
;ORAN;Elementaire;18 RUE D'ORAN;48.889027; 2.353065;R;
;CHRISTIANI;Maternelle;8 RUE CHRISTIANI;48.885921; 2.348748;R;
;ARCHEREAU;Maternelle;26 RUE ARCHEREAU;48.890469; 2.37314;R;
;BARBANEGRE;Maternelle;8 RUE BARBANEGRE;48.89231; 2.383321;R;
;BARBANEGRE       A;Elementaire;7 RUE BARBANEGRE (ECOLE A);48.892135; 2.382858;R;
;COLETTE MAGNY;Maternelle;21 RUE COLETTE MAGNY;48.894857; 2.376537;R;
;EIDERS;Maternelle;5 ALLEE DES EIDERS;48.894296; 2.379164;R;
;GENERAL BRUNET;Elementaire;7 RUE DU GENERAL BRUNET;48.880262; 2.390254;R;
;GENERAL LASALLE;Elementaire;1 RUE DU GENERAL LASALLE;48.874256; 2.381214;R;
;ROMAINVILLE        A;Elementaire;57 RUE DE ROMAINVILLE;48.877419; 2.402997;R;
;TANDOU;Elementaire;9 RUE TANDOU;48.885997; 2.379175;R;
;ARMAND CARREL;Elementaire;43 RUE ARMAND CARREL;48.882658; 2.376662;R;
;AUBERVILLIERS;Maternelle;132 RUE D'AUBERVILLIERS;48.891942; 2.369193;R;
;EUGENIE COTTON        B;Elementaire;16 RUE EUGENIE COTTON (ECOLE B;;;R;
;MANIN    B;Elementaire;40 B RUE MANIN;48.883806; 2.390199;R;
;OURCQ     B    A;Elementaire;105B RUE DE L'OURCQ (ECOLE A);;;R;
;RAMPAL;Maternelle;5-7 RUE RAMPAL;48.873806; 2.379749;R;
;ROMAINVILLE        B;Elementaire;59 RUE DE ROMAINVILLE;48.877377; 2.403219;R;
;SIMON BOLIVAR         A;Elementaire;119 AVENUE SIMON BOLIVAR (EC.A;48.879849; 2.374184;R;
;TANGER;Maternelle;15 RUE DE TANGER;48.885407; 2.367876;R;
;TANGER        B;Elementaire;41 RUE DE TANGER (ECOLE B);;;R;
;THIONVILLE;Maternelle;6 PASSAGE DE THIONVILLE;48.888029; 2.382205;R;
;JEAN JAURES;Elementaire;160 AVENUE JEAN JAURES;48.887284; 2.388005;R;
;MAROC;Maternelle;34 RUE DU MAROC;48.887166; 2.367727;R;
;VILLETTE;Elementaire;61-65 RUE DE LA VILLETTE;48.878756; 2.388166;R;
;BELLEVILLE;Elementaire;104 RUE DE BELLEVILLE;48.874452; 2.386624;R;
;BRETONNEAU;Maternelle;12 RUE BRETONNEAU;48.867551; 2.403102;R;
;CENDRIERS;Maternelle;20 RUE DES CENDRIERS;48.865535; 2.386874;R;
;EUGENE REISZ;Elementaire;4 RUE EUGENE REISZ;48.856758; 2.411076;R;
;EUGENE REISZ;Maternelle;2 RUE EUGENE REISZ;48.85643; 2.410685;R;
;EUPATORIA;Maternelle;15 RUE D'EUPATORIA;48.868876; 2.387358;R;
;LESSEPS        A;Elementaire;11 RUE DE LESSEPS;48.859058; 2.399708;R;
;LESSEPS;Maternelle;9 RUE DE LESSEPS;48.858714; 2.400164;R;
;OLIVIER METRA        A;Elementaire;24 RUE OLIVIER METRA;48.873008; 2.394257;R;
;PIERRE FONCIN;Maternelle;2 RUE PIERRE FONCIN;48.871341; 2.409211;R;
;PYRENEES         A;Elementaire;293 RUE DES PYRENEES;48.869363; 2.394924;R;
;RAMPONEAU;Elementaire;51 RUE RAMPONEAU;48.871904; 2.382312;R;
;TELEGRAPHE;Elementaire;29 RUE DU TELEGRAPHE;48.873316; 2.399174;R;
;HENRI TOMASI  DAVOUT;Polyvalente;51 BD DAVOUT;48.851386; 2.41083;R;
;PALIKAO;Maternelle;32 RUE DE PALI KAO;48.870411; 2.382195;R;
;AMANDIERS;Maternelle;90 RUE DES AMANDIERS;48.866994; 2.389399;R;
;PELLEPORT;Maternelle;99-101 RUE PELLEPORT;48.870446; 2.39948;R;
;TOURELLES;Polyvalente;9 RUE DES TOURELLES;48.874702; 2.404084;R;
;DELAMBRE;Maternelle;24 RUE DELAMBRE;48.841585; 2.32676;R;
;MAURICE ROUVIER;Maternelle;2 RUE MAURICE ROUVIER;48.830603; 2.310567;R;
;TCHAIKOVSKI;Maternelle;7 RUE TCHAIKOVSKI;48.893878; 2.364537;R;
;GOUTTE D'OR;Maternelle;57 RUE DE LA GOUTTE D'OR;48.88508; 2.350915;R;
;FOREST;Polyvalente;14-16 RUE FOREST;48.885835; 2.328923;R;
;ARMAND CARREL;Maternelle;47 RUE ARMAND CARREL;48.882699; 2.375772;R;
;AUBERVILLIERS;Elementaire;132 RUE D'AUBERVILLIERS;48.891942; 2.369193;R;
;GENERAL BRUNET;Maternelle;9 RUE DU GENERAL BRUNET;48.880402; 2.390459;R;
;GENERAL LASALLE;Maternelle;5 RUE DU GENERAL LASALLE;48.874019; 2.380305;R;
;EUGENIE COTTON        A;Elementaire;16 RUE EUGENIE COTTON (ECOLE A;48.87813; 2.394113;R;
;PREVOYANCE;Maternelle;29 RUE DE LA PREVOYANCE;48.883702; 2.394544;R;
;ROMAINVILLE    B;Maternelle;59B RUE DE ROMAINVILLE;48.877036; 2.401337;R;
;SIMON BOLIVAR;Maternelle;65 AVENUE SIMON BOLIVAR;48.876427; 2.377355;R;
;SIMON BOLIVAR;Elementaire;67 AVENUE SIMON BOLIVAR;48.876359; 2.377262;R;
;PIERRE GIRARD;Elementaire;9 RUE PIERRE GIRARD;48.885913; 2.379601;R;
;TANDOU;Polyvalente;16 RUE TANDOU;48.886148; 2.379949;R;
;TANGER;Elementaire;17 RUE DE TANGER;48.885628; 2.368113;R;
;TANDOU;Maternelle;22-28 RUE TANDOU;48.886654; 2.380963;R;
;BIDASSOA;Maternelle;21 RUE DE LA BIDASSOA;48.866016; 2.393827;R;
;CLOS;Maternelle;18 RUE DU CLOS;48.85722; 2.40706;R;
;GAMBETTA;Elementaire;103 AVENUE GAMBETTA;48.866818; 2.399962;R;
;LE VAU        A;Elementaire;20 RUE LE VAU;48.86754; 2.411208;R;
;LE VAU;Polyvalente;10 RUE LE VAU;48.866983; 2.411145;R;
;OLIVIER METRA        B;Elementaire;22 RUE OLIVIER METRA;48.872899; 2.394335;R;
;PIERRE FONCIN       A;Elementaire;8 RUE PIERRE FONCIN;48.871358; 2.409702;R;
;PLAINE       B;Elementaire;9 RUE DE LA PLAINE;48.849963; 2.399908;R;
;PLANCHAT;Elementaire;54 RUE PLANCHAT;48.855971; 2.396469;R;
;RETRAIT;Maternelle;24 RUE DU RETRAIT;48.868985; 2.393934;R;
;TELEGRAPHE;Maternelle;29 RUE DU TELEGRAPHE;48.873316; 2.399174;R;
;OLIVIER METRA;Polyvalente;32-34 RUE OLIVIER METRA;48.873282; 2.393869;R;
;AMANDIERS;Elementaire;103-111 RUE DES AMANDIERS;48.867828; 2.388588;R;
;CHAMPAGNE;Polyvalente;17-21 CITE CHAMPAGNE;48.85329; 2.403692;R;
;COLETTE MAGNY;Elementaire;15 RUE COLETTE MAGNY;48.894857; 2.376537;R;
;COLETTE MAGNY;Elementaire;17 RUE COLETTE MAGNY;48.894857; 2.376537;R;
;FESSART;Elementaire;4 RUE FESSART;48.876204; 2.388627;R;
;RAMPAL;Elementaire;11 RUE RAMPAL;48.873723; 2.379667;R;
;EUGENIE COTTON;Maternelle;20 RUE EUGENIE COTTON;48.878219; 2.394237;R;
;MANIN        B;Elementaire;30 RUE MANIN;48.883349; 2.389041;R;
;NOYER DURAND;Maternelle;5 RUE DU NOYER DURAND;48.886727; 2.399121;R;
;OURCQ     B    B;Elementaire;105B RUE DE L'OURCQ (ECOLE B);;;R;
;PALESTINE;Maternelle;1 RUE DE PALESTINE;48.876396; 2.389456;R;
;TANGER        A;Elementaire;41 RUE DE TANGER (ECOLE A);48.887761; 2.370231;R;
;TANGER;Maternelle;41 RUE DE TANGER;48.887761; 2.370231;R;
;GEORGES THILL;Maternelle;11 - 17 RUE GEORGES THILL;48.887334; 2.388754;R;
;CAMBRAI;Maternelle;5 BIS RUE DE CAMBRAI;48.893796; 2.377226;R;
;EMELIE;Maternelle;8 PASSAGE EMELIE;48.88354; 2.37681;R;
;GOUBET;Elementaire;4 RUE GOUBET;48.88452; 2.390241;R;
;LEPAGE;Maternelle;11 CITE LEPAGE;48.880432; 2.371345;R;
;HENRI NOGUERES;Polyvalente;10 RUE HENRI NOGUERES;48.884842; 2.374408;R;
;MANIN;Maternelle;34 RUE MANIN;48.883496; 2.389421;R;
;CLOS;Elementaire;18 RUE DU CLOS;48.85722; 2.40706;R;
;LE VAU;Maternelle;8 RUE LE VAU;48.866372; 2.411398;R;
;PIERRE FONCIN       B;Polyvalente;4 RUE PIERRE FONCIN;48.871347; 2.409383;R;
;FONTARABIE;Maternelle;12 RUE DE FONTARABIE;48.857549; 2.400476;R;
;PIAT;Polyvalente;36-38 RUE PIAT;48.872182; 2.38476;R;
;PLANCHAT;Maternelle;52 RUE PLANCHAT;48.855615; 2.396754;R;
;PYRENEES;Elementaire;40 RUE DES PYRENEES;48.850917; 2.406499;R;
;SURMELIN;Maternelle;18 RUE DU SURMELIN;48.867985; 2.403266;R;
;TOURTILLE;Maternelle;39 RUE DE TOURTILLE;48.872016; 2.380538;R;
;VITRUVE;Maternelle;61 RUE VITRUVE;48.859512; 2.407028;R;
;VITRUVE;Maternelle;68 RUE VITRUVE;48.859256; 2.406787;R;
;REUNION;Maternelle;91 RUE DE LA REUNION;48.85645; 2.40025;R;
;ST JACQUES      B;Elementaire;250B RUE SAINT JACQUES;48.844541; 2.342418;R;
;CHOMEL;Polyvalente;8 RUE CHOMEL;48.852171; 2.325544;R;
;MOTTE PICQUET;Elementaire;10 AVENUE DE LA MOTTE PICQUET;48.856906; 2.309071;R;
;ROQUEPINE;Maternelle;16 RUE ROQUEPINE;48.873349; 2.318485;R;
;BRUXELLES;Maternelle;34 RUE DE BRUXELLES;48.882915; 2.328575;R;
;BUFFAULT;Elementaire;32 RUE BUFFAULT;48.876305; 2.342431;R;
;CHAPTAL;Elementaire;12 RUE CHAPTAL;48.880826; 2.33362;R;
;BUFFAULT;Maternelle;34 RUE BUFFAULT;48.876442; 2.342495;R;
;DOMREMY;Maternelle;15 RUE DE DOMREMY;48.830325; 2.373114;R;
;MAURICE GENEVOIX;Polyvalente;3 RUE MAURICE GENEVOIX;48.894464; 2.360447;R;
;TORCY;Maternelle;12 RUE DE TORCY;48.891254; 2.364076;R;
;EMILE DUPLOYE;Maternelle;27 RUE EMILE DUPLOYE;48.889826; 2.355126;R;
;PAJOL;Polyvalente;11 RUE PAJOL;48.885501; 2.360584;R;
;SIMPLON;Polyvalente;14 RUE SIMPLON;48.893603; 2.351183;R;
;CHEMINETS;Elementaire;16 RUE DES CHEMINETS;48.887648; 2.398704;R;
;COMPANS         A;Elementaire;106 RUE COMPANS;48.880396; 2.389772;R;
;FESSART;Maternelle;36 RUE FESSART;48.876818; 2.384213;R;
;ALOUETTES;Elementaire;5 RUE DES ALOUETTES;48.8771; 2.385287;R;
;JOMARD;Elementaire;9 RUE JOMARD;48.88971; 2.379576;R;
;ARCHEREAU;Maternelle;63 RUE ARCHEREAU;48.892856; 2.375825;R;
;SADI LECOINTE;Maternelle;8 RUE SADI LECOINTE;48.880356; 2.373876;R;
;SIMON BOLIVAR         B;Elementaire;119 AVENUE SIMON BOLIVAR (EC.B;;;R;
;SEPTIEME ART;Maternelle;2-4 COURS DU 7EME ART;48.878139; 2.387602;R;
;JEAN MENANS;Maternelle;2 RUE JEAN MENANS;48.881057; 2.378707;R;
;MACDONALD;Polyvalente;141 BOULEVARD MAC DONALD;;;R;
;HIS;Elementaire;14 RUE MATHIS;48.890867; 2.375486;R;
;QUARRE ECOLE RELAI CURIAL A;Elementaire;12 RUE JEAN QUARRE;48.876816; 2.396738;R;
;DARIUS MILHAUD;Maternelle;53 ALLEE DARIUS MILHAUD;48.88457; 2.390867;R;
;BELLEVILLE;Maternelle;345-347 RUE DE BELLEVILLE;48.874991; 2.39193;R;
;AUBERVILLIERS;Maternelle;28-30 RUE D'AUBERVILLIERS;48.885793; 2.366098;R;
;MOURAUD;Maternelle;9 RUE MOURAUD;48.854827; 2.407687;R;
;COUR DES NOUES;Maternelle;26 RUE DE LA COUR DES NOUES;48.864337; 2.400651;R;
;COURONNES;Maternelle;94 RUE DES COURONNES;48.870419; 2.38766;R;
;ETIENNE DOLET;Elementaire;31 RUE ETIENNE DOLET;48.868147; 2.385352;R;
;MARAICHERS;Maternelle;31 RUE DES MARAICHERS;48.850983; 2.407179;R;
;MARYSE HILSZ;Elementaire;20 RUE MARYSE HILSZ;48.850772; 2.412793;R;
;MARYSE HILSZ;Maternelle;18 RUE MARYSE HILSZ;48.850531; 2.412835;R;
;PELLEPORT;Polyvalente;166 RUE PELLEPORT;48.873377; 2.397987;R;
;PYRENEES;Elementaire;97 RUE DES PYRENEES;48.855032; 2.405253;R;
;PYRENEES         B;Elementaire;291 RUE DES PYRENEES;48.869301; 2.394867;R;
;PYRENEES;Maternelle;99 RUE DES PYRENEES;48.855158; 2.405215;R;
;RIBLETTE        B;Elementaire;14 RUE RIBLETTE;48.859967; 2.40597;R;
;SORBIER;Elementaire;15 RUE SORBIER;48.866319; 2.392293;R;
;MOURAUD;Elementaire;5 RUE MOURAUD;48.854708; 2.407777;R;
;ALQUIER DEBROUSSE;Polyvalente;12 ALLEE ALQUIER DEBROUSSE;48.861246; 2.408196;R;
;JOSSEAUME;Elementaire;3-7 PASSAGE JOSSEAUME;48.855031; 2.402476;R;
;COYE FORET;Elementaire;DOMAINE DES TROIS CHATEAUX;49.142197; 2.47677;R;
;Institut d'administration des entreprises de Paris;Autre établissement;21 RUE BROCA;48.8384; 2.34851;R;
;École française d'Extrême-Orient;École française à l'étranger;22 AVENUE DU PRESIDENT WILSON;48.8645; 2.29221;R;
;École des hautes études en sciences sociales;Grand établissement;190 AVENUE AVENUE DE FRANCE;48.8362; 2.37173;R;
;Institut national des langues et civilisations orientales;Grand établissement;65 RUE DES GRANDS MOULINS;48.8274; 2.37608;R;
;Groupe des écoles nationales d'économie et statistique;Grand établissement relevant d'un autre département ministériel;18 Boulevard Adolphe Pinard;48.8243094; 2.3026;R;
;Institut Mines-Télécom;Grand établissement relevant d'un autre département ministériel;46 RUE BARRAULT;48.8265; 2.34648;R;
;Consortium national pour l'agriculture l'alimentation la santé animale et l'environnement;Pôle de recherche et d'enseignement supérieur;147 rue de l'université;48.8610223; 2.3063612;R;
;ParisTech;Pôle de recherche et d'enseignement supérieur;12 RUE EDOUARD MANET;48.8328; 2.35787;R;
;Université Panthéon-Assas;Université;12 PLACE DU PANTHEON;48.8468; 2.34488;R;
;Université Paris 1 - Panthéon Sorbonne;Université;12 PLACE DU PANTHEON;48.8468; 2.34488;R;
;Université de recherche Paris sciences et lettres - PSL Research University;Communauté d'universités et établissements;62 BIS RUE GAY LUSSAC;48.8422; 2.34303;R;
;Hautes Études-Sorbonne-Arts et Métiers;Communauté d'universités et établissements;15 RUE SOUFLOT;48.8469; 2.34213;R;
;Institut catholique de Paris;Établissement privé d'enseignement universitaire;21 RUE D'ASSAS;48.848056; 2.329167;R;
;Institut supérieur d'électronique de Paris;École d'ingénieurs;28 RUE NOTRE DAME DES CHAMPS;48.845577; 2.328141;R;
;École d'ingénieur de la ville de Paris;Etablissement relevant d'un autre département ministériel rattaché à un EPSCP;78 RUE REBEVAL;48.8741; 2.382;R;
;Conservatoire national des arts et métiers;Grand établissement;292 RUE SAINT MARTIN;48.867; 2.35463;R;
;Université Paris-Dauphine;Grand établissement;PLACE DU MARECHAL DE TASSIGNY;48.871; 2.2741;R;
;Institut des sciences et industries du vivant et de l'environnement;Grand établissement relevant d'un autre département ministériel;16 RUE CLAUDE BERNARD;48.8393; 2.34879;R;
;Université Paris-Sorbonne;Université;1 RUE VICTOR COUSIN;48.8483; 2.34281;R;
;Facultés Libres de Philosophie et de Psychologie;Autre établissement;70 AVENUE DENFERT ROCHEREAU;48.838711; 2.335121;R;
;École nationale supérieure de chimie de Paris;Écoles nationales supérieures d'ingénieurs;11 RUE PIERRE ET MARIE CURIE;48.8445; 2.34397;R;
;École pratique des hautes études;Grand établissement;4 RUE FERRUS;48.8587; 2.32933;R;
;Institut de physique du globe;Grand établissement;4 PLACE JUSSIEU;48.8466; 2.35448;R;
;Institut national du sport de l'expertise et de la performance;Grand établissement relevant d'un autre département ministériel;11 AVENUE DU TREMBLAY;48.8339; 2.45116;R;
;Université Sorbonne Nouvelle - Paris 3;Université;17 RUE DE LA SORBONNE;48.8489; 2.34313;R;
;École normale supérieure de Paris;École normale supérieure;45 RUE D'ULM;48.8423; 2.34429;R;
;École nationale supérieure d'arts et métiers;Grand établissement;151 BOULEVARD DE L'HOPITAL;48.8337; 2.35751;R;
;Institut d'études politiques de Paris;Grand établissement;27 RUE SAINT GUILLAUME;48.8541; 2.3284;R;
;Institut national d'histoire de l'art;Grand établissement;2 RUE VIVIENNE;48.8665; 2.33884;R;
;Muséum national d'histoire naturelle;Grand établissement;57 RUE CUVIER;48.8438; 2.3552;R;
;Université Paris Descartes;Université;12 RUE DE L'ECOLE DE MEDECINE;48.8512; 2.34077;R;
;Université Paris Lumières;Communauté d'universités et établissements;57 RUE DES FRANCS-BOURGEOIS;48.8596; 2.35737;R;
;Université Sorbonne Paris Cité;Communauté d'universités et établissements;190 AVENUE DE FRANCE;48.8362; 2.37173;R;
;Sorbonne Universités;Communauté d'universités et établissements;26 RUE DES FOSSÉS SAINT-JACQUES;48.844946; 2.344847;R;
;Collège de France;Grand établissement;11 PLACE MARCELIN BERTHELOT;48.8491; 2.34553;R;
;École nationale des Chartes;Grand établissement;19 RUE DE LA SORBONNE;48.8486; 2.34295;R;
;Observatoire de Paris;Grand établissement;61 AVENUE DE L'OBSERVATOIRE;48.837; 2.33652;R;
;Université Paris Diderot;Université;5 RUE THOMAS MANN;48.8302; 2.3807;R;
;Université Pierre et Marie Curie;Université;4 PLACE JUSSIEU;48.8466; 2.35448;R;
;Institut de management et de communication interculturels;Autre établissement;21 RUE D'ASSAS;48.848121; 2.329641;R;
;Institut national des sciences appliquées de Rouen;Instituts et écoles extérieurs aux universités;AVENUE DE L'UNIVERSITE;49.3858; 1.06927;R;
;Université du Havre;Université;25 RUE PHILIPPE LEBON;49.4959; 0.129114;R;
;Université de Rouen;Université;1 RUE THOMAS BECKET;49.4583; 1.06895;R;
;Université Paris-Est Marne-la-Vallée;Université;5 BOULEVARD DESCARTES;48.8396; 2.58651;R;
;Université Paris-Est;Communauté d'universités et établissements;5 BOULEVARD DESCARTES;48.8395; 2.58643;R;
;École nationale des ponts et chaussées;Grand établissement relevant d'un autre département ministériel;6 AVENUE B PASCAL CITE DESCARTE;48.841; 2.58823;R;
;Université de Versailles Saint-Quentin-en-Yvelines;Université;55 AVENUE DE PARIS;48.7996; 2.1417;R;
;École supérieure des techniques aéronautiques et de construction automobile;École d'ingénieurs;12 AVENUE PAUL DELOUVRIER;48.787471; 2.041088;R;
;Université Paris-Seine;Communauté d'universités et établissements;5 RUE PASTEUR;48.9004; 2.06979;R;
;Université de Picardie Jules-Verne;Université;CHEMIN DU THIL;49.8743; 2.26417;R;
;Institut national universitaire Jean-François Champollion;Autre établissement;PLACE DE VERDUN;43.92; 2.139;R;
;Université du Sud Toulon - Var;Université;AVENUE DE L'UNIVERSITE;43.1369; 6.01684;R;
;Université d'Avignon et des Pays de Vaucluse;Université;74 RUE LOUIS PASTEUR;43.9496; 4.81774;R;
;École nationale supérieure de mécanique et d'aérotechnique de Poitiers;Écoles nationales supérieures d'ingénieurs;1 AVENUE CLEMENT ADER TELEPORT 2;46.661; 0.362013;R;
;Université de Poitiers;Université;15 RUE DE L'HOTEL DIEU;46.5861; 0.346654;R;
;Centre national d'enseignement à distance;Autre établissement;;46.6512; 0.372263;R;
;École nationale supérieure de céramique industrielle de Limoges;Écoles nationales supérieures d'ingénieurs;73 AV ALBERT THOMAS;45.8367; 1.24195;R;
;Université de Limoges;Université;33 RUE FRANCOIS MITTERAND;45.8263; 1.25917;R;
;Université de technologie de Belfort-Montbéliard;Instituts et écoles extérieurs aux universités;RUE DU CHATEAU;47.5871; 6.86586;R;
;Université d'Évry-Val d'Essonne;Université;BOULEVARD FRANCOIS MITTERRAND;48.6249; 2.42643;R;
;École nationale supérieure d'informatique pour l'industrie et l'entreprise;Écoles nationales supérieures d'ingénieurs;1 SQUARE DE LA RESISTANCE;48.6262; 2.43202;R;
;Université Paris-Sud;Université;15 RUE GEORGES CLEMENCEAU;48.698; 2.17955;R;
;Institut d'Optique Graduate School;Établissements d'enseignement supérieur privés rattachés à un EPSCP;2 AVENUE AUGUSTIN FRESNEL;48.7146; 2.21249;R;
;Université Paris-Saclay;Communauté d'universités et établissements;ROUTE DE L'ORME AUX MERISIERS - RD 128;48.707848; 2.152462;R;
;CentraleSupélec;Grand établissement;3 RUE JOLIOT CURIE;48.7085703; 2.1640267;R;
;Université Paris Ouest Nanterre La Défense;Université;200 AVENUE DE LA REPUBLIQUE;48.9035; 2.21448;R;
;EPF - École d'ingénieur-e-s;École d'ingénieurs;3 BIS RUE LAKANAL;48.778686; 2.303405;R;
;Institut national supérieur de formation et de recherche pour l'éducation des jeunes handicapés et les enseignements adaptés;Autre établissement;58 AVENUE DES LANDES;48.8694; 2.21284;R;
;École nationale supérieure maritime;Grand établissement relevant d'un autre département ministériel;1 PLACE DES DEGRES;48.8898; 2.2366;R;
;Campus Condorcet;Pôle de recherche et d'enseignement supérieur;4 rue de la Croix-Faron;48.9123484; 2.362144;R;
;Université Paris 13 - Paris Nord;Université;AVENUE JEAN BAPTISTE CLEMENT;48.9571; 2.33972;R;
;Université Paris 8 - Vincennes - Saint-Denis;Université;2 RUE DE LA LIBERTE;48.946; 2.36213;R;
;École nationale supérieure Louis Lumière;Autre établissement;ALLEE DU PROMONTOIRE;48.8417; 2.57294;R;
;Institut supérieur de mécanique de Paris;Instituts et écoles extérieurs aux universités;3 RUE FERNAND HAINAUT;48.9198; 2.33287;R;
;École spéciale des travaux publics du bâtiment et de l'industrie;Établissements d'enseignement supérieur privés rattachés à un EPSCP;28 AVENUE PDT WILSON;48.793468; 2.330457;R;
;École supérieure d'ingénieurs des travaux de la construction de Cachan;École d'ingénieurs;28 AVENUE DU PRESIDENT WILSON;48.793468; 2.330457;R;
;Université Paris-Est Créteil Val-de-Marne;Université;61 AVENUE DU GENERAL DE GAULLE;48.7888; 2.44239;R;
;École d'ingénieur généraliste en informatique et technologies du numérique;École d'ingénieurs;30  AVENUE DE LA REPUBLIQUE;48.789672; 2.36385;R;
;École normale supérieure de Cachan;École normale supérieure;61 AVENUE DU PRESIDENT WILSON;48.7891; 2.32531;R;
;École nationale vétérinaire d'Alfort;Etablissement relevant d'un autre département ministériel rattaché à un EPSCP;7 AVENUE DU GENERAL DE GAULLE;48.8145; 2.42097;R;
;École nationale supérieure de l'électronique et de ses applications de Cergy;Écoles habilitées à délivrer un diplôme d'ingénieur;6 AVENUE DU PONCEAU;49.0391; 2.071;R;
;École d'ingénieur d'agro-développement international;École d'ingénieurs;32 BOULEVARD DU PORT;49.032747; 2.066202;R;
;Université de Cergy-Pontoise;Université;33 BOULEVARD DU PORT;49.0342; 2.06771;R;
;Institut polytechnique Grand Paris;Communauté d'universités et établissements;AVENUE DU PARC;49.0354842; 2.0697085;R;
;École supérieure des sciences économiques et commerciales;Autre établissement;AVENUE BERNARD HIRSCH;49.03397; 2.078427;R;
;École internationale des sciences du traitement de l'information;Établissements d'enseignement supérieur privés rattachés à un EPSCP;2 AVENUE DU PARC;49.034918; 2.070626;R;
;ECAM-EPMI;École d'ingénieurs;13 BOULEVARD DE L HAUTIL;49.031566; 2.075172;R;
;École de biologie industrielle;École d'ingénieurs;32 BOULEVARD DU PORT;49.032572; 2.066106;R;
;Université des Antilles;Université;;16.2221; -61.5362;R;
;Université de Guyane;Université;2091 ROUTE DE BADUEL;4.93277968427; -52.3015112003;R;
;Université de La Réunion;Université;15 AV RENE CASSIN;-20.9019; 55.4843;R;
;Centre Universitaire de Mayotte;Autre établissement;ROUTE NATIONALE 3;-12.845431; 45.187189;R;
;Université de la Polynésie Française;Université;;-17.576944; -149.609167;R;
;Université de la Nouvelle-Calédonie;Université;145 AVENUE JAMES COOK;-22.2638507; 166.4043178;R;
;École française d'Athènes;École française à l'étranger;6 RUE DIDOTOU;37.982222; 23.737778;R;
;Casa de Velázquez de Madrid;École française à l'étranger;CIUDAD UNIVERSITARIA;40.441067; -3.729864;R;
;École française de Rome;École française à l'étranger;67 PIAZZA FARNESE;41.894722; 12.470833;R;
;Institut français d'archéologie orientale du Caire;École française à l'étranger;MOUNIRA BP QASR EL AINI;30.0328599; 31.2352879;R;
;Université confédérale Léonard de Vinci;Communauté d'universités et établissements;;47.3965; 0.681115;R;
